{"type":"FeatureCollection","features":[{"type":"Feature","geometry":{"type":"Point","coordinates":[77.60547,13.12342]},"properties":{"name":"APTS Urban Primary Health Centre","kind":"Urban primary health centre","phone":"9739895701"}},{"type":"Feature","geometry":{"type":"Point","coordinates":[77.56569,13.10236]},"properties":{"name":"ATTURU Urban Primary Health Centre","kind":"Urban primary health centre","phone":"9448236208"}},{"type":"Feature","geometry":{"type":"Point","coordinates":[77.55364,13.08039]},"properties":{"name":"M S PALYA Urban Primary Health Centre","kind":"Urban primary health centre","phone":"9886639322"}},{"type":"Feature","geometry":{"type":"Point","coordinates":[77.62772,13.0985]},"properties":{"name":"AGRAHARA Urban Primary Health Centre","kind":"Urban primary health centre","phone":"9611621286"}},{"type":"Feature","geometry":{"type":"Point","coordinates":[77.63202,13.06974]},"properties":{"name":"THANISANDRA Urban Primary Health Centre","kind":"Urban primary health centre","phone":"8861104895"}},{"type":"Feature","geometry":{"type":"Point","coordinates":[77.60023,13.06559]},"properties":{"name":"AMRUTHAHALLI Urban Primary Health Centre","kind":"Urban primary health centre","phone":"9480216164"}},{"type":"Feature","geometry":{"type":"Point","coordinates":[77.57539,13.06008]},"properties":{"name":"KODIGEHALLI Urban Primary Health Centre","kind":"Urban primary health centre","phone":"9448792436"}},{"type":"Feature","geometry":{"type":"Point","coordinates":[77.57825,13.0683]},"properties":{"name":"SAHAKARNAGAR Urban Primary Health Centre","kind":"Urban primary health centre","phone":"8050774714"}},{"type":"Feature","geometry":{"type":"Point","coordinates":[77.55706,13.07092]},"properties":{"name":"THINDLU Urban Primary Health Centre","kind":"Urban primary health centre","phone":"8618776088"}},{"type":"Feature","geometry":{"type":"Point","coordinates":[77.53886,13.07053]},"properties":{"name":"BYATARAYANAPURA Urban Primary Health Centre","kind":"Urban primary health centre","phone":"9742110589"}},{"type":"Feature","geometry":{"type":"Point","coordinates":[77.52869,13.07131]},"properties":{"name":"Abbigere Uphc 1 Urban Primary Health Centre","kind":"Urban primary health centre","phone":"8618285360"}},{"type":"Feature","geometry":{"type":"Point","coordinates":[77.50929,13.05802]},"properties":{"name":"MALLASANDRA UPHC 1 Urban Primary Health Centre","kind":"Urban primary health centre","phone":"9449683898"}},{"type":"Feature","geometry":{"type":"Point","coordinates":[77.49946,13.06101]},"properties":{"name":"BAGALAGUNTE Urban Primary Health Centre","kind":"Urban primary health centre","phone":"8971001852"}},{"type":"Feature","geometry":{"type":"Point","coordinates":[77.51039,13.0492]},"properties":{"name":"NELAMAHESHWARI Urban Primary Health Centre","kind":"Urban primary health centre","phone":"9845646376"}},{"type":"Feature","geometry":{"type":"Point","coordinates":[77.48384,13.03255]},"properties":{"name":"THIPPENAHALLI Urban Primary Health Centre","kind":"Urban primary health centre","phone":"9886493087"}},{"type":"Feature","geometry":{"type":"Point","coordinates":[77.51245,13.01332]},"properties":{"name":"RAJAGOPALNAGAR Urban Primary Health Centre","kind":"Urban primary health centre","phone":"9731825515"}},{"type":"Feature","geometry":{"type":"Point","coordinates":[77.50428,13.00391]},"properties":{"name":"HEGGANAHALLI Urban Primary Health Centre","kind":"Urban primary health centre","phone":"9739881851"}},{"type":"Feature","geometry":{"type":"Point","coordinates":[77.6494,12.92413]},"properties":{"name":"AGARA Urban Primary Health Centre","kind":"Urban primary health centre","phone":"9972963029"}},{"type":"Feature","geometry":{"type":"Point","coordinates":[77.56295,12.86227]},"properties":{"name":"ANJANAPURA Urban Primary Health Centre","kind":"Urban primary health centre","phone":"8088087243"}},{"type":"Feature","geometry":{"type":"Point","coordinates":[77.60334,12.88686]},"properties":{"name":"ARAKERE Urban Primary Health Centre","kind":"Urban primary health centre","phone":"9845658900"}},{"type":"Feature","geometry":{"type":"Point","coordinates":[77.62421,12.89642]},"properties":{"name":"BOMMANHALLI Urban Primary Health Centre","kind":"Urban primary health centre","phone":"8660534700"}},{"type":"Feature","geometry":{"type":"Point","coordinates":[77.58837,12.85786]},"properties":{"name":"GOTTIGERE Urban Primary Health Centre","kind":"Urban primary health centre","phone":"9449063353"}},{"type":"Feature","geometry":{"type":"Point","coordinates":[77.62008,12.90031]},"properties":{"name":"KODICHIKKANHALLI Urban Primary Health Centre","kind":"Urban primary health centre","phone":"9743808301"}},{"type":"Feature","geometry":{"type":"Point","coordinates":[77.57181,12.88868]},"properties":{"name":"KONANAKUNTE Urban Primary Health Centre","kind":"Urban primary health centre","phone":"9448343155"}},{"type":"Feature","geometry":{"type":"Point","coordinates":[77.62441,12.90995]},"properties":{"name":"ROOPENAGRAHARA Urban Primary Health Centre","kind":"Urban primary health centre"}},{"type":"Feature","geometry":{"type":"Point","coordinates":[77.6524,12.87192]},"properties":{"name":"SINGASANDRA Urban Primary Health Centre","kind":"Urban primary health centre","phone":"9964562935"}},{"type":"Feature","geometry":{"type":"Point","coordinates":[77.62465,12.87782]},"properties":{"name":"UPHC BEGURU Urban Primary Health Centre","kind":"Urban primary health centre","phone":"9844130888"}},{"type":"Feature","geometry":{"type":"Point","coordinates":[77.54356,12.90652]},"properties":{"name":"UTTARAHALLI Urban Primary Health Centre","kind":"Urban primary health centre","phone":"9741688775"}},{"type":"Feature","geometry":{"type":"Point","coordinates":[77.55059,12.89624]},"properties":{"name":"VASANTHAPURA Urban Primary Health Centre","kind":"Urban primary health centre","phone":"9886919977"}},{"type":"Feature","geometry":{"type":"Point","coordinates":[77.5704,12.90038]},"properties":{"name":"Yalachanahalli Urban Primary Health Centre","kind":"Urban primary health centre","phone":"9845203783"}},{"type":"Feature","geometry":{"type":"Point","coordinates":[77.5271,12.92516]},"properties":{"name":"BANGARAPPA NAGARA Urban Primary Health Centre","kind":"Urban primary health centre","phone":"9945053872"}},{"type":"Feature","geometry":{"type":"Point","coordinates":[77.48129,12.91755]},"properties":{"name":"KENGERI UPANAGARA Urban Primary Health Centre","kind":"Urban primary health centre","phone":"9741879756"}},{"type":"Feature","geometry":{"type":"Point","coordinates":[77.48381,12.91022]},"properties":{"name":"KENGERI CHC Urban Primary Health Centre","kind":"Urban primary health centre","phone":"9481230898"}},{"type":"Feature","geometry":{"type":"Point","coordinates":[77.47507,12.96605]},"properties":{"name":"ULLALU Urban Primary Health Centre","kind":"Urban primary health centre","phone":"9886603003"}},{"type":"Feature","geometry":{"type":"Point","coordinates":[77.54949,13.04796]},"properties":{"name":"JALAHALLI UPHC 1 Urban Primary Health Centre","kind":"Urban primary health centre","phone":"8618595586"}},{"type":"Feature","geometry":{"type":"Point","coordinates":[77.48553,12.98179]},"properties":{"name":"HEROHALLI Urban Primary Health Centre","kind":"Urban primary health centre","phone":"9606711561"}},{"type":"Feature","geometry":{"type":"Point","coordinates":[77.52322,13.01002]},"properties":{"name":"LAGGERE Urban Primary Health Centre","kind":"Urban primary health centre","phone":"9980197451"}},{"type":"Feature","geometry":{"type":"Point","coordinates":[77.55554,13.02251]},"properties":{"name":"YASHAVANTHPUR Urban Primary Health Centre","kind":"Urban primary health centre","phone":"8618100766"}},{"type":"Feature","geometry":{"type":"Point","coordinates":[77.55382,13.02785]},"properties":{"name":"MATTHIKERE Urban Primary Health Centre","kind":"Urban primary health centre","phone":"9980425528"}},{"type":"Feature","geometry":{"type":"Point","coordinates":[77.54195,13.0164]},"properties":{"name":"NANDHINI LAYOUT PHC 1 Urban Primary Health Centre","kind":"Urban primary health centre","phone":"8123818586"}},{"type":"Feature","geometry":{"type":"Point","coordinates":[77.50449,12.96326]},"properties":{"name":"MALLATHALLI Urban Primary Health Centre","kind":"Urban primary health centre","phone":"8277216889"}},{"type":"Feature","geometry":{"type":"Point","coordinates":[77.48401,13.03128]},"properties":{"name":"THIPPENAHALLI PHC Urban Primary Health Centre","kind":"Urban primary health centre","phone":"9900989731"}},{"type":"Feature","geometry":{"type":"Point","coordinates":[77.76184,12.99727]},"properties":{"name":"KADUGODI Urban Primary Health Centre","kind":"Urban primary health centre","phone":"9740212536"}},{"type":"Feature","geometry":{"type":"Point","coordinates":[77.74619,12.93727]},"properties":{"name":"VARTHURU Urban Primary Health Centre","kind":"Urban primary health centre","phone":"6363815882"}},{"type":"Feature","geometry":{"type":"Point","coordinates":[77.69375,12.97181]},"properties":{"name":"DODDANEKKUNDI PHC Urban Primary Health Centre","kind":"Urban primary health centre","phone":"9110289433"}},{"type":"Feature","geometry":{"type":"Point","coordinates":[77.73191,12.95576]},"properties":{"name":"SIDDAPURA Urban Primary Health Centre","kind":"Urban primary health centre","phone":"9449765102"}},{"type":"Feature","geometry":{"type":"Point","coordinates":[77.67603,12.99676]},"properties":{"name":"A NARAYANAPURA Urban Primary Health Centre","kind":"Urban primary health centre","phone":"9731857700"}},{"type":"Feature","geometry":{"type":"Point","coordinates":[77.69719,12.91002]},"properties":{"name":"DODDAKANNALLI Urban Primary Health Centre","kind":"Urban primary health centre","phone":"9482664619"}},{"type":"Feature","geometry":{"type":"Point","coordinates":[77.69901,12.99023]},"properties":{"name":"GARUDACHARPALYA Urban Primary Health Centre","kind":"Urban primary health centre","phone":"7815803934"}},{"type":"Feature","geometry":{"type":"Point","coordinates":[77.75985,12.9676]},"properties":{"name":"HAGADURU Urban Primary Health Centre","kind":"Urban primary health centre","phone":"7899957469"}},{"type":"Feature","geometry":{"type":"Point","coordinates":[77.64247,13.06289]},"properties":{"name":"K NARAYANAPURA Urban Primary Health Centre","kind":"Urban primary health centre","phone":"8762961062"}},{"type":"Feature","geometry":{"type":"Point","coordinates":[77.67889,12.94449]},"properties":{"name":"Yemluru Urban Primary Health Centre","kind":"Urban primary health centre","phone":"8660951225"}},{"type":"Feature","geometry":{"type":"Point","coordinates":[77.6961,12.95853]},"properties":{"name":"MARATHAHALLI Urban Primary Health Centre","kind":"Urban primary health centre","phone":"8296776582"}},{"type":"Feature","geometry":{"type":"Point","coordinates":[77.75157,12.93796]},"properties":{"name":"VIBUTIPURA PHC Urban Primary Health Centre","kind":"Urban primary health centre","phone":"8660569642"}},{"type":"Feature","geometry":{"type":"Point","coordinates":[77.67202,13.00674]},"properties":{"name":"vijinapura phc Urban Primary Health Centre","kind":"Urban primary health centre","phone":"9986694289"}},{"type":"Feature","geometry":{"type":"Point","coordinates":[77.67829,13.01495]},"properties":{"name":"RAMMURTHY NAGAR Urban Primary Health Centre","kind":"Urban primary health centre","phone":"7022218814"}},{"type":"Feature","geometry":{"type":"Point","coordinates":[77.582,12.9987]},"properties":{"name":"AZADNAGAR Urban Primary Health Centre","kind":"Urban primary health centre","phone":"9480683914"}},{"type":"Feature","geometry":{"type":"Point","coordinates":[77.577,12.9531]},"properties":{"name":"Gooripalya J J R Nagar Urban Primary Health Centre","kind":"Urban primary health centre","phone":"7019164454"}},{"type":"Feature","geometry":{"type":"Point","coordinates":[77.604,12.9112]},"properties":{"name":"Anjanappa Garden Urban Primary Health Centre","kind":"Urban primary health centre","phone":"9986606960"}},{"type":"Feature","geometry":{"type":"Point","coordinates":[77.6115,13]},"properties":{"name":"IRCS Urban Primary Health Centre","kind":"Urban primary health centre","phone":"9980376666"}},{"type":"Feature","geometry":{"type":"Point","coordinates":[77.5261,12.9948]},"properties":{"name":"Gangondanahalli Urban Primary Health Centre","kind":"Urban primary health centre","phone":"9611507245"}},{"type":"Feature","geometry":{"type":"Point","coordinates":[77.5553,12.9844]},"properties":{"name":"Govindarajnagar Urban Primary Health Centre","kind":"Urban primary health centre","phone":"9480683900"}},{"type":"Feature","geometry":{"type":"Point","coordinates":[77.5573,12.9962]},"properties":{"name":"MOODALPALYA Urban Primary Health Centre","kind":"Urban primary health centre","phone":"9686379950"}},{"type":"Feature","geometry":{"type":"Point","coordinates":[77.5651,12.9908]},"properties":{"name":"Hosahalli Urban Primary Health Centre","kind":"Urban primary health centre","phone":"9886100226"}},{"type":"Feature","geometry":{"type":"Point","coordinates":[77.5697,12.9376]},"properties":{"name":"A D Halli Urban Primary Health Centre","kind":"Urban primary health centre","phone":"8050649814"}},{"type":"Feature","geometry":{"type":"Point","coordinates":[77.6265,12.9735]},"properties":{"name":"Pantharapalya Urban Primary Health Centre","kind":"Urban primary health centre","phone":"9880446506"}},{"type":"Feature","geometry":{"type":"Point","coordinates":[77.5457,13.0152]},"properties":{"name":"KODANDRAM PURA Urban Primary Health Centre","kind":"Urban primary health centre","phone":"9886210326"}},{"type":"Feature","geometry":{"type":"Point","coordinates":[77.5978,12.9618]},"properties":{"name":"Magadi Road Urban Primary Health Centre","kind":"Urban primary health centre","phone":"9008049976"}},{"type":"Feature","geometry":{"type":"Point","coordinates":[77.5969,12.9494]},"properties":{"name":"Srirampuram Urban Primary Health Centre","kind":"Urban primary health centre","phone":"9886205341"}},{"type":"Feature","geometry":{"type":"Point","coordinates":[77.55873,13.03266]},"properties":{"name":"Manvarthpete Urban Primary Health Centre","kind":"Urban primary health centre","phone":"9448065120"}},{"type":"Feature","geometry":{"type":"Point","coordinates":[77.56746,12.98862]},"properties":{"name":"Subhashnagar Urban Primary Health Centre","kind":"Urban primary health centre","phone":"9980767810"}},{"type":"Feature","geometry":{"type":"Point","coordinates":[77.5758,13.03435]},"properties":{"name":"Kamakshiplaya Urban Primary Health Centre","kind":"Urban primary health centre","phone":"9480683795"}},{"type":"Feature","geometry":{"type":"Point","coordinates":[77.50853,12.9675]},"properties":{"name":"Subramanyanagara Urban Primary Health Centre","kind":"Urban primary health centre","phone":"9880939739"}},{"type":"Feature","geometry":{"type":"Point","coordinates":[77.58836,12.97842]},"properties":{"name":"RAJAJINAGARA Urban Primary Health Centre","kind":"Urban primary health centre","phone":"9164662207"}},{"type":"Feature","geometry":{"type":"Point","coordinates":[77.5635,12.949]},"properties":{"name":"RC PURA Urban Primary Health Centre","kind":"Urban primary health centre","phone":"8762765661"}},{"type":"Feature","geometry":{"type":"Point","coordinates":[77.5682,12.9884]},"properties":{"name":"Manjunathnagar Urban Primary Health Centre","kind":"Urban primary health centre","phone":"7760532433"}},{"type":"Feature","geometry":{"type":"Point","coordinates":[77.5558,12.9507]},"properties":{"name":"P G Halli Urban Primary Health Centre","kind":"Urban primary health centre","phone":"9071332346"}},{"type":"Feature","geometry":{"type":"Point","coordinates":[77.6027,13.0223]},"properties":{"name":"Nagappa Block Urban Primary Health Centre","kind":"Urban primary health centre","phone":"9769666155"}},{"type":"Feature","geometry":{"type":"Point","coordinates":[77.5244,12.9415]},"properties":{"name":"Gandhigrama Urban Primary Health Centre","kind":"Urban primary health centre","phone":"9743576318"}},{"type":"Feature","geometry":{"type":"Point","coordinates":[77.5421,12.9705]},"properties":{"name":"SUBEDHAR PALYA Urban Primary Health Centre","kind":"Urban primary health centre","phone":"9886620365"}},{"type":"Feature","geometry":{"type":"Point","coordinates":[77.6104,12.9218]},"properties":{"name":"Nethaji Circle Urban Primary Health Centre","kind":"Urban primary health centre","phone":"7022648817"}},{"type":"Feature","geometry":{"type":"Point","coordinates":[77.53714,13.01112]},"properties":{"name":"MAHALAKSHMI LAYOUT Urban Primary Health Centre","kind":"Urban primary health centre","phone":"8618020901"}},{"type":"Feature","geometry":{"type":"Point","coordinates":[77.52426,12.9947]},"properties":{"name":"Peenya Kamalanagar Urban Primary Health Centre","kind":"Urban primary health centre","phone":"9901500116"}},{"type":"Feature","geometry":{"type":"Point","coordinates":[77.58549,12.95385]},"properties":{"name":"Shankarnagar Urban Primary Health Centre","kind":"Urban primary health centre","phone":"9480685533"}},{"type":"Feature","geometry":{"type":"Point","coordinates":[77.6433,12.9935]},"properties":{"name":"ASHOKPURAM Urban Primary Health Centre","kind":"Urban primary health centre","phone":"9731709732"}},{"type":"Feature","geometry":{"type":"Point","coordinates":[77.60772,12.944]},"properties":{"name":"Adugodi Dispensary Urban Primary Health Centre","kind":"Urban primary health centre","phone":"9902156278"}},{"type":"Feature","geometry":{"type":"Point","coordinates":[77.6133,12.94276]},"properties":{"name":"ADUGODI Urban Primary Health Centre","kind":"Urban primary health centre","phone":"9535837965"}},{"type":"Feature","geometry":{"type":"Point","coordinates":[77.54861,12.94588]},"properties":{"name":"AVALAHALLI Urban Primary Health Centre","kind":"Urban primary health centre","phone":"8892965742"}},{"type":"Feature","geometry":{"type":"Point","coordinates":[77.56469,12.92283]},"properties":{"name":"BANASHANKARI UFWC Urban Primary Health Centre","kind":"Urban primary health centre","phone":"9008255802"}},{"type":"Feature","geometry":{"type":"Point","coordinates":[77.54075,12.95478]},"properties":{"name":"Bapujinagar UHPC Urban Primary Health Centre","kind":"Urban primary health centre","phone":"9686880880"}},{"type":"Feature","geometry":{"type":"Point","coordinates":[77.56338,12.93068]},"properties":{"name":"Channammanakeretankbed UHPC Urban Primary Health Centre","kind":"Urban primary health centre","phone":"8618369221"}},{"type":"Feature","geometry":{"type":"Point","coordinates":[77.58429,12.96404]},"properties":{"name":"Dasappa Urban Primary Health Centre","kind":"Urban primary health centre","phone":"9080622257"}},{"type":"Feature","geometry":{"type":"Point","coordinates":[77.56345,12.9489]},"properties":{"name":"GG HALLI Urban Primary Health Centre","kind":"Urban primary health centre","phone":"9972628854"}},{"type":"Feature","geometry":{"type":"Point","coordinates":[77.55523,12.95079]},"properties":{"name":"Hanumanthnagara Tr Mill Urban Primary Health Centre","kind":"Urban primary health centre","phone":"9741844809"}},{"type":"Feature","geometry":{"type":"Point","coordinates":[77.59601,12.95049]},"properties":{"name":"HOMBEGOWDA NAGARA Urban Primary Health Centre","kind":"Urban primary health centre","phone":"9886879469"}},{"type":"Feature","geometry":{"type":"Point","coordinates":[77.58252,12.95653]},"properties":{"name":"Hsiddaiah Road UPHC1 Urban Primary Health Centre","kind":"Urban primary health centre","phone":"8377932181"}},{"type":"Feature","geometry":{"type":"Point","coordinates":[77.58427,12.94028]},"properties":{"name":"Jayanagara Dispensary Urban Primary Health Centre","kind":"Urban primary health centre","phone":"9945178886"}},{"type":"Feature","geometry":{"type":"Point","coordinates":[77.58413,12.94067]},"properties":{"name":"Jayanagara Urban Primary Health Centre","kind":"Urban primary health centre","phone":"9008261979"}},{"type":"Feature","geometry":{"type":"Point","coordinates":[77.57844,12.90744]},"properties":{"name":"Jayaprakashnagara Urban Primary Health Centre","kind":"Urban primary health centre","phone":"9008193333"}},{"type":"Feature","geometry":{"type":"Point","coordinates":[77.61835,12.95007]},"properties":{"name":"Koramangala Urban Primary Health Centre","kind":"Urban primary health centre","phone":"7676345289"}},{"type":"Feature","geometry":{"type":"Point","coordinates":[77.56328,12.90557]},"properties":{"name":"Kumaraswamylayout Urban Primary Health Centre","kind":"Urban primary health centre","phone":"9480683566"}},{"type":"Feature","geometry":{"type":"Point","coordinates":[77.61351,12.92345]},"properties":{"name":"MADIWALA UPHC -1 Urban Primary Health Centre","kind":"Urban primary health centre","phone":"9964464502"}},{"type":"Feature","geometry":{"type":"Point","coordinates":[77.56977,12.93811]},"properties":{"name":"Narasimharaja Colony Urban Primary Health Centre","kind":"Urban primary health centre","phone":"8277289968"}},{"type":"Feature","geometry":{"type":"Point","coordinates":[77.60391,12.91136]},"properties":{"name":"Narayanappasetty Palya Urban Primary Health Centre","kind":"Urban primary health centre","phone":"9620045901"}},{"type":"Feature","geometry":{"type":"Point","coordinates":[77.58208,12.95334]},"properties":{"name":"Pobbathi Urban Primary Health Centre","kind":"Urban primary health centre","phone":"9742734530"}},{"type":"Feature","geometry":{"type":"Point","coordinates":[77.61,12.92154]},"properties":{"name":"THAVAREKERE Urban Primary Health Centre","kind":"Urban primary health centre","phone":"9880852741"}},{"type":"Feature","geometry":{"type":"Point","coordinates":[77.56039,12.93544]},"properties":{"name":"VIDYAPEETA Urban Primary Health Centre","kind":"Urban primary health centre","phone":"7760839355"}},{"type":"Feature","geometry":{"type":"Point","coordinates":[77.54206,12.97062]},"properties":{"name":"West Of Chordroad Urban Primary Health Centre","kind":"Urban primary health centre","phone":"9986030169"}},{"type":"Feature","geometry":{"type":"Point","coordinates":[77.59969,12.92039]},"properties":{"name":"WILSON GARDEN DISPENSARY Urban Primary Health Centre","kind":"Urban primary health centre","phone":"9880686682"}},{"type":"Feature","geometry":{"type":"Point","coordinates":[77.591,12.94695]},"properties":{"name":"Wilson Garden Urban Primary Health Centre","kind":"Urban primary health centre","phone":"9844355248"}},{"type":"Feature","geometry":{"type":"Point","coordinates":[77.57683,12.93584]},"properties":{"name":"Yadiyur Urban Primary Health Centre","kind":"Urban primary health centre","phone":"9448168017"}},{"type":"Feature","geometry":{"type":"Point","coordinates":[77.56857,12.91752]},"properties":{"name":"Yarab Nagar Urban Primary Health Centre","kind":"Urban primary health centre","phone":"8217704124"}},{"type":"Feature","geometry":{"type":"Point","coordinates":[77.60403,12.98835]},"properties":{"name":"TASKER TOWN Urban Primary Health Centre","kind":"Urban primary health centre","phone":"9845817464"}},{"type":"Feature","geometry":{"type":"Point","coordinates":[77.59157,13.02588]},"properties":{"name":"UPHC Ganganagar Urban Primary Health Centre","kind":"Urban primary health centre","phone":"9886510486"}},{"type":"Feature","geometry":{"type":"Point","coordinates":[77.59443,13.0099]},"properties":{"name":"UPHC M R PALYA Urban Primary Health Centre","kind":"Urban primary health centre","phone":"7406847749"}},{"type":"Feature","geometry":{"type":"Point","coordinates":[77.62677,12.97881]},"properties":{"name":"UPHC Murphy Town Urban Primary Health Centre","kind":"Urban primary health centre","phone":"9741110351"}},{"type":"Feature","geometry":{"type":"Point","coordinates":[77.64365,12.9947]},"properties":{"name":"UPHC Old Byappanahalli Urban Primary Health Centre","kind":"Urban primary health centre","phone":"9036405889"}},{"type":"Feature","geometry":{"type":"Point","coordinates":[77.61156,13.00026]},"properties":{"name":"UPHC Robert Son Street Urban Primary Health Centre","kind":"Urban primary health centre","phone":"9035107536"}},{"type":"Feature","geometry":{"type":"Point","coordinates":[77.57556,13.03439]},"properties":{"name":"UPHC Sanjayanagar Urban Primary Health Centre","kind":"Urban primary health centre","phone":"9972418766"}},{"type":"Feature","geometry":{"type":"Point","coordinates":[77.60272,13.02231]},"properties":{"name":"UPHC Sulthan Palya Urban Primary Health Centre","kind":"Urban primary health centre","phone":"9663292686"}},{"type":"Feature","geometry":{"type":"Point","coordinates":[77.62667,12.97381]},"properties":{"name":"UPHC Ulsoor Urban Primary Health Centre","kind":"Urban primary health centre","phone":"9901393300"}},{"type":"Feature","geometry":{"type":"Point","coordinates":[77.59726,13.03645]},"properties":{"name":"UPHC V Nagenahalli Urban Primary Health Centre","kind":"Urban primary health centre","phone":"9986555314"}},{"type":"Feature","geometry":{"type":"Point","coordinates":[77.59365,12.99488]},"properties":{"name":"UPHC Vasanthnagar Urban Primary Health Centre","kind":"Urban primary health centre","phone":"9880037365"}},{"type":"Feature","geometry":{"type":"Point","coordinates":[77.61837,13.02118]},"properties":{"name":"Kghalli Urban Primary Health Centre","kind":"Urban primary health centre","phone":"9535478385"}},{"type":"Feature","geometry":{"type":"Point","coordinates":[77.6095,12.96933]},"properties":{"name":"DR B R Ambedkar Urban Primary Health Centre","kind":"Urban primary health centre","phone":"9740324746"}},{"type":"Feature","geometry":{"type":"Point","coordinates":[77.61967,12.99828]},"properties":{"name":"UPHC Cox Town Urban Primary Health Centre","kind":"Urban primary health centre","phone":"9880094957"}},{"type":"Feature","geometry":{"type":"Point","coordinates":[77.65131,13.01462]},"properties":{"name":"UPHC Banasawadi Urban Primary Health Centre","kind":"Urban primary health centre","phone":"9880406336"}},{"type":"Feature","geometry":{"type":"Point","coordinates":[77.6292,13.02095]},"properties":{"name":"UPHC Kacharakanahalli Urban Primary Health Centre","kind":"Urban primary health centre","phone":"8095454231"}},{"type":"Feature","geometry":{"type":"Point","coordinates":[77.6116,13.01017]},"properties":{"name":"UPHC D.J.Halli Urban Primary Health Centre","kind":"Urban primary health centre","phone":"7022380759"}},{"type":"Feature","geometry":{"type":"Point","coordinates":[77.64598,12.95957]},"properties":{"name":"UPHC KodiHalli Urban Primary Health Centre","kind":"Urban primary health centre","phone":"9738518889"}},{"type":"Feature","geometry":{"type":"Point","coordinates":[77.62838,13.00938]},"properties":{"name":"UPHC Lingaraj Puram Urban Primary Health Centre","kind":"Urban primary health centre","phone":"9731415555"}},{"type":"Feature","geometry":{"type":"Point","coordinates":[77.6347,12.96119]},"properties":{"name":"UPHC Domaluru Urban Primary Health Centre","kind":"Urban primary health centre","phone":"8971806667"}},{"type":"Feature","geometry":{"type":"Point","coordinates":[77.62846,12.99717]},"properties":{"name":"UPHC Jeevanahalli Urban Primary Health Centre","kind":"Urban primary health centre","phone":"7760590008"}},{"type":"Feature","geometry":{"type":"Point","coordinates":[77.59881,13.03599]},"properties":{"name":"UPHC Cholanayakana Halli Urban Primary Health Centre","kind":"Urban primary health centre","phone":"8073923094"}},{"type":"Feature","geometry":{"type":"Point","coordinates":[77.62507,12.95142]},"properties":{"name":"UPHC Austin Town Urban Primary Health Centre","kind":"Urban primary health centre","phone":"9986953714"}},{"type":"Feature","geometry":{"type":"Point","coordinates":[77.66581,12.98466]},"properties":{"name":"UPHC Bhuvaneshwari Nagar Urban Primary Health Centre","kind":"Urban primary health centre","phone":"9742184629"}},{"type":"Feature","geometry":{"type":"Point","coordinates":[77.61736,13.00719]},"properties":{"name":"UPHC New bagluru layout Urban Primary Health Centre","kind":"Urban primary health centre","phone":"9900457012"}},{"type":"Feature","geometry":{"type":"Point","coordinates":[77.61837,13.02118]},"properties":{"name":"CHC Kghalli Urban Primary Health Centre","kind":"Urban primary health centre","phone":"9448731924"}},{"type":"Feature","geometry":{"type":"Point","coordinates":[77.60092,12.95861]},"properties":{"name":"UPHC Shanthinagara Urban Primary Health Centre","kind":"Urban primary health centre","phone":"9591385565"}},{"type":"Feature","geometry":{"type":"Point","coordinates":[77.56502,12.99092]},"properties":{"name":"Srirampura referal hospital","kind":"Referral hospital (BBMP)"}},{"type":"Feature","geometry":{"type":"Point","coordinates":[77.56114,12.961]},"properties":{"name":"Sirsi road maternity home & referal hospital","kind":"Referral hospital (BBMP)"}},{"type":"Feature","geometry":{"type":"Point","coordinates":[77.53379,12.97818]},"properties":{"name":"Govindarajnagar referal hospital","kind":"Referral hospital (BBMP)"}},{"type":"Feature","geometry":{"type":"Point","coordinates":[77.62635,12.9736]},"properties":{"name":"Halsuru reffrel hospital","kind":"Referral hospital (BBMP)"}},{"type":"Feature","geometry":{"type":"Point","coordinates":[77.48394,12.91016]},"properties":{"name":"UCHC Kengeri","kind":"Referral hospital (BBMP)"}},{"type":"Feature","geometry":{"type":"Point","coordinates":[77.56464,12.92296]},"properties":{"name":"Banashankari referral hospital","kind":"Referral hospital (BBMP)"}},{"type":"Feature","geometry":{"type":"Point","coordinates":[77.58224,12.95642]},"properties":{"name":"H siddaiah road referal hospital","kind":"Referral hospital (BBMP)"}},{"type":"Feature","geometry":{"type":"Point","coordinates":[77.60144,13.00164]},"properties":{"name":"Ramaswamy Palya Namma Clinic","kind":"Namma Clinic","area":"Mrs Palya,Nandidurga Road, Chinappa Garden"}},{"type":"Feature","geometry":{"type":"Point","coordinates":[77.59202,12.99302]},"properties":{"name":"Vasanthnagar Namma Clinic","kind":"Namma Clinic","area":"Vasanthnagar .1St Main Road To 14 Main Road"}},{"type":"Feature","geometry":{"type":"Point","coordinates":[77.58997,12.96729]},"properties":{"name":"Sampangiram Nagar Namma Clinic","kind":"Namma Clinic","area":"Karagappa Garden ,Arasappa Boundary"}},{"type":"Feature","geometry":{"type":"Point","coordinates":[77.60782,12.98582]},"properties":{"name":"Bharathi Nagara Namma Clinic","kind":"Namma Clinic","area":"Narayana Pille Street, Kamaraj Road"}},{"type":"Feature","geometry":{"type":"Point","coordinates":[77.61136,12.98404]},"properties":{"name":"Velumudaliyar Namma Clinic","kind":"Namma Clinic","area":"Kamaraja Road"}},{"type":"Feature","geometry":{"type":"Point","coordinates":[77.62369,12.97467]},"properties":{"name":"Ulsoor Namma Clinic Namma Clinic","kind":"Namma Clinic","area":"Bazaar Street , Mv Garden"}},{"type":"Feature","geometry":{"type":"Point","coordinates":[77.63951,12.98042]},"properties":{"name":"Hoysala Nagara Namma Clinic","kind":"Namma Clinic","area":"New Binnamangala ,H Calony"}},{"type":"Feature","geometry":{"type":"Point","coordinates":[77.62178,12.98763]},"properties":{"name":"New Byappanahalli Namma Clinic","kind":"Namma Clinic","area":"Kallahalli,C Colony ,Kadhirayanapalya"}},{"type":"Feature","geometry":{"type":"Point","coordinates":[77.66257,13.00086]},"properties":{"name":"Lala Bhahadur Nagar Namma Clinic","kind":"Namma Clinic","area":"Kasturi Nagar , B Channasandra"}},{"type":"Feature","geometry":{"type":"Point","coordinates":[77.66373,12.99236]},"properties":{"name":"C V Raman Nagara Namma Clinic","kind":"Namma Clinic","area":"6Th Cross Chetan Hurts Nagavaraplaya"}},{"type":"Feature","geometry":{"type":"Point","coordinates":[77.64452,12.97571]},"properties":{"name":"Old Thippasandra Namma Clinic","kind":"Namma Clinic","area":"Hal 2Nd Stage Old Tipppasandra Defence Colony"}},{"type":"Feature","geometry":{"type":"Point","coordinates":[77.65208,12.97048]},"properties":{"name":"New Thippa Sandra Namma Clinic","kind":"Namma Clinic","area":"New Thippasandra Left Side . Hanuma Nagara"}},{"type":"Feature","geometry":{"type":"Point","coordinates":[77.67139,12.97642]},"properties":{"name":"Jalakanteshwara Namma Clinic","kind":"Namma Clinic","area":"Malleshpalya 2Nd Cross"}},{"type":"Feature","geometry":{"type":"Point","coordinates":[77.65995,12.96463]},"properties":{"name":"Jeevan Bhimanagar Namma Clinic","kind":"Namma Clinic","area":"Samudaya Bhavana 2 Nd Cross Jeevan Bhimanagar Anandapura Namma Clinic"}},{"type":"Feature","geometry":{"type":"Point","coordinates":[77.66076,12.9532]},"properties":{"name":"Konena Agrahara Namma Clinic","kind":"Namma Clinic","area":"4Th Cross Vinayaka Nagar Konena Agrahara"}},{"type":"Feature","geometry":{"type":"Point","coordinates":[77.63606,12.95764]},"properties":{"name":"Domlur Namma Clinic","kind":"Namma Clinic","area":"Domlur Layout"}},{"type":"Feature","geometry":{"type":"Point","coordinates":[77.62774,12.97363]},"properties":{"name":"Jogupalya Namma Clinic","kind":"Namma Clinic","area":"Jogupalya, Mottapanapalya"}},{"type":"Feature","geometry":{"type":"Point","coordinates":[77.62552,12.96881]},"properties":{"name":"Agaram Namma Clinic","kind":"Namma Clinic","area":"Gowthampura, Deenabandunagara, Cambridge Layout"}},{"type":"Feature","geometry":{"type":"Point","coordinates":[77.61505,12.96085]},"properties":{"name":"Shanthalanagar Namma Clinic","kind":"Namma Clinic","area":"Old Cementlane Slum,Victoria Layout,Yalagondanapalya"}},{"type":"Feature","geometry":{"type":"Point","coordinates":[77.62094,12.9563]},"properties":{"name":"Vannarpet Namma Clinic","kind":"Namma Clinic","area":"Vannarpete,Mayabazar,Sonnenhalli"}},{"type":"Feature","geometry":{"type":"Point","coordinates":[77.61721,12.9491]},"properties":{"name":"Neelasandra Namma Clinic","kind":"Namma Clinic","area":"Lr Nagar , Neelasandra , Ambedkarnagar , Anepalya"}},{"type":"Feature","geometry":{"type":"Point","coordinates":[77.61578,12.96166]},"properties":{"name":"Ksrp Austin Town Namma Clinic","kind":"Namma Clinic","area":"Austin Town, Bda, Jairajnagar, Rudrappa Garden"}},{"type":"Feature","geometry":{"type":"Point","coordinates":[77.60104,12.95866]},"properties":{"name":"Shantinagar Namma Clinic","kind":"Namma Clinic","area":"Shantinagar, Vinayak Nagar, Akkitimanahalli"}},{"type":"Feature","geometry":{"type":"Point","coordinates":[77.57512,12.95789]},"properties":{"name":"Dharmaraya Swamy Namma Clinic","kind":"Namma Clinic","area":"Kalasipalya Kr Market"}},{"type":"Feature","geometry":{"type":"Point","coordinates":[77.58137,12.95636]},"properties":{"name":"Sudhamanagar Nc Namma Clinic","kind":"Namma Clinic","area":"Rg Garden.Hk Garden.Aj Garden. Shambu Palya. D Mavalli."}},{"type":"Feature","geometry":{"type":"Point","coordinates":[77.5955,12.94684]},"properties":{"name":"Hombegowda Nagara Namma Clinic","kind":"Namma Clinic","area":"Lakkasandra Narayanpura Shamana Garden Lakkasandra Extension"}},{"type":"Feature","geometry":{"type":"Point","coordinates":[77.59201,12.94663]},"properties":{"name":"Someshwaranagara Namma Clinic","kind":"Namma Clinic","area":"K.M.Colony Dayananda Nagar Slum 1&2 Hombegouda Slum"}},{"type":"Feature","geometry":{"type":"Point","coordinates":[77.58173,12.94039]},"properties":{"name":"Ashoka Pillar Namma Clinic","kind":"Namma Clinic","area":"Dasara Colony, Kanakanpalya, Jayanagar 2Nd Block"}},{"type":"Feature","geometry":{"type":"Point","coordinates":[77.57699,12.9531]},"properties":{"name":"V V Puram Namma Clinic","kind":"Namma Clinic","area":"Patvatipuram, Magadi Ventatappa Roade, Buragala Math, V V Puram"}},{"type":"Feature","geometry":{"type":"Point","coordinates":[77.57328,12.94472]},"properties":{"name":"Sunkenahalli Namma Clinic","kind":"Namma Clinic","area":"Gandhi Bazaar, Shankarapuram"}},{"type":"Feature","geometry":{"type":"Point","coordinates":[77.56615,12.96148]},"properties":{"name":"Tippunagar Namma Clinic","kind":"Namma Clinic","area":"Tippunagar, Anandpuran, Baba Line"}},{"type":"Feature","geometry":{"type":"Point","coordinates":[77.5671,12.96561]},"properties":{"name":"Cheluvadipaya Namma Clinic","kind":"Namma Clinic","area":"Bar Lane, Cheluvadipalya, Mini Siddartha Nagar,Siddhartha Nagar , Jaibheen Nagar,Giripuram, Sampanige Lane, Old Pension Mohalla"}},{"type":"Feature","geometry":{"type":"Point","coordinates":[77.55757,12.95884]},"properties":{"name":"Azad Nagar Namma Clinic","kind":"Namma Clinic","area":"1St Main 1St Cross Azadnagar"}},{"type":"Feature","geometry":{"type":"Point","coordinates":[77.54979,12.96215]},"properties":{"name":"Devaraj Urs Nagar Namma Clinic","kind":"Namma Clinic","area":"Devaraja Urs Nagara. Janata Colony"}},{"type":"Feature","geometry":{"type":"Point","coordinates":[77.54654,12.96184]},"properties":{"name":"Padarayana Pura Namma Clinic","kind":"Namma Clinic","area":"Padarayanapura,Westpadarayanapura"}},{"type":"Feature","geometry":{"type":"Point","coordinates":[77.55374,12.96791]},"properties":{"name":"Jjr Nagar Nc Namma Clinic","kind":"Namma Clinic","area":"V.S Garden.And P.K Quarters"}},{"type":"Feature","geometry":{"type":"Point","coordinates":[77.561,12.9731]},"properties":{"name":"Binnypet Namma Clinic","kind":"Namma Clinic","area":"2Nd Cross Magadi Road To 8Th Cross Magadi Road,Krishnappa Bar,Rajeshwari School Road,Annapoorneshwari Temple,2Nd Railway Get"}},{"type":"Feature","geometry":{"type":"Point","coordinates":[77.56105,12.9767]},"properties":{"name":"Okalipura 1 Namma Clinic","kind":"Namma Clinic","area":"Gopalapura, Gopalapura A, Gopalapura B"}},{"type":"Feature","geometry":{"type":"Point","coordinates":[77.56272,12.97205]},"properties":{"name":"Cottonpette Namma Clinic","kind":"Namma Clinic","area":"Keshavanagar Ashwathnagarmaruyappanapalya"}},{"type":"Feature","geometry":{"type":"Point","coordinates":[77.5734,12.9704]},"properties":{"name":"Chikpette Namma Clinic","kind":"Namma Clinic","area":"Manvarthpete, Akkipete, Avenueroad, Santhishpete"}},{"type":"Feature","geometry":{"type":"Point","coordinates":[77.57486,12.98797]},"properties":{"name":"Gandhinagar Namma Clinic","kind":"Namma Clinic","area":"Jcw Nagara, Kumar Park,Nehar Nagara, Himalayan Huts"}},{"type":"Feature","geometry":{"type":"Point","coordinates":[77.57141,12.99179]},"properties":{"name":"Dattatreya Namma Clinic","kind":"Namma Clinic","area":"13Th Cross Malleshwaram, Vivekenda Block,"}},{"type":"Feature","geometry":{"type":"Point","coordinates":[77.56896,12.99222]},"properties":{"name":"Subhashnagar Namma Clinic","kind":"Namma Clinic","area":"Md Block , Vv Puram , Np Block , Swathantra Nagar"}},{"type":"Feature","geometry":{"type":"Point","coordinates":[77.56383,12.98419]},"properties":{"name":"Okalipura 2 Namma Clinic","kind":"Namma Clinic","area":"Oklipuram 1 St Stage And Oklipuram 2 Nd Stage , Kalapa Block , Gosab Lane , Robertson Block"}},{"type":"Feature","geometry":{"type":"Point","coordinates":[77.76728,12.98606]},"properties":{"name":"Kadugodi Namma Clinic","kind":"Namma Clinic","area":"Channasandra, Akg Colony , Maithri Layout, Ambedkar Nagar, Ramegowda Nagar"}},{"type":"Feature","geometry":{"type":"Point","coordinates":[77.67239,12.94631]},"properties":{"name":"Belanduru Namma Clinic","kind":"Namma Clinic","area":"Kempapura,Ambedkar Nagara"}},{"type":"Feature","geometry":{"type":"Point","coordinates":[77.71178,12.96993]},"properties":{"name":"Aecslayout Namma Clinic","kind":"Namma Clinic","area":"Aesc Layout A,B,C, D,And E Block , Lakshmi Narayanpura , Kundanahalli Colony."}},{"type":"Feature","geometry":{"type":"Point","coordinates":[77.70552,12.98666]},"properties":{"name":"Doddanekundi Namma Clinic","kind":"Namma Clinic","area":"Ahraylayout , Doddanekundi,Bangalore"}},{"type":"Feature","geometry":{"type":"Point","coordinates":[77.70809,12.99792]},"properties":{"name":"Garudacharpalya Namma Clinic","kind":"Namma Clinic","area":"Kaverinagara"}},{"type":"Feature","geometry":{"type":"Point","coordinates":[77.70478,12.93673]},"properties":{"name":"Munekolala Namma Clinic","kind":"Namma Clinic","area":"Jcr Layout,Mariyappa Layout.Munireddy Layout,Kaverappa Layout,Vinayak Colony,Ambedkar Colony.."}},{"type":"Feature","geometry":{"type":"Point","coordinates":[77.74875,12.96459]},"properties":{"name":"Whitefield Namam Clinic","kind":"Namma Clinic","area":"White Field,Dod'S Worth Enclave ,Gandhipura,Sai Layout ,Ramagondanahalli, R.Narayanapura"}},{"type":"Feature","geometry":{"type":"Point","coordinates":[77.7369,12.96891]},"properties":{"name":"Hagaduru Namma Clinic","kind":"Namma Clinic","area":"Brook Bond Stop, Hagaduru"}},{"type":"Feature","geometry":{"type":"Point","coordinates":[77.758,12.93998]},"properties":{"name":"Varthuru Namma Clinic","kind":"Namma Clinic","area":"Madhuranagar,Sorahunse,Janatha Mane"}},{"type":"Feature","geometry":{"type":"Point","coordinates":[77.68541,13.02879]},"properties":{"name":"Belathur Namma Clinic","kind":"Namma Clinic","area":"Varanasi.Kanaka Nagara.Muneshwara Layout."}},{"type":"Feature","geometry":{"type":"Point","coordinates":[77.70878,13.003]},"properties":{"name":"Hoodi Namma Clinic","kind":"Namma Clinic","area":"Ayyappa Nagara.Alfa Garaden .Hoodi"}},{"type":"Feature","geometry":{"type":"Point","coordinates":[77.68177,13.01559]},"properties":{"name":"K R Purama Namma Clinic","kind":"Namma Clinic","area":"Battarahalli . Subhasha Nagara."}},{"type":"Feature","geometry":{"type":"Point","coordinates":[77.68177,13.01563]},"properties":{"name":"Medahalli Namma Clinic","kind":"Namma Clinic","area":"Anandapura.Sunshine Layout"}},{"type":"Feature","geometry":{"type":"Point","coordinates":[77.71903,13.01292]},"properties":{"name":"Basavanapura Namma Clinic","kind":"Namma Clinic","area":"Priyanka Nagara. Slum Board.Seegehalli.Doddabasavanapura.White City"}},{"type":"Feature","geometry":{"type":"Point","coordinates":[77.70878,13.003]},"properties":{"name":"Devasandra Namma Clinic","kind":"Namma Clinic","area":"Rajivagandhi Nagara. J C Layout.Triveni Nagara"}},{"type":"Feature","geometry":{"type":"Point","coordinates":[77.6754,13.01962]},"properties":{"name":"Ramamurthynagara Mamma Clinic","kind":"Namma Clinic","area":"Chandrashekhar Layout, Sir M V Nagar, Chandravadana Layout, Ragavendra Layout"}},{"type":"Feature","geometry":{"type":"Point","coordinates":[77.65475,13.03636]},"properties":{"name":"Horamavu Namma Clinic","kind":"Namma Clinic","area":"Horamavu Agara, Jyothi Grama , Rajana Layout , Banjara Layout, Vadarapalya"}},{"type":"Feature","geometry":{"type":"Point","coordinates":[77.64746,13.02553]},"properties":{"name":"Babusapalya Namma Clinic","kind":"Namma Clinic","area":"Babusapalya, Flower Garden, Balchandra Layout, Balaji Layout, Mm Garden"}},{"type":"Feature","geometry":{"type":"Point","coordinates":[77.67794,12.96131]},"properties":{"name":"Hal Airport Namma Clinic","kind":"Namma Clinic","area":"Ramesh Nagar Vinayaka Nagar"}},{"type":"Feature","geometry":{"type":"Point","coordinates":[77.68265,12.9757]},"properties":{"name":"Viganan Nagar Namma Clinic","kind":"Namma Clinic","area":"Thalcavery Layout Basavanagar Vignanan Nagar Shivashakthi Colony Kalappa Layout Veerabhadra Nagar"}},{"type":"Feature","geometry":{"type":"Point","coordinates":[77.67375,13.01001]},"properties":{"name":"Vijinapura Namma Clinic","kind":"Namma Clinic","area":"Lakshmitheater Road , Vijinapura"}},{"type":"Feature","geometry":{"type":"Point","coordinates":[77.67708,12.97834]},"properties":{"name":"Mahadevapura Namma Clinic","kind":"Namma Clinic","area":"Abbaiah Naidu Layout, Kaggadaspura"}},{"type":"Feature","geometry":{"type":"Point","coordinates":[77.55996,13.07761]},"properties":{"name":"Vidyaranyapura Namma Clinic","kind":"Namma Clinic","area":"Vidyaranyapura"}},{"type":"Feature","geometry":{"type":"Point","coordinates":[77.56353,12.97425]},"properties":{"name":"Arogya Soudha Namma Clinic","kind":"Namma Clinic","area":"Arogya Soudha"}},{"type":"Feature","geometry":{"type":"Point","coordinates":[77.60451,13.05314]},"properties":{"name":"Kempapura Namma Clinic","kind":"Namma Clinic","area":"Coffee Board Layout/Vinayaka Layout/ Venkategowda Layout/ Mariyananpalya/Pampa Layout"}},{"type":"Feature","geometry":{"type":"Point","coordinates":[77.63281,13.05569]},"properties":{"name":"Thanisandra Namma Clinic","kind":"Namma Clinic","area":"Thanisandra, Bharath Nagar, amrjyothi layout. ashwath nagar"}},{"type":"Feature","geometry":{"type":"Point","coordinates":[77.61206,13.05465]},"properties":{"name":"Dasarahalli Namma Clinic","kind":"Namma Clinic","area":"Bhuvaneshwarinagra1-15 Cross /Antony Layout/Amruthanagra/Maruthi Layout/Kaveri Layout"}},{"type":"Feature","geometry":{"type":"Point","coordinates":[77.61958,13.0662]},"properties":{"name":"Jakkur Namma Clinic","kind":"Namma Clinic","area":"Jakkur/Sreerampura/Telecom Layout/Mcech Layout/Venkateshwar Layout/Sampegihalli"}},{"type":"Feature","geometry":{"type":"Point","coordinates":[77.59266,13.06628]},"properties":{"name":"Byatarayanapura Namma Clinic","kind":"Namma Clinic","area":"Ambedkhar Bidi/Valmikibidi/Shabarinagra/Byatarayanapura 1-5 Cross"}},{"type":"Feature","geometry":{"type":"Point","coordinates":[77.57429,13.04939]},"properties":{"name":"kodigehalli Namma Clinic","kind":"Namma Clinic","area":"B Maruthinagraha ,Bhadrappa Layout"}},{"type":"Feature","geometry":{"type":"Point","coordinates":[77.55112,13.06128]},"properties":{"name":"Ramachandrapura Namma Clinic","kind":"Namma Clinic","area":"Raghuram Layout, Kalatur Layout, Devappa Layout, Muniswamappa Layout, Ramachandrapura"}},{"type":"Feature","geometry":{"type":"Point","coordinates":[77.61306,13.03141]},"properties":{"name":"Kavalbyarasandra Namma Clinic","kind":"Namma Clinic"}},{"type":"Feature","geometry":{"type":"Point","coordinates":[77.61432,13.00787]},"properties":{"name":"Sagayapura Namma Clinic","kind":"Namma Clinic","area":"Pillanna garden 1st stage"}},{"type":"Feature","geometry":{"type":"Point","coordinates":[77.61493,13.01402]},"properties":{"name":"Kushal Nagar Namma Clinic","kind":"Namma Clinic","area":"P and T colony"}},{"type":"Feature","geometry":{"type":"Point","coordinates":[77.60694,13.01966]},"properties":{"name":"Devarajeevnahlli Namma Clinic","kind":"Namma Clinic","area":"Doddananagar 1st stage"}},{"type":"Feature","geometry":{"type":"Point","coordinates":[77.61568,13.03416]},"properties":{"name":"Nagavara namma clinic","kind":"Namma Clinic","area":"Ummar nagar"}},{"type":"Feature","geometry":{"type":"Point","coordinates":[77.61758,13.02764]},"properties":{"name":"KG halli Namma clinic","kind":"Namma Clinic","area":"Sarvodaya nagar, siddarth nagara"}},{"type":"Feature","geometry":{"type":"Point","coordinates":[77.61855,13.0106]},"properties":{"name":"Venkateshpura Namma Clinic","kind":"Namma Clinic","area":"Pillanna Garden"}},{"type":"Feature","geometry":{"type":"Point","coordinates":[77.63414,13.00867]},"properties":{"name":"Lingarajapuram Namma Clinic","kind":"Namma Clinic","area":"Janikirama layout"}},{"type":"Feature","geometry":{"type":"Point","coordinates":[77.63019,13.01177]},"properties":{"name":"kacharakanahalli Namma Clinic","kind":"Namma Clinic","area":"Oil Mill road"}},{"type":"Feature","geometry":{"type":"Point","coordinates":[77.63668,13.01268]},"properties":{"name":"Kammanahalli Namma Clinic","kind":"Namma Clinic","area":"Puneeth Rajkumar Sports and culture association"}},{"type":"Feature","geometry":{"type":"Point","coordinates":[77.62373,13.03838]},"properties":{"name":"Hennur Namma Clinic","kind":"Namma Clinic","area":"Nagawara , HBR Layout"}},{"type":"Feature","geometry":{"type":"Point","coordinates":[77.65391,13.01653]},"properties":{"name":"Banaswadi Namma Clinic","kind":"Namma Clinic","area":"Makutamma Nagar /Annaihreddy layout"}},{"type":"Feature","geometry":{"type":"Point","coordinates":[77.64121,13.0227]},"properties":{"name":"HRBR Layout Namma Clinic","kind":"Namma Clinic","area":"Dr Punith rajkumar park"}},{"type":"Feature","geometry":{"type":"Point","coordinates":[77.6376,13.00125]},"properties":{"name":"Marutisevanagar Namma Clinic","kind":"Namma Clinic","area":"Satyanagar and Naganpalya"}},{"type":"Feature","geometry":{"type":"Point","coordinates":[77.60346,13.11132]},"properties":{"name":"Kempegowda Namma Clinic","kind":"Namma Clinic","area":"Venkatala, Maruthi nagar"}},{"type":"Feature","geometry":{"type":"Point","coordinates":[77.54621,13.08792]},"properties":{"name":"Atturu Namma Clinic","kind":"Namma Clinic","area":"Vishwanagar"}},{"type":"Feature","geometry":{"type":"Point","coordinates":[77.56978,13.09799]},"properties":{"name":"Someshwara Namma Clinic","kind":"Namma Clinic","area":"Atturu Layout"}},{"type":"Feature","geometry":{"type":"Point","coordinates":[77.5314,13.05994]},"properties":{"name":"Kamagondanahalli Namma Clinic","kind":"Namma Clinic","area":"KG Halli kalanagara"}},{"type":"Feature","geometry":{"type":"Point","coordinates":[77.52862,13.07109]},"properties":{"name":"Shettyhalli Namma Clinic","kind":"Namma Clinic","area":"Chikkasandra bhagalukunte shettihalli"}},{"type":"Feature","geometry":{"type":"Point","coordinates":[77.50733,13.05394]},"properties":{"name":"Deffence Colony Namma Clinic","kind":"Namma Clinic","area":"Defence colony"}},{"type":"Feature","geometry":{"type":"Point","coordinates":[77.49553,13.05505]},"properties":{"name":"Bagalagunte Namma Clinic","kind":"Namma Clinic","area":"Manjunathnagara, Mahalakshminagara, katarayanagara"}},{"type":"Feature","geometry":{"type":"Point","coordinates":[77.51871,13.04498]},"properties":{"name":"T Dasarahalli Namma Clinc","kind":"Namma Clinic","area":"Kalastrinagara"}},{"type":"Feature","geometry":{"type":"Point","coordinates":[77.52871,13.04646]},"properties":{"name":"Veeramadakari Namma Clinic","kind":"Namma Clinic","area":"Siddharth Nagar"}},{"type":"Feature","geometry":{"type":"Point","coordinates":[77.55828,13.02954]},"properties":{"name":"JP Park Namma Clinic","kind":"Namma Clinic","area":"HMT layout"}},{"type":"Feature","geometry":{"type":"Point","coordinates":[77.5533,13.02202]},"properties":{"name":"Chanakya Namma Clinic","kind":"Namma Clinic","area":"Model Colony, LN Colony"}},{"type":"Feature","geometry":{"type":"Point","coordinates":[77.57745,13.02782]},"properties":{"name":"Radhakrishna temple ward Namma Clinic","kind":"Namma Clinic","area":"Bandecolny"}},{"type":"Feature","geometry":{"type":"Point","coordinates":[77.57979,13.04244]},"properties":{"name":"Sanjaynagar Namma Clinic","kind":"Namma Clinic","area":"Bhopasandra"}},{"type":"Feature","geometry":{"type":"Point","coordinates":[77.60466,13.03973]},"properties":{"name":"V.Nagenahalli Namma Clinic","kind":"Namma Clinic","area":"Vishwanath Nagenahalli"}},{"type":"Feature","geometry":{"type":"Point","coordinates":[77.60298,13.03239]},"properties":{"name":"Manorayana Palya Namma Clinic","kind":"Namma Clinic","area":"Vishwanath Nagenahalli"}},{"type":"Feature","geometry":{"type":"Point","coordinates":[77.58949,13.02762]},"properties":{"name":"Hebbala Namma Clinic","kind":"Namma Clinic","area":"Anandanagar, RBI Layout, Chowdaiah Block"}},{"type":"Feature","geometry":{"type":"Point","coordinates":[77.58804,13.01921]},"properties":{"name":"Ganganagar Namma Clinic","kind":"Namma Clinic","area":"Ganganagar extension"}},{"type":"Feature","geometry":{"type":"Point","coordinates":[77.59766,13.01809]},"properties":{"name":"JC Nagar Namma Clinic","kind":"Namma Clinic","area":"Thimmaih Garden"}},{"type":"Feature","geometry":{"type":"Point","coordinates":[77.59889,13.0298]},"properties":{"name":"Chamundi Nagar Namma Clinic","kind":"Namma Clinic","area":"Chamundi Nagar"}},{"type":"Feature","geometry":{"type":"Point","coordinates":[77.55451,12.91625]},"properties":{"name":"Padmanabha Nagara Namma Clinic","kind":"Namma Clinic","area":"Padmanabha nagar"}},{"type":"Feature","geometry":{"type":"Point","coordinates":[77.56202,12.91444]},"properties":{"name":"kumarswamy Layout Namma Clinic","kind":"Namma Clinic","area":"Bendre Nagar jhbcs layout minahaz nagar"}},{"type":"Feature","geometry":{"type":"Point","coordinates":[77.55574,12.90505]},"properties":{"name":"Vikram Nagar Namma Clinic","kind":"Namma Clinic","area":"Vikram Nagar"}},{"type":"Feature","geometry":{"type":"Point","coordinates":[77.56787,12.91807]},"properties":{"name":"Banashankari Temple Namma Clinic","kind":"Namma Clinic","area":"Yarabnagar"}},{"type":"Feature","geometry":{"type":"Point","coordinates":[77.58984,12.92495]},"properties":{"name":"Byrasandra Namma Clinic","kind":"Namma Clinic","area":"Muslim colony,kaveramma temple"}},{"type":"Feature","geometry":{"type":"Point","coordinates":[77.59107,12.93085]},"properties":{"name":"Tilaknagar Namma Clinic","kind":"Namma Clinic","area":"Tilaknagar"}},{"type":"Feature","geometry":{"type":"Point","coordinates":[77.58796,12.91427]},"properties":{"name":"JP Nagara Namma Clinic","kind":"Namma Clinic","area":"Marenahalli slum, Ragigudda slum"}},{"type":"Feature","geometry":{"type":"Point","coordinates":[77.58016,12.9175]},"properties":{"name":"Shakamabari Nagar Namma Clinic","kind":"Namma Clinic","area":"Jayanagar 5th block"}},{"type":"Feature","geometry":{"type":"Point","coordinates":[77.66726,12.87156]},"properties":{"name":"Naganathapura Namma Clinic","kind":"Namma Clinic","area":"Manjunath nagara, sir M Vishweshwarayya Layout"}},{"type":"Feature","geometry":{"type":"Point","coordinates":[77.65594,12.88826]},"properties":{"name":"Kudlu Namma Clinic","kind":"Namma Clinic","area":"Ambedkar Colony Kudlu Village"}},{"type":"Feature","geometry":{"type":"Point","coordinates":[77.67246,12.88686]},"properties":{"name":"KSRP 9th Namma Clinic","kind":"Namma Clinic","area":"KSRP Quatres Kudlu"}},{"type":"Feature","geometry":{"type":"Point","coordinates":[77.64921,12.86562]},"properties":{"name":"Beguru -2 Namma Clinic","kind":"Namma Clinic","area":"Vishawapriya layout, chikkabeguru"}},{"type":"Feature","geometry":{"type":"Point","coordinates":[77.6497,12.86592]},"properties":{"name":"Beguru -1 Namma Clinic","kind":"Namma Clinic","area":"Beguru"}},{"type":"Feature","geometry":{"type":"Point","coordinates":[77.59951,12.85728]},"properties":{"name":"kalena Agrahara Namma Clinic","kind":"Namma Clinic","area":"Doddakamanahalli"}},{"type":"Feature","geometry":{"type":"Point","coordinates":[77.5822,12.84933]},"properties":{"name":"Gottigere Namma Clinic","kind":"Namma Clinic","area":"Pillaganahalli"}},{"type":"Feature","geometry":{"type":"Point","coordinates":[77.58191,12.87653]},"properties":{"name":"Chunchagatta Namma Clinic","kind":"Namma Clinic","area":"kothnoor, krishna Nagar"}},{"type":"Feature","geometry":{"type":"Point","coordinates":[77.58175,12.88651]},"properties":{"name":"RBI Layout Namma Clinic","kind":"Namma Clinic","area":"Rbi Layout, Shreyas Colony, Gourav Nagar"}},{"type":"Feature","geometry":{"type":"Point","coordinates":[77.56283,12.87355]},"properties":{"name":"Konanakunte Namma Clinic","kind":"Namma Clinic","area":"Avalahalli BDA Qutres Avalahalli Anjanapura Main Road"}},{"type":"Feature","geometry":{"type":"Point","coordinates":[77.58233,12.90032]},"properties":{"name":"Puttenahalli Namma Clinic","kind":"Namma Clinic","area":"Ramappa Layout, lambani colony,anjanaya swamy temple"}},{"type":"Feature","geometry":{"type":"Point","coordinates":[77.59785,12.90053]},"properties":{"name":"Vinayakanagara Namma Clinic","kind":"Namma Clinic","area":"SMS layout Vinayak nagar Doresanipalya"}},{"type":"Feature","geometry":{"type":"Point","coordinates":[77.57005,12.87737]},"properties":{"name":"Anjanapura Namma Clinic","kind":"Namma Clinic","area":"Harinagara, Adithya nagar, Chunchagatta Main Road"}},{"type":"Feature","geometry":{"type":"Point","coordinates":[77.56451,12.90229]},"properties":{"name":"Yelechanahalli Namma Clinic","kind":"Namma Clinic","area":"Chandra Nagara,Bikasipura,Rajyothva Nagara"}},{"type":"Feature","geometry":{"type":"Point","coordinates":[77.57744,12.90168]},"properties":{"name":"Jaraganahalli Namma Clinic","kind":"Namma Clinic","area":"Sarakki Thotta Chikkaswami Layout KR Layout"}},{"type":"Feature","geometry":{"type":"Point","coordinates":[77.51361,13.05376]},"properties":{"name":"Mallassandra Namma Clinic","kind":"Namma Clinic","area":"Prasahnth Nagara"}},{"type":"Feature","geometry":{"type":"Point","coordinates":[77.5866,12.8931]},"properties":{"name":"Sarakki Namma Clinic","kind":"Namma Clinic","area":"Jp nagar 2nd phase"}},{"type":"Feature","geometry":{"type":"Point","coordinates":[77.55129,12.90975]},"properties":{"name":"Uttarahalli Namma Clinic","kind":"Namma Clinic","area":"Uttarahalli"}},{"type":"Feature","geometry":{"type":"Point","coordinates":[77.54627,12.88492]},"properties":{"name":"Subramanyapura Namma Clinic","kind":"Namma Clinic","area":"Gubblala"}},{"type":"Feature","geometry":{"type":"Point","coordinates":[77.6127,12.9149]},"properties":{"name":"NS palya Namma Clinic","kind":"Namma Clinic","area":"NS Palya BTM 2nd STAGE"}},{"type":"Feature","geometry":{"type":"Point","coordinates":[77.67751,12.92534]},"properties":{"name":"Madiwala Namma Clinic","kind":"Namma Clinic","area":"New Madiwala"}},{"type":"Feature","geometry":{"type":"Point","coordinates":[77.61973,12.9201]},"properties":{"name":"BTM Layout Namma Clinic","kind":"Namma Clinic","area":"Old Madiwala"}},{"type":"Feature","geometry":{"type":"Point","coordinates":[77.60883,12.93954]},"properties":{"name":"Suddugunte Palya Namma Clinic","kind":"Namma Clinic","area":"lakkasandra Adugodi Signal near"}},{"type":"Feature","geometry":{"type":"Point","coordinates":[77.60784,12.94393]},"properties":{"name":"LakkSandra Namma Clinic","kind":"Namma Clinic","area":"1st Cr Rajendra Nagar Near Samudaya Bhavan"}},{"type":"Feature","geometry":{"type":"Point","coordinates":[77.61347,12.94278]},"properties":{"name":"Adugodi Namma Clinic","kind":"Namma Clinic","area":"Balappa Layout"}},{"type":"Feature","geometry":{"type":"Point","coordinates":[77.63372,12.92707]},"properties":{"name":"Koramangala Namma Clinic","kind":"Namma Clinic","area":"Koramangala 1st Block"}},{"type":"Feature","geometry":{"type":"Point","coordinates":[77.62965,12.94449]},"properties":{"name":"Ejipura Namma Clinic","kind":"Namma Clinic","area":"Ejipura 13th cross to 30 th cross"}},{"type":"Feature","geometry":{"type":"Point","coordinates":[77.6367,12.92446]},"properties":{"name":"Jakkasandra Namma Clinic","kind":"Namma Clinic","area":"Jakkasandra"}},{"type":"Feature","geometry":{"type":"Point","coordinates":[77.6015,12.87858]},"properties":{"name":"Hulimavu Namma Clinic","kind":"Namma Clinic","area":"Hulimavu"}},{"type":"Feature","geometry":{"type":"Point","coordinates":[77.61126,12.88658]},"properties":{"name":"Arekere Namma Clinic","kind":"Namma Clinic","area":"Chalukya road BTM 4th stage Near RTO office"}},{"type":"Feature","geometry":{"type":"Point","coordinates":[77.60506,12.89801]},"properties":{"name":"Bilekahalli Namma Clinic","kind":"Namma Clinic","area":"Bilekahalli"}},{"type":"Feature","geometry":{"type":"Point","coordinates":[77.61771,12.89135]},"properties":{"name":"Devarchikkanhalli Namma Clinic","kind":"Namma Clinic","area":"Devarachikkanahalli"}},{"type":"Feature","geometry":{"type":"Point","coordinates":[77.62757,12.90595]},"properties":{"name":"Roopena Agrahara Namma Clinic","kind":"Namma Clinic","area":"Bommanahalli"}},{"type":"Feature","geometry":{"type":"Point","coordinates":[77.62755,12.89647]},"properties":{"name":"Bommanahalli Namma Clinic","kind":"Namma Clinic","area":"Bommanahalli"}},{"type":"Feature","geometry":{"type":"Point","coordinates":[77.62755,12.89647]},"properties":{"name":"Hongasandra Namma Clinic","kind":"Namma Clinic","area":"Hongasandra 7th Main Road"}},{"type":"Feature","geometry":{"type":"Point","coordinates":[77.6391,12.89609]},"properties":{"name":"Mangamanapalya Namma Clinic","kind":"Namma Clinic","area":"Hosapalaya Main Road Ss Palya Govt School"}},{"type":"Feature","geometry":{"type":"Point","coordinates":[77.63768,12.91374]},"properties":{"name":"Agara Namma Clinic","kind":"Namma Clinic","area":"19th Main Road Salarpuria Serinity"}},{"type":"Feature","geometry":{"type":"Point","coordinates":[77.62954,12.91091]},"properties":{"name":"HSR Singsandra Namma Clinic","kind":"Namma Clinic","area":"Bommanahalli Govt School Silk Board"}},{"type":"Feature","geometry":{"type":"Point","coordinates":[77.66141,12.92245]},"properties":{"name":"Ibballuru Namma Clinic","kind":"Namma Clinic","area":"IBBALURU SUN City APT- police station"}},{"type":"Feature","geometry":{"type":"Point","coordinates":[77.50332,13.04038]},"properties":{"name":"Chokasandra Nc","kind":"Namma Clinic","area":"Nagasandra"}},{"type":"Feature","geometry":{"type":"Point","coordinates":[77.5047,13.03049]},"properties":{"name":"Nelagadaranahalli Nc","kind":"Namma Clinic","area":"Nelagadaranahalli, Gruhalakshmi Layout, Shivapura"}},{"type":"Feature","geometry":{"type":"Point","coordinates":[77.49475,12.94525]},"properties":{"name":"Doddabidarakalu Nc","kind":"Namma Clinic","area":"12- Andralli"}},{"type":"Feature","geometry":{"type":"Point","coordinates":[77.50959,13.00892]},"properties":{"name":"Rajeshwari Namma Clinic","kind":"Namma Clinic","area":"Ramayya Badavane"}},{"type":"Feature","geometry":{"type":"Point","coordinates":[77.51697,13.0194]},"properties":{"name":"Namma Clinic Herohalli ,","kind":"Namma Clinic","area":"Bydrahalli"}},{"type":"Feature","geometry":{"type":"Point","coordinates":[77.49039,12.9426]},"properties":{"name":"Namma Clinic Ullalu","kind":"Namma Clinic","area":"Bhuvaneshwari Nagara"}},{"type":"Feature","geometry":{"type":"Point","coordinates":[77.52168,12.92965]},"properties":{"name":",Ganabharati Namma Clinic","kind":"Namma Clinic","area":"Gnanabharati"}},{"type":"Feature","geometry":{"type":"Point","coordinates":[77.49653,12.9597]},"properties":{"name":"Nalavadikrishnaraja Odeyar Namma Clinic Ngef Layout","kind":"Namma Clinic","area":"Nalvadikrishnadevaraya Namma Clinic"}},{"type":"Feature","geometry":{"type":"Point","coordinates":[77.50645,12.99323]},"properties":{"name":"Veera Sindhura Lakshmana","kind":"Namma Clinic","area":"Veerasindhura Lakshmana Namma Clinic"}},{"type":"Feature","geometry":{"type":"Point","coordinates":[77.51425,12.98119]},"properties":{"name":"Vijayanagara Krishnadevaraya","kind":"Namma Clinic","area":"Vijayanagara Krishnadevaraya Namma Clinic"}},{"type":"Feature","geometry":{"type":"Point","coordinates":[77.50424,12.98732]},"properties":{"name":"Sir M Vishweshwaraiah","kind":"Namma Clinic","area":"Sir M Vishweshwaraiah Namma Clinic"}},{"type":"Feature","geometry":{"type":"Point","coordinates":[77.52743,13.02123]},"properties":{"name":"Lakshmi Devi Nagar Namma Clinic","kind":"Namma Clinic","area":"Lakhmidevi Nagar, Nandini Layout, Sg Nagar"}},{"type":"Feature","geometry":{"type":"Point","coordinates":[77.52952,13.03426]},"properties":{"name":"Peenya Namma Clinic","kind":"Namma Clinic","area":"Peenya, Srs & Ashraya Nagar"}},{"type":"Feature","geometry":{"type":"Point","coordinates":[77.53726,13.02513]},"properties":{"name":"Chathrapati Shivaji Namma Clinic","kind":"Namma Clinic","area":"Goraguntepalya, Lumbini Colony"}},{"type":"Feature","geometry":{"type":"Point","coordinates":[77.54355,13.00966]},"properties":{"name":"Mahalakshmipuram Namma Clinic","kind":"Namma Clinic","area":"Kanteeravanagar,Form Road 4Th Block"}},{"type":"Feature","geometry":{"type":"Point","coordinates":[77.5436,13.00964]},"properties":{"name":"Nandini Layout Namma Clinic Ward 53,","kind":"Namma Clinic","area":"Mahalakshmilayout,Ganesh Block"}},{"type":"Feature","geometry":{"type":"Point","coordinates":[77.53988,13.00345]},"properties":{"name":"Puneethrajkumar Namma Clinic,","kind":"Namma Clinic","area":"Mahalakshmilayout,Ganesh Block"}},{"type":"Feature","geometry":{"type":"Point","coordinates":[77.54806,13.0144]},"properties":{"name":"Marappanahapalya N C","kind":"Namma Clinic","area":"Mahalakshmilayout,Ganesh Block"}},{"type":"Feature","geometry":{"type":"Point","coordinates":[77.54185,13.00167]},"properties":{"name":"Nagpura Namma Clinic","kind":"Namma Clinic","area":"Nagapura ,Bhovipalya"}},{"type":"Feature","geometry":{"type":"Point","coordinates":[77.53954,12.99945]},"properties":{"name":"Shankarmutt Namma Clinic","kind":"Namma Clinic","area":"Kirloskar Colony, Kasthuri Nivas Road Bhagyadha Bagala,Teachers Colony"}},{"type":"Feature","geometry":{"type":"Point","coordinates":[77.6084,13.00052]},"properties":{"name":"SK GARDEN Namma Clinic","kind":"Namma Clinic","area":"Williams Town"}},{"type":"Feature","geometry":{"type":"Point","coordinates":[77.47793,12.98054]},"properties":{"name":"Doddagollarati Namma Clinic","kind":"Namma Clinic","area":"Bydrahalli"}},{"type":"Feature","geometry":{"type":"Point","coordinates":[77.48159,12.91703]},"properties":{"name":"Kengeri Namma Clinic","kind":"Namma Clinic","area":"Kengal Hanumanthaiaha"}},{"type":"Feature","geometry":{"type":"Point","coordinates":[77.50889,12.92152]},"properties":{"name":"Bandematta Namma Clinic","kind":"Namma Clinic","area":"Pattanagere"}},{"type":"Feature","geometry":{"type":"Point","coordinates":[77.53601,13.01095]},"properties":{"name":"Jai Maruthi Nagara Namma Clinic","kind":"Namma Clinic","area":"Jai Maruthi Nagara. Js Nagara"}},{"type":"Feature","geometry":{"type":"Point","coordinates":[77.52928,12.9922]},"properties":{"name":"Vrushabhavathinagar Namma Clinic","kind":"Namma Clinic","area":"Kamala Nagar"}},{"type":"Feature","geometry":{"type":"Point","coordinates":[77.52961,12.98498]},"properties":{"name":"Kamakshipalya Namma Clinic","kind":"Namma Clinic","area":"Meenakshi Nagar"}},{"type":"Feature","geometry":{"type":"Point","coordinates":[77.572,13.0086]},"properties":{"name":"Aramanenagar (Sanky Tank Namma Clinic )","kind":"Namma Clinic","area":"Sadashivanagar ,Sankey Park"}},{"type":"Feature","geometry":{"type":"Point","coordinates":[77.57961,13.00513]},"properties":{"name":"Lpo Ground Namma Clinic","kind":"Namma Clinic","area":"Loyer Palce Orchard"}},{"type":"Feature","geometry":{"type":"Point","coordinates":[77.55874,13.02101]},"properties":{"name":"Mlleshwaram Namma Clinic Triveni Road","kind":"Namma Clinic","area":"Triveni Road Subedarpalya"}},{"type":"Feature","geometry":{"type":"Point","coordinates":[77.55,13.02]},"properties":{"name":"Yeswanthpura Tranist Nc","kind":"Namma Clinic","area":"54 - Subedarpalya"}},{"type":"Feature","geometry":{"type":"Point","coordinates":[77.5575,12.99837]},"properties":{"name":"Gayithrti Nagar Namma Clinic","kind":"Namma Clinic","area":"Gayithri Nagar & Sannegowda Vattara"}},{"type":"Feature","geometry":{"type":"Point","coordinates":[77.56439,12.99031]},"properties":{"name":"Dayanad Nagar","kind":"Namma Clinic","area":"Rgi Calony"}},{"type":"Feature","geometry":{"type":"Point","coordinates":[77.56099,12.98474]},"properties":{"name":"Prakash Nagar Nc","kind":"Namma Clinic","area":"Prakashnagar"}},{"type":"Feature","geometry":{"type":"Point","coordinates":[77.54496,12.99511]},"properties":{"name":"Basaveshwara Nc","kind":"Namma Clinic","area":"Saneguravanahalli"}},{"type":"Feature","geometry":{"type":"Point","coordinates":[77.55791,12.98873]},"properties":{"name":"Sri Rama Mandira Namma Clinic","kind":"Namma Clinic","area":"4Th Block Rajaji Nagar"}},{"type":"Feature","geometry":{"type":"Point","coordinates":[77.55609,12.98555]},"properties":{"name":"Shiva Nagar Namma Clinic","kind":"Namma Clinic","area":"Shiva Nagar"}},{"type":"Feature","geometry":{"type":"Point","coordinates":[77.54498,12.99524]},"properties":{"name":"Rajajinagar Namma Clinic","kind":"Namma Clinic","area":"Indranagar"}},{"type":"Feature","geometry":{"type":"Point","coordinates":[77.54133,12.97979]},"properties":{"name":"A D Halli Namma Clinic","kind":"Namma Clinic","area":"A D Halli"}},{"type":"Feature","geometry":{"type":"Point","coordinates":[77.53525,12.97757]},"properties":{"name":"Govindaraja Nagara Namma Clinic","kind":"Namma Clinic","area":"Corporation Colony"}},{"type":"Feature","geometry":{"type":"Point","coordinates":[77.52694,12.97994]},"properties":{"name":"Kaaveripur Namma Clinic","kind":"Namma Clinic","area":"Kaveripura"}},{"type":"Feature","geometry":{"type":"Point","coordinates":[77.53457,12.97151]},"properties":{"name":"Marenahalli Namma Clinic","kind":"Namma Clinic","area":"Mc Layout Marenahalli"}},{"type":"Feature","geometry":{"type":"Point","coordinates":[77.54695,12.974]},"properties":{"name":"Vijayanagar Nc","kind":"Namma Clinic"}},{"type":"Feature","geometry":{"type":"Point","coordinates":[77.53973,12.9692]},"properties":{"name":"Hosahalli Namma Clinic","kind":"Namma Clinic","area":"Hosahalli Slum"}},{"type":"Feature","geometry":{"type":"Point","coordinates":[77.55482,12.97011]},"properties":{"name":"K.P. Agrahara Namma Clinic","kind":"Namma Clinic","area":"K.P.Agrahar"}},{"type":"Feature","geometry":{"type":"Point","coordinates":[77.52029,12.97274]},"properties":{"name":"Moodalapalya Namma Clinic","kind":"Namma Clinic","area":"Panchsheela Nagar"}},{"type":"Feature","geometry":{"type":"Point","coordinates":[77.52559,12.96364]},"properties":{"name":"Maruti Mandir Namma Clinic","kind":"Namma Clinic","area":"Nanjarsappa Layout"}},{"type":"Feature","geometry":{"type":"Point","coordinates":[77.52504,12.95843]},"properties":{"name":"Namma Clinic Nagarabhavi","kind":"Namma Clinic","area":"Teachrs Colony, 2Nd Block, Siddarthanagara."}},{"type":"Feature","geometry":{"type":"Point","coordinates":[77.52529,12.95554]},"properties":{"name":"Namma Clinic Chandralayout","kind":"Namma Clinic","area":"Chandralayout, Kamarnagara, Arundathinagara, Vidyagiri Badavane."}},{"type":"Feature","geometry":{"type":"Point","coordinates":[77.54873,12.9496]},"properties":{"name":"Avalahalli Namma Clinic","kind":"Namma Clinic","area":"Avalahalli"}},{"type":"Feature","geometry":{"type":"Point","coordinates":[77.54494,12.94422]},"properties":{"name":"Namma Clinic Veerabadra Nagara","kind":"Namma Clinic"}},{"type":"Feature","geometry":{"type":"Point","coordinates":[77.52773,12.95821]},"properties":{"name":"Attiguppe Naama Clinic","kind":"Namma Clinic","area":"Attiguppe"}},{"type":"Feature","geometry":{"type":"Point","coordinates":[77.53608,12.95921]},"properties":{"name":"Hampinagara Namma Clinic","kind":"Namma Clinic","area":"Hampinagara"}},{"type":"Feature","geometry":{"type":"Point","coordinates":[77.54976,12.94298]},"properties":{"name":"Giri Nagara Nammaclinic","kind":"Namma Clinic","area":"Tr Shamanna Nagar ,Rv Block, Nagendra Block And Munishwar Block"}},{"type":"Feature","geometry":{"type":"Point","coordinates":[77.56322,12.94635]},"properties":{"name":"Hanumanth Nagar Namma Clinic","kind":"Namma Clinic","area":"Hanumanth Nagar Gavipura"}},{"type":"Feature","geometry":{"type":"Point","coordinates":[77.55349,12.92678]},"properties":{"name":"Katriguppe Namma Clinic","kind":"Namma Clinic","area":"Katriguppe Namma Clinic"}},{"type":"Feature","geometry":{"type":"Point","coordinates":[77.57071,12.93425]},"properties":{"name":"Basvangudi Namma Clinic","kind":"Namma Clinic","area":"Tr Nagara"}},{"type":"Feature","geometry":{"type":"Point","coordinates":[77.56097,12.9386]},"properties":{"name":"Vidyapeeta Namma Clinic","kind":"Namma Clinic","area":"Manjunatha Colony C T Bed"}},{"type":"Feature","geometry":{"type":"Point","coordinates":[77.55364,12.92128]},"properties":{"name":"Kamakya Namma Clinic , ,","kind":"Namma Clinic","area":"109 - Kamakya Layout"}},{"type":"Feature","geometry":{"type":"Point","coordinates":[77.574,12.928]},"properties":{"name":"Uma Maheshwari Clinic","kind":"Namma Clinic","area":"106 - Devagiri Temple Ward"}},{"type":"Feature","geometry":{"type":"Point","coordinates":[77.5692,12.98803]},"properties":{"name":"Ganesh Mandira Ward","kind":"Namma Clinic","area":"Bsk 2Nd Stage"}},{"type":"Feature","geometry":{"type":"Point","coordinates":[77.5342,12.8691]},"properties":{"name":"Thalagattapura Namma Clinic","kind":"Namma Clinic","area":"Vajarahalli , MR colony , rahuvanalli talagattapura Jothi farm, silk farm"}},{"type":"Feature","geometry":{"type":"Point","coordinates":[77.60331,12.98789]},"properties":{"name":"Jayamahal Namma Clinic","kind":"Namma Clinic","area":"Cantonment Railway Station Jayamahal"}},{"type":"Feature","geometry":{"type":"Point","coordinates":[77.55101,12.94486]},"properties":{"name":"Srinagar","kind":"Namma Clinic","area":"Ambedkar Slum,Raghavendra Blok,Kalappa Blok"}},{"type":"Feature","geometry":{"type":"Point","coordinates":[77.56286,13.03226]},"properties":{"name":"Ak Colony Namma Clinic","kind":"Namma Clinic","area":"A K Colony Namma Clinic Near Anganvadi"}},{"type":"Feature","geometry":{"type":"Point","coordinates":[77.56809,13.003]},"properties":{"name":"Kadumalleshwram Namma Clinic","kind":"Namma Clinic","area":"Malleshwram"}},{"type":"Feature","geometry":{"type":"Point","coordinates":[77.54345,12.98432]},"properties":{"name":"Dr Rajkumar Ward Namma Clinic","kind":"Namma Clinic","area":"Ad Halli"}},{"type":"Feature","geometry":{"type":"Point","coordinates":[77.52187,12.94459]},"properties":{"name":"Namma Clinic Nayandahalli","kind":"Namma Clinic","area":"Nayandahalli"}},{"type":"Feature","geometry":{"type":"Point","coordinates":[77.50458,12.99124]},"properties":{"name":"Sunkadakatte Namm Clinic","kind":"Namma Clinic","area":"Hoysala Nagara"}},{"type":"Feature","geometry":{"type":"Point","coordinates":[77.53466,12.99303]},"properties":{"name":"Shakthiganapathinagar Namma Clinic","kind":"Namma Clinic","area":"S G Nagar, J C Nagar, Lic Colony,Nhcs Layout"}},{"type":"Feature","geometry":{"type":"Point","coordinates":[77.54732,12.92538]},"properties":{"name":"Deendhayalu Namma Clinic","kind":"Namma Clinic","area":"109 - Kamakya Layout"}},{"type":"Feature","geometry":{"type":"Point","coordinates":[77.56686,12.93214]},"properties":{"name":"Yediyuru Namma Clinic","kind":"Namma Clinic","area":"106 - Devagiri Temple Ward"}},{"type":"Feature","geometry":{"type":"Point","coordinates":[77.5593,12.93812]},"properties":{"name":"Srinivasnagra Namma Clinic","kind":"Namma Clinic","area":"Srinivasnagar Namma Clinic"}},{"type":"Feature","geometry":{"type":"Point","coordinates":[77.51697,13.01944]},"properties":{"name":"Rajagopalanagara Namma Clinic","kind":"Namma Clinic","area":"Ganapathi Nagara Mei Colony Priti Nagara"}},{"type":"Feature","geometry":{"type":"Point","coordinates":[77.58278,12.97943]},"properties":{"name":"Maharani Collage Namma Clinic","kind":"Namma Clinic","area":"Maharani Collage"}},{"type":"Feature","geometry":{"type":"Point","coordinates":[77.59185,12.9775]},"properties":{"name":"High Court Namma Clinic","kind":"Namma Clinic","area":"High Court"}},{"type":"Feature","geometry":{"type":"Point","coordinates":[77.57113,12.97804]},"properties":{"name":"Majestic Transit Nc Namma Clinic","kind":"Namma Clinic","area":"Majestic Transit Bmtc Bus Stand"}},{"type":"Feature","geometry":{"type":"Point","coordinates":[77.55341,12.89471]},"properties":{"name":"Vasanthapura Namma Clinic","kind":"Namma Clinic","area":"Vasanthapura"}},{"type":"Feature","geometry":{"type":"Point","coordinates":[77.60756,12.92115]},"properties":{"name":"Gurappanapalya Namma Clinic","kind":"Namma Clinic","area":"Maruthi layout"}},{"type":"Feature","geometry":{"type":"Point","coordinates":[77.52083,12.91116]},"properties":{"name":"Rr Nagar Namma Clinic","kind":"Namma Clinic","area":"Beml Layout/ Javaregowda Nagar"}},{"type":"Feature","geometry":{"type":"Point","coordinates":[77.47779,12.99481]},"properties":{"name":"Vidyanamanynagar Nc","kind":"Namma Clinic","area":"12- Andralli"}},{"type":"Feature","geometry":{"type":"Point","coordinates":[77.55744,13.00711]},"properties":{"name":"Sangolli Rayanna namma clinic","kind":"Namma Clinic","area":"Subramanya Nagar"}},{"type":"Feature","geometry":{"type":"Point","coordinates":[77.54464,12.95692]},"properties":{"name":"Bapujinagara Namma Clinic","kind":"Namma Clinic","area":"New Gudadahalli"}},{"type":"Feature","geometry":{"type":"Point","coordinates":[77.5459,12.9281]},"properties":{"name":"Hosakerehalli Namma clinic","kind":"Namma Clinic","area":"109- kamakya layout"}}]}
