{"type":"FeatureCollection","features":[{"type":"Feature","geometry":{"type":"Point","coordinates":[77.47281,13.05742]},"properties":{"name":"Madavara"}},{"type":"Feature","geometry":{"type":"Point","coordinates":[77.48792,13.05236]},"properties":{"name":"Chikkabidarakallu"}},{"type":"Feature","geometry":{"type":"Point","coordinates":[77.49445,13.05009]},"properties":{"name":"Manjunathanagara"}},{"type":"Feature","geometry":{"type":"Point","coordinates":[77.59997,12.91673]},"properties":{"name":"Jayadeva Hospital"}},{"type":"Feature","geometry":{"type":"Point","coordinates":[77.66848,12.9965]},"properties":{"name":"Benniganahalli"}},{"type":"Feature","geometry":{"type":"Point","coordinates":[77.75795,12.99574]},"properties":{"name":"Whitefield (Kadugodi)","line":"#e542de"}},{"type":"Feature","geometry":{"type":"Point","coordinates":[77.7538,12.98734]},"properties":{"name":"Hopefarm Channasandra","line":"#e542de"}},{"type":"Feature","geometry":{"type":"Point","coordinates":[77.73777,12.98764]},"properties":{"name":"Pattandur Agrahara","line":"#e542de"}},{"type":"Feature","geometry":{"type":"Point","coordinates":[77.72754,12.98119]},"properties":{"name":"Sri Sathya Sai Hospital","line":"#e542de"}},{"type":"Feature","geometry":{"type":"Point","coordinates":[77.72488,12.97664]},"properties":{"name":"Nallurahalli","line":"#e542de"}},{"type":"Feature","geometry":{"type":"Point","coordinates":[77.71556,12.97759]},"properties":{"name":"Kundalahalli","line":"#e542de"}},{"type":"Feature","geometry":{"type":"Point","coordinates":[77.70879,12.98086]},"properties":{"name":"Seetharampalya"}},{"type":"Feature","geometry":{"type":"Point","coordinates":[77.71133,12.9888]},"properties":{"name":"Hoodi","line":"#e542de"}},{"type":"Feature","geometry":{"type":"Point","coordinates":[77.70368,12.99345]},"properties":{"name":"Garudacharpalya","line":"#e542de"}},{"type":"Feature","geometry":{"type":"Point","coordinates":[77.69272,12.99654]},"properties":{"name":"Singayyanapalya","line":"#e542de"}},{"type":"Feature","geometry":{"type":"Point","coordinates":[77.67767,12.9999]},"properties":{"name":"Krishnarajapura","line":"#e542de"}},{"type":"Feature","geometry":{"type":"Point","coordinates":[77.68835,12.81939]},"properties":{"name":"Delta Electronics Bommasandra"}},{"type":"Feature","geometry":{"type":"Point","coordinates":[77.67737,12.83916]},"properties":{"name":"Huskur Road"}},{"type":"Feature","geometry":{"type":"Point","coordinates":[77.67117,12.84641]},"properties":{"name":"Infosys Foundation Konappana Agrahara"}},{"type":"Feature","geometry":{"type":"Point","coordinates":[77.66352,12.85651]},"properties":{"name":"Electronic City"}},{"type":"Feature","geometry":{"type":"Point","coordinates":[77.65786,12.86387]},"properties":{"name":"Beratena Agrahara"}},{"type":"Feature","geometry":{"type":"Point","coordinates":[77.65245,12.87075]},"properties":{"name":"Hosa Road"}},{"type":"Feature","geometry":{"type":"Point","coordinates":[77.64485,12.88082]},"properties":{"name":"Singasandra"}},{"type":"Feature","geometry":{"type":"Point","coordinates":[77.63922,12.88993]},"properties":{"name":"Kudlu Gate"}},{"type":"Feature","geometry":{"type":"Point","coordinates":[77.63199,12.9017]},"properties":{"name":"Hongasandra"}},{"type":"Feature","geometry":{"type":"Point","coordinates":[77.62648,12.91062]},"properties":{"name":"Bommanahalli"}},{"type":"Feature","geometry":{"type":"Point","coordinates":[77.62057,12.91658]},"properties":{"name":"Central Silk Board"}},{"type":"Feature","geometry":{"type":"Point","coordinates":[77.60812,12.91659]},"properties":{"name":"BTM Layout"}},{"type":"Feature","geometry":{"type":"Point","coordinates":[77.5883,12.91708]},"properties":{"name":"Ragigudda"}},{"type":"Feature","geometry":{"type":"Point","coordinates":[77.51255,13.04326]},"properties":{"name":"Dasarahalli"}},{"type":"Feature","geometry":{"type":"Point","coordinates":[77.51974,13.03941]},"properties":{"name":"Jalahalli"}},{"type":"Feature","geometry":{"type":"Point","coordinates":[77.5632,12.99653]},"properties":{"name":"Srirampura"}},{"type":"Feature","geometry":{"type":"Point","coordinates":[77.65236,12.99076]},"properties":{"name":"Baiyappanahalli"}},{"type":"Feature","geometry":{"type":"Point","coordinates":[77.6449,12.98593]},"properties":{"name":"Swami Vivekananda Road"}},{"type":"Feature","geometry":{"type":"Point","coordinates":[77.63866,12.97833]},"properties":{"name":"Indiranagar"}},{"type":"Feature","geometry":{"type":"Point","coordinates":[77.62669,12.9765]},"properties":{"name":"Halasuru"}},{"type":"Feature","geometry":{"type":"Point","coordinates":[77.61702,12.97302]},"properties":{"name":"Trinity"}},{"type":"Feature","geometry":{"type":"Point","coordinates":[77.60679,12.97553]},"properties":{"name":"Mahatma Gandhi Road"}},{"type":"Feature","geometry":{"type":"Point","coordinates":[77.59758,12.98096]},"properties":{"name":"Cubbon Park"}},{"type":"Feature","geometry":{"type":"Point","coordinates":[77.59164,12.97874]},"properties":{"name":"Dr. B. R. Ambedkar Station, Vidhana Soudha"}},{"type":"Feature","geometry":{"type":"Point","coordinates":[77.58422,12.97452]},"properties":{"name":"Sir M. Visvesvaraya Stn., Central College"}},{"type":"Feature","geometry":{"type":"Point","coordinates":[77.57288,12.97571]},"properties":{"name":"Nadaprabhu Kempegowda Station, Majestic"}},{"type":"Feature","geometry":{"type":"Point","coordinates":[77.56538,12.97588]},"properties":{"name":"Krantivira Sangolli Rayanna Railway Station"}},{"type":"Feature","geometry":{"type":"Point","coordinates":[77.55535,12.97563]},"properties":{"name":"Magadi Road"}},{"type":"Feature","geometry":{"type":"Point","coordinates":[77.54562,12.97429]},"properties":{"name":"Sri Balagangadharanatha Swamiji Station, Hosahalli"}},{"type":"Feature","geometry":{"type":"Point","coordinates":[77.5374,12.97096]},"properties":{"name":"Vijayanagar"}},{"type":"Feature","geometry":{"type":"Point","coordinates":[77.53358,12.96189]},"properties":{"name":"Attiguppe"}},{"type":"Feature","geometry":{"type":"Point","coordinates":[77.53701,12.95206]},"properties":{"name":"Deepanjali Nagar"}},{"type":"Feature","geometry":{"type":"Point","coordinates":[77.53016,12.94672]},"properties":{"name":"Mysore Road"}},{"type":"Feature","geometry":{"type":"Point","coordinates":[77.57073,12.99046]},"properties":{"name":"Mantri Square Sampige Road"}},{"type":"Feature","geometry":{"type":"Point","coordinates":[77.5569,12.99853]},"properties":{"name":"Mahakavi Kuvempu Road"}},{"type":"Feature","geometry":{"type":"Point","coordinates":[77.54966,13.00052]},"properties":{"name":"Rajajinagar"}},{"type":"Feature","geometry":{"type":"Point","coordinates":[77.54881,13.00805]},"properties":{"name":"Mahalakshmi"}},{"type":"Feature","geometry":{"type":"Point","coordinates":[77.55398,13.01465]},"properties":{"name":"Sandal Soap Factory"}},{"type":"Feature","geometry":{"type":"Point","coordinates":[77.5332,13.03302]},"properties":{"name":"Peenya"}},{"type":"Feature","geometry":{"type":"Point","coordinates":[77.52549,13.03632]},"properties":{"name":"Peenya Industry"}},{"type":"Feature","geometry":{"type":"Point","coordinates":[77.57012,12.89605]},"properties":{"name":"Yelachenahalli"}},{"type":"Feature","geometry":{"type":"Point","coordinates":[77.57313,12.90747]},"properties":{"name":"Jaya Prakash Nagar"}},{"type":"Feature","geometry":{"type":"Point","coordinates":[77.5736,12.91522]},"properties":{"name":"Banashankari"}},{"type":"Feature","geometry":{"type":"Point","coordinates":[77.5802,12.92158]},"properties":{"name":"Rashtreeya Vidyalaya Road"}},{"type":"Feature","geometry":{"type":"Point","coordinates":[77.58014,12.92951]},"properties":{"name":"Jayanagar"}},{"type":"Feature","geometry":{"type":"Point","coordinates":[77.58006,12.93826]},"properties":{"name":"South End Circle"}},{"type":"Feature","geometry":{"type":"Point","coordinates":[77.58002,12.94653]},"properties":{"name":"Lalbagh"}},{"type":"Feature","geometry":{"type":"Point","coordinates":[77.57369,12.95053]},"properties":{"name":"National College"}},{"type":"Feature","geometry":{"type":"Point","coordinates":[77.57466,12.96088]},"properties":{"name":"Krishna Rajendra Market"}},{"type":"Feature","geometry":{"type":"Point","coordinates":[77.57456,12.9669]},"properties":{"name":"Chickpete"}},{"type":"Feature","geometry":{"type":"Point","coordinates":[77.47657,12.90793]},"properties":{"name":"Kengeri"}},{"type":"Feature","geometry":{"type":"Point","coordinates":[77.51241,12.93544]},"properties":{"name":"Jnanabharathi"}},{"type":"Feature","geometry":{"type":"Point","coordinates":[77.52512,12.94167]},"properties":{"name":"Pantharapalya - Nayandahalli"}},{"type":"Feature","geometry":{"type":"Point","coordinates":[77.48786,12.91469]},"properties":{"name":"Kengeri Bus Terminal"}},{"type":"Feature","geometry":{"type":"Point","coordinates":[77.51968,12.9366]},"properties":{"name":"Rajarajeshwari Nagar"}},{"type":"Feature","geometry":{"type":"Point","coordinates":[77.49835,12.92425]},"properties":{"name":"Pattanagere"}},{"type":"Feature","geometry":{"type":"Point","coordinates":[77.46129,12.89735]},"properties":{"name":"Challaghatta"}},{"type":"Feature","geometry":{"type":"Point","coordinates":[77.52995,12.86173]},"properties":{"name":"Silk Institute"}},{"type":"Feature","geometry":{"type":"Point","coordinates":[77.5384,12.87141]},"properties":{"name":"Thalaghattapura"}},{"type":"Feature","geometry":{"type":"Point","coordinates":[77.54474,12.87744]},"properties":{"name":"Vajarahalli"}},{"type":"Feature","geometry":{"type":"Point","coordinates":[77.55275,12.88464]},"properties":{"name":"Doddakallasandra"}},{"type":"Feature","geometry":{"type":"Point","coordinates":[77.56267,12.88897]},"properties":{"name":"Konanakunte Cross"}},{"type":"Feature","geometry":{"type":"Point","coordinates":[77.68137,12.82903]},"properties":{"name":"Biocon Hebbagodi"}},{"type":"Feature","geometry":{"type":"Point","coordinates":[77.50014,13.04795]},"properties":{"name":"Nagasandra"}},{"type":"Feature","geometry":{"type":"Point","coordinates":[77.54988,13.02327]},"properties":{"name":"Yeshwantpur"}},{"type":"Feature","geometry":{"type":"Point","coordinates":[77.74701,12.98565]},"properties":{"name":"Kadugodi Tree Park"}},{"type":"Feature","geometry":{"type":"Point","coordinates":[77.54085,13.02833]},"properties":{"name":"Goraguntepalya"}}]}
