{"type":"FeatureCollection","features":[{"type":"Feature","geometry":{"type":"Point","coordinates":[77.59692,13.09792]},"properties":{"name":"Near Post Office","road":"BB Road Yelahanka","ward":"Kempegowda Ward","ladies":"yes"}},{"type":"Feature","geometry":{"type":"Point","coordinates":[77.59306,13.09852]},"properties":{"name":"Ayodya Complex","road":"Suggappa Layout Main Road","ward":"Kempegowda Ward","ladies":"yes"}},{"type":"Feature","geometry":{"type":"Point","coordinates":[77.59612,13.09975]},"properties":{"name":"Govt Hospital","road":"Hospital Road Yelahanka","ward":"Kempegowda Ward","ladies":"yes"}},{"type":"Feature","geometry":{"type":"Point","coordinates":[77.59457,13.1027]},"properties":{"name":"BBMP Office","road":"BBMp Office Road","ward":"Chowdeswari Ward","ladies":"yes"}},{"type":"Feature","geometry":{"type":"Point","coordinates":[77.54734,13.08838]},"properties":{"name":"Near Chikka Bettahalli Road","road":"Masjid Road","ward":"Atturu","ladies":"no"}},{"type":"Feature","geometry":{"type":"Point","coordinates":[77.59146,13.09768]},"properties":{"name":"Doddaballapura Main Road Near NES Office","road":"-","ward":"Yelahanka Satellite Town","ladies":"no"}},{"type":"Feature","geometry":{"type":"Point","coordinates":[77.58194,13.09848]},"properties":{"name":"Yelahanaka New Town, Opp RTO Complex","road":"-","ward":"Yelahanka Satellite Town","ladies":"no"}},{"type":"Feature","geometry":{"type":"Point","coordinates":[77.62266,13.07068]},"properties":{"name":"Jakkur 18th Cross","road":"Jakkur Main Road","ward":"Jakkuru","ladies":"yes"}},{"type":"Feature","geometry":{"type":"Point","coordinates":[77.62012,13.12147]},"properties":{"name":"Vinayakanagara","road":"Bagalur Main Road","ward":"Jakkuru","ladies":"yes"}},{"type":"Feature","geometry":{"type":"Point","coordinates":[77.6137,13.10392]},"properties":{"name":"Kogilu Layout","road":"Kogilu Bande Road","ward":"Jakkuru","ladies":"yes"}},{"type":"Feature","geometry":{"type":"Point","coordinates":[77.58726,13.06175]},"properties":{"name":"Near BBMP Office","road":"Byatarayanapura","ward":"Byatarayanapura","ladies":"yes"}},{"type":"Feature","geometry":{"type":"Point","coordinates":[77.59301,13.064]},"properties":{"name":"Near Hebbal Fly Over","road":"Hebbal","ward":"Byatarayanapura","ladies":"yes"}},{"type":"Feature","geometry":{"type":"Point","coordinates":[77.58303,13.06509]},"properties":{"name":"Joining to Ranga Mindra","road":"Behind Damodhar Road","ward":"Kodigehalli","ladies":"yes"}},{"type":"Feature","geometry":{"type":"Point","coordinates":[77.55997,13.08273]},"properties":{"name":"Back to Vidyaranya Pura Bus Stand, Narasapura","road":"Durga Temple Road","ward":"Vidyaranyapura","ladies":"yes"}},{"type":"Feature","geometry":{"type":"Point","coordinates":[77.56672,13.07334]},"properties":{"name":"Thindul Circle","road":"Vidyaranyapura Main Road","ward":"Vidyaranyapura","ladies":"yes"}},{"type":"Feature","geometry":{"type":"Point","coordinates":[77.56001,13.06839]},"properties":{"name":"Near Nanjappa Circle","road":"Nanjappa Cirlce","ward":"Vidyaranyapura","ladies":"yes"}},{"type":"Feature","geometry":{"type":"Point","coordinates":[77.55906,13.06363]},"properties":{"name":"Doddabommasandra Main Road","road":"Petrol bunk Opposite","ward":"Dodda Bommasandra","ladies":"yes"}},{"type":"Feature","geometry":{"type":"Point","coordinates":[77.54841,13.0815]},"properties":{"name":"M S Palaya Circle","road":"Yelahanka Double Road","ward":"Kuvempu Nagara","ladies":"yes"}},{"type":"Feature","geometry":{"type":"Point","coordinates":[77.55008,13.06698]},"properties":{"name":"Ramchandra Pura","road":"Opposite to Kerosine Bunk","ward":"Kuvempu Nagara","ladies":"yes"}},{"type":"Feature","geometry":{"type":"Point","coordinates":[77.49549,13.05272]},"properties":{"name":"Manjunath Nagar Video Park Road, Labour Colony Mandali Compound","road":"Video Park Road","ward":"Bagalagunte","ladies":"yes"}},{"type":"Feature","geometry":{"type":"Point","coordinates":[77.57003,13.04132]},"properties":{"name":"1st Main Dollars Colony","road":"-","ward":"Radhakrishna Temple Ward","ladies":"yes"}},{"type":"Feature","geometry":{"type":"Point","coordinates":[77.57646,13.03216]},"properties":{"name":"SanjaNagara Main Road","road":"-","ward":"Radhakrishna Temple Ward","ladies":"yes"}},{"type":"Feature","geometry":{"type":"Point","coordinates":[77.57258,13.04176]},"properties":{"name":"Nagesh Shetty Bus Stop","road":"-","ward":"Radhakrishna Temple Ward","ladies":"yes"}},{"type":"Feature","geometry":{"type":"Point","coordinates":[77.56845,13.03932]},"properties":{"name":"Bull WaRoad Park","road":"-","ward":"Radhakrishna Temple Ward","ladies":"yes"}},{"type":"Feature","geometry":{"type":"Point","coordinates":[77.574,13.03963]},"properties":{"name":"SanjaNagara Main Road","road":"-","ward":"Sanjaya Nagara","ladies":"no"}},{"type":"Feature","geometry":{"type":"Point","coordinates":[77.57398,13.0393]},"properties":{"name":"SanjaNagara Main Road","road":"1st Main","ward":"Sanjaya Nagara","ladies":"yes"}},{"type":"Feature","geometry":{"type":"Point","coordinates":[77.59226,13.02504]},"properties":{"name":"5th Main Road","road":"-","ward":"Ganga Nagara","ladies":"yes"}},{"type":"Feature","geometry":{"type":"Point","coordinates":[77.59241,13.02548]},"properties":{"name":"HMT Play Ground","road":"-","ward":"Ganga Nagara","ladies":"yes"}},{"type":"Feature","geometry":{"type":"Point","coordinates":[77.58905,13.03579]},"properties":{"name":"Ballary Main Road Near Bablist Hospital","road":"-","ward":"Hebbala","ladies":"no"}},{"type":"Feature","geometry":{"type":"Point","coordinates":[77.58949,13.03837]},"properties":{"name":"Near Police Station Bellary Main Road","road":"-","ward":"Hebbala","ladies":"no"}},{"type":"Feature","geometry":{"type":"Point","coordinates":[77.58957,13.03902]},"properties":{"name":"Near Hebbal Bus Stop Bellary Main Road","road":"-","ward":"Hebbala","ladies":"no"}},{"type":"Feature","geometry":{"type":"Point","coordinates":[77.61996,13.02475]},"properties":{"name":"Chuna Lane-2","road":"1st Cross Muniswami Layout","ward":"Nagavara","ladies":"yes"}},{"type":"Feature","geometry":{"type":"Point","coordinates":[77.62082,13.0224]},"properties":{"name":"Saith Lane Hidyath Nagar","road":"Saith Lane","ward":"Nagavara","ladies":"yes"}},{"type":"Feature","geometry":{"type":"Point","coordinates":[77.61998,13.02518]},"properties":{"name":"Basavalingappa Nagar","road":"Opp Angana Vadi Kendra (Gas Company)","ward":"Nagavara","ladies":"yes"}},{"type":"Feature","geometry":{"type":"Point","coordinates":[77.61853,13.0245]},"properties":{"name":"Chuna Lane-1 3Road Cross","road":"Muniswami Layout, Next to Railway Track","ward":"Nagavara","ladies":"yes"}},{"type":"Feature","geometry":{"type":"Point","coordinates":[77.62336,13.03754]},"properties":{"name":"Nagavara","road":"Nagaravara Main Road ORR Junction","ward":"HBR Layout","ladies":"yes"}},{"type":"Feature","geometry":{"type":"Point","coordinates":[77.64147,13.03683]},"properties":{"name":"Hennur Bande","road":"Hennur Main Raod Near Bande","ward":"HBR Layout","ladies":"yes"}},{"type":"Feature","geometry":{"type":"Point","coordinates":[77.62531,13.02468]},"properties":{"name":"Peepai Shop","road":"Peepai Shop Slum","ward":"HBR Layout","ladies":"yes"}},{"type":"Feature","geometry":{"type":"Point","coordinates":[77.62348,13.02953]},"properties":{"name":"Kamaraju Nagar","road":"Kamaraju Nagar Slum","ward":"HBR Layout","ladies":"yes"}},{"type":"Feature","geometry":{"type":"Point","coordinates":[77.63614,13.01691]},"properties":{"name":"Kamanahalli Main Road Near Church","road":"Kamanahalli Main Road","ward":"Kacharkanahalli","ladies":"yes"}},{"type":"Feature","geometry":{"type":"Point","coordinates":[77.61869,13.01034]},"properties":{"name":"Kadugondanahalli","road":"Pillan GaRoaden EWIS Quarters","ward":"Kadugondanahalli","ladies":"yes"}},{"type":"Feature","geometry":{"type":"Point","coordinates":[77.6127,13.0192]},"properties":{"name":"Periyar Circel Skin shop","road":"Shampur Main Road","ward":"Kushal Nagara","ladies":"yes"}},{"type":"Feature","geometry":{"type":"Point","coordinates":[77.61557,13.0093]},"properties":{"name":"Near Priya Bar","road":"30th Cross Old Bagalura Layout","ward":"Kushal Nagara","ladies":"yes"}},{"type":"Feature","geometry":{"type":"Point","coordinates":[77.59257,13.02292]},"properties":{"name":"Gangenahalli","road":"Gangenahalli RT Nagar Opp Shanthi Sagar","ward":"Gangenahalli","ladies":"yes"}},{"type":"Feature","geometry":{"type":"Point","coordinates":[77.57096,13.00866]},"properties":{"name":"Off CET Cell 18th Cross","road":"Sampige Road","ward":"Aramane Nagara","ladies":"yes"}},{"type":"Feature","geometry":{"type":"Point","coordinates":[77.56954,13.00888]},"properties":{"name":"18th Cross Boys College Compound","road":"Margosa Road","ward":"Aramane Nagara","ladies":"yes"}},{"type":"Feature","geometry":{"type":"Point","coordinates":[77.57521,13.01088]},"properties":{"name":"Sankey Tank (Malleshwaram)","road":"Sankey Tank","ward":"Aramane Nagara","ladies":"yes"}},{"type":"Feature","geometry":{"type":"Point","coordinates":[77.58121,13.01101]},"properties":{"name":"AT Sadashivanagar","road":"Countor Road 3rd Cross","ward":"Aramane Nagara","ladies":"yes"}},{"type":"Feature","geometry":{"type":"Point","coordinates":[77.57814,13.00752]},"properties":{"name":"Low Level Park 3rd Main Sadashivanagar","road":"Court Road","ward":"Aramane Nagara","ladies":"yes"}},{"type":"Feature","geometry":{"type":"Point","coordinates":[77.57113,13.02861]},"properties":{"name":"Ramaiah College Gate","road":"New BEL Road","ward":"Aramane Nagara","ladies":"yes"}},{"type":"Feature","geometry":{"type":"Point","coordinates":[77.56624,13.03628]},"properties":{"name":"Chikkamarana Halli Bus Stop","road":"New BEL Road","ward":"Aramane Nagara","ladies":"yes"}},{"type":"Feature","geometry":{"type":"Point","coordinates":[77.56018,13.0326]},"properties":{"name":"-","road":"2nd Cross","ward":"Mattikere","ladies":"yes"}},{"type":"Feature","geometry":{"type":"Point","coordinates":[77.56009,13.03218]},"properties":{"name":"-","road":"2nd Cross","ward":"Mattikere","ladies":"yes"}},{"type":"Feature","geometry":{"type":"Point","coordinates":[77.56145,13.02812]},"properties":{"name":"-","road":"HMT Main Road","ward":"Mattikere","ladies":"yes"}},{"type":"Feature","geometry":{"type":"Point","coordinates":[77.56054,13.03292]},"properties":{"name":"-","road":"Jayram Sari Road","ward":"Mattikere","ladies":"yes"}},{"type":"Feature","geometry":{"type":"Point","coordinates":[77.56144,13.02777]},"properties":{"name":"-","road":"HMT Main Road","ward":"Mattikere","ladies":"yes"}},{"type":"Feature","geometry":{"type":"Point","coordinates":[77.56169,13.03284]},"properties":{"name":"-","road":"7th Main Road Mathikare","ward":"Mattikere","ladies":"yes"}},{"type":"Feature","geometry":{"type":"Point","coordinates":[77.55249,13.02288]},"properties":{"name":"Near Yeshwanthpura Railway Station SC Road","road":"SC Road Yeshwanthpura","ward":"Yeshwanthpura","ladies":"yes"}},{"type":"Feature","geometry":{"type":"Point","coordinates":[77.55449,13.02058]},"properties":{"name":"Near Yeshwanthpura Railway Station Bazar Road","road":"Bazar Road","ward":"Yeshwanthpura","ladies":"yes"}},{"type":"Feature","geometry":{"type":"Point","coordinates":[77.55367,13.02644]},"properties":{"name":"B K Nagar Slam","road":"B K Nagar Slam","ward":"Yeshwanthpura","ladies":"yes"}},{"type":"Feature","geometry":{"type":"Point","coordinates":[77.55411,13.0214]},"properties":{"name":"Sunnadagoodu Slum","road":"Sunnadagoodu Slum","ward":"Yeshwanthpura","ladies":"yes"}},{"type":"Feature","geometry":{"type":"Point","coordinates":[77.52114,13.03597]},"properties":{"name":"Police Chowki","road":"1st Main 1st Block","ward":"HMT Ward","ladies":"yes"}},{"type":"Feature","geometry":{"type":"Point","coordinates":[77.5248,13.0426]},"properties":{"name":"Thannirahalli","road":"1st Cross","ward":"HMT Ward","ladies":"yes"}},{"type":"Feature","geometry":{"type":"Point","coordinates":[77.52858,13.0335]},"properties":{"name":"Ashraya Nagar","road":"SRS Round","ward":"HMT Ward","ladies":"yes"}},{"type":"Feature","geometry":{"type":"Point","coordinates":[77.52664,13.02551]},"properties":{"name":"Bariyal Ground","road":"-","ward":"HMT Ward","ladies":"yes"}},{"type":"Feature","geometry":{"type":"Point","coordinates":[77.52554,13.03207]},"properties":{"name":"Laggere Main Road","road":"4th Cross","ward":"HMT Ward","ladies":"yes"}},{"type":"Feature","geometry":{"type":"Point","coordinates":[77.51611,13.04102]},"properties":{"name":"Ajcent NH4 8th Mile","road":"NH4 Tumkar Road","ward":"Chokkasandra","ladies":"yes"}},{"type":"Feature","geometry":{"type":"Point","coordinates":[77.50687,13.01099]},"properties":{"name":"Near Peenya 2nd Stage Bus Stop","road":"Near Peenya 2nd Stage Bus Stop","ward":"Peenya Industrial Area","ladies":"yes"}},{"type":"Feature","geometry":{"type":"Point","coordinates":[77.53346,13.02528]},"properties":{"name":"Sanjay Studio Road","road":"-","ward":"Lakshmi Devi Nagara","ladies":"yes"}},{"type":"Feature","geometry":{"type":"Point","coordinates":[77.52309,13.01973]},"properties":{"name":"Caveri Nagar Kuvempu Layout","road":"I R Polytechnic Road","ward":"Lakshmi Devi Nagara","ladies":"yes"}},{"type":"Feature","geometry":{"type":"Point","coordinates":[77.52661,13.01409]},"properties":{"name":"Jai Bhir Vereeshwari Slam","road":"-","ward":"Lakshmi Devi Nagara","ladies":"yes"}},{"type":"Feature","geometry":{"type":"Point","coordinates":[77.5926,13.00803]},"properties":{"name":"Muni Reddy Palyam","road":"-","ward":"Jayachamarajendra Nagara","ladies":"yes"}},{"type":"Feature","geometry":{"type":"Point","coordinates":[77.59328,13.0112]},"properties":{"name":"Muni Reddy Palyam Main Road","road":"-","ward":"Jayachamarajendra Nagara","ladies":"no"}},{"type":"Feature","geometry":{"type":"Point","coordinates":[77.59498,13.00906]},"properties":{"name":"Pemme Gowda Road","road":"J C Main Road","ward":"Jayachamarajendra Nagara","ladies":"no"}},{"type":"Feature","geometry":{"type":"Point","coordinates":[77.59432,13.00869]},"properties":{"name":"Opp Maheshwaramma Temple","road":"J C Main Road","ward":"Jayachamarajendra Nagara","ladies":"yes"}},{"type":"Feature","geometry":{"type":"Point","coordinates":[77.60354,13.01468]},"properties":{"name":"Thanagonalow Nagar","road":"Cross Road","ward":"Devara Jeevanahalli","ladies":"yes"}},{"type":"Feature","geometry":{"type":"Point","coordinates":[77.61099,13.01504]},"properties":{"name":"B S A Road Near Football Ground","road":"B S A Ground","ward":"Muneshwara Nagara","ladies":"yes"}},{"type":"Feature","geometry":{"type":"Point","coordinates":[77.6313,13.01217]},"properties":{"name":"Jaksion Layout","road":"-","ward":"Lingarajapura","ladies":"yes"}},{"type":"Feature","geometry":{"type":"Point","coordinates":[77.63099,13.01256]},"properties":{"name":"Jaksion Layout B Block","road":"-","ward":"Lingarajapura","ladies":"yes"}},{"type":"Feature","geometry":{"type":"Point","coordinates":[77.6281,13.00922]},"properties":{"name":"B D A Layout G Block","road":"-","ward":"Lingarajapura","ladies":"yes"}},{"type":"Feature","geometry":{"type":"Point","coordinates":[77.64957,13.0078]},"properties":{"name":"Ambedakar Nagar","road":"1st Cross 3Road Main","ward":"Benniganahalli","ladies":"yes"}},{"type":"Feature","geometry":{"type":"Point","coordinates":[77.69224,13.00914]},"properties":{"name":"Opp Govt Hospital","road":"NH4 K R Pura","ward":"K R Puram","ladies":"yes"}},{"type":"Feature","geometry":{"type":"Point","coordinates":[77.71783,13.01559]},"properties":{"name":"Priyanka Nagar","road":"Priynaka Nagar","ward":"Basavanapura","ladies":"yes"}},{"type":"Feature","geometry":{"type":"Point","coordinates":[77.71769,12.99433]},"properties":{"name":"Hudi","road":"Hudi Circle","ward":"Hudi","ladies":"yes"}},{"type":"Feature","geometry":{"type":"Point","coordinates":[77.70365,13.00513]},"properties":{"name":"Devasandra Main Road Near Burrial Ground","road":"Devasandra Main Road","ward":"Devasandra","ladies":"yes"}},{"type":"Feature","geometry":{"type":"Point","coordinates":[77.69479,13.00776]},"properties":{"name":"Santha Maidana K R Pura Market Easteran Side","road":"K R Pura Markert","ward":"Devasandra","ladies":"yes"}},{"type":"Feature","geometry":{"type":"Point","coordinates":[77.69559,13.00707]},"properties":{"name":"Santha maidana K R Pura Market Southran Side","road":"K R Pura Markert","ward":"Devasandra","ladies":"yes"}},{"type":"Feature","geometry":{"type":"Point","coordinates":[77.67302,12.98981]},"properties":{"name":"1st Main Bazar Street Udaya Nagar","road":"-","ward":"A Narayanapura","ladies":"yes"}},{"type":"Feature","geometry":{"type":"Point","coordinates":[77.67609,12.99355]},"properties":{"name":"Tin Factory Bus Stop Udaya Nagar","road":"-","ward":"A Narayanapura","ladies":"yes"}},{"type":"Feature","geometry":{"type":"Point","coordinates":[77.66868,12.99632]},"properties":{"name":"Tin Factory Bus Stop Muthamanamma Temple","road":"-","ward":"A Narayanapura","ladies":"yes"}},{"type":"Feature","geometry":{"type":"Point","coordinates":[77.65077,12.97133]},"properties":{"name":"Vishweshwaraiah Park","road":"4th Main, 6th Cross, HAL 3Road Stage","ward":"New Tippa Sandra","ladies":"yes"}},{"type":"Feature","geometry":{"type":"Point","coordinates":[77.62061,13.00134]},"properties":{"name":"-","road":"Lazar Road","ward":"Maruthi Seva Nagara","ladies":"yes"}},{"type":"Feature","geometry":{"type":"Point","coordinates":[77.6207,13.00192]},"properties":{"name":"-","road":"Lazar Road","ward":"Maruthi Seva Nagara","ladies":"yes"}},{"type":"Feature","geometry":{"type":"Point","coordinates":[77.62058,13.00183]},"properties":{"name":"-","road":"Lazar Road","ward":"Maruthi Seva Nagara","ladies":"yes"}},{"type":"Feature","geometry":{"type":"Point","coordinates":[77.62812,12.99781]},"properties":{"name":"-","road":"Jeevanahalli","ward":"Maruthi Seva Nagara","ladies":"yes"}},{"type":"Feature","geometry":{"type":"Point","coordinates":[77.6273,13.00447]},"properties":{"name":"Krishnappa Lane 1st Cross","road":"-","ward":"Maruthi Seva Nagara","ladies":"yes"}},{"type":"Feature","geometry":{"type":"Point","coordinates":[77.62772,13.00017]},"properties":{"name":"Muttappa Road","road":"-","ward":"Maruthi Seva Nagara","ladies":"yes"}},{"type":"Feature","geometry":{"type":"Point","coordinates":[77.6314,12.99959]},"properties":{"name":"SathyaNagar","road":"-","ward":"Maruthi Seva Nagara","ladies":"yes"}},{"type":"Feature","geometry":{"type":"Point","coordinates":[77.6102,13.00925]},"properties":{"name":"Devara Jeevana Halli Main Road(Opp Police Station)","road":"Devara Jeevana Halli Main Road","ward":"S K Garden","ladies":"yes"}},{"type":"Feature","geometry":{"type":"Point","coordinates":[77.60384,13.00613]},"properties":{"name":"Corporation Colony","road":"2nd Cross Papenna GaRoaden","ward":"S K Garden","ladies":"yes"}},{"type":"Feature","geometry":{"type":"Point","coordinates":[77.60152,13.00153]},"properties":{"name":"M R S Palya","road":"Chinnappa GaRoaden Link Road","ward":"Ramaswamy Palya","ladies":"yes"}},{"type":"Feature","geometry":{"type":"Point","coordinates":[77.60074,13.00153]},"properties":{"name":"Bangalore 1","road":"Chinnappa GaRoaden Link Road","ward":"Ramaswamy Palya","ladies":"yes"}},{"type":"Feature","geometry":{"type":"Point","coordinates":[77.60016,13.00737]},"properties":{"name":"AK Colony Main Road","road":"AK Colony Main Road","ward":"Ramaswamy Palya","ladies":"yes"}},{"type":"Feature","geometry":{"type":"Point","coordinates":[77.59559,13.00787]},"properties":{"name":"R K Block","road":"Marappa Thota 1st Cross","ward":"Ramaswamy Palya","ladies":"no"}},{"type":"Feature","geometry":{"type":"Point","coordinates":[77.59729,12.98445]},"properties":{"name":"Raju Colony","road":"Queen Road","ward":"Jaya Mahal","ladies":"yes"}},{"type":"Feature","geometry":{"type":"Point","coordinates":[77.59774,12.98553]},"properties":{"name":"Raju Colony","road":"Queen Road","ward":"Jaya Mahal","ladies":"yes"}},{"type":"Feature","geometry":{"type":"Point","coordinates":[77.60214,12.988]},"properties":{"name":"Raju Colony","road":"Raju Gandhi Colony Middel Rama Temple","ward":"Jaya Mahal","ladies":"yes"}},{"type":"Feature","geometry":{"type":"Point","coordinates":[77.60358,12.99062]},"properties":{"name":"Cot Shelter Colony","road":"Cot Shelter Colony","ward":"Jaya Mahal","ladies":"yes"}},{"type":"Feature","geometry":{"type":"Point","coordinates":[77.60709,12.99734]},"properties":{"name":"KM","road":"Boar Colony","ward":"Jaya Mahal","ladies":"yes"}},{"type":"Feature","geometry":{"type":"Point","coordinates":[77.60484,12.99113]},"properties":{"name":"Bani Boorbaizar Road","road":"Bamboo Bazar","ward":"Jaya Mahal","ladies":"yes"}},{"type":"Feature","geometry":{"type":"Point","coordinates":[77.57253,13.00181]},"properties":{"name":"Near Mahaveer Medicals","road":"11th Cross Malleshwaram","ward":"Raj Mahal Guttahalli","ladies":"yes"}},{"type":"Feature","geometry":{"type":"Point","coordinates":[77.57407,12.99896]},"properties":{"name":"Dattatreya Temple","road":"4th Cross SIP Ext","ward":"Raj Mahal Guttahalli","ladies":"yes"}},{"type":"Feature","geometry":{"type":"Point","coordinates":[77.58397,13.0026]},"properties":{"name":"Near Cavary Theatre","road":"Bellarey Road","ward":"Raj Mahal Guttahalli","ladies":"yes"}},{"type":"Feature","geometry":{"type":"Point","coordinates":[77.57973,13.00449]},"properties":{"name":"BBMP Park","road":"1st Vyalikaval Ground","ward":"Raj Mahal Guttahalli","ladies":"yes"}},{"type":"Feature","geometry":{"type":"Point","coordinates":[77.57974,12.99898]},"properties":{"name":"Near Vasavi Hospital","road":"P G Halli Main Road","ward":"Raj Mahal Guttahalli","ladies":"yes"}},{"type":"Feature","geometry":{"type":"Point","coordinates":[77.56876,12.99693]},"properties":{"name":"Malleshwaram Ground","road":"5th Cross","ward":"Kadu Malleshwara Ward","ladies":"yes"}},{"type":"Feature","geometry":{"type":"Point","coordinates":[77.56397,13.00102]},"properties":{"name":"11th Main Manipal Hospital","road":"11th Main Manipal Hospital","ward":"Kadu Malleshwara Ward","ladies":"yes"}},{"type":"Feature","geometry":{"type":"Point","coordinates":[77.57104,12.99923]},"properties":{"name":"8th Cross","road":"Janatha Hotel","ward":"Kadu Malleshwara Ward","ladies":"yes"}},{"type":"Feature","geometry":{"type":"Point","coordinates":[77.55801,13.00758]},"properties":{"name":"Sangollirayanna park","road":"-","ward":"Subramanya Nagara","ladies":"yes"}},{"type":"Feature","geometry":{"type":"Point","coordinates":[77.55856,13.00839]},"properties":{"name":"Milk Colony Ground","road":"-","ward":"Subramanya Nagara","ladies":"yes"}},{"type":"Feature","geometry":{"type":"Point","coordinates":[77.55178,12.99895]},"properties":{"name":"Dr Raj Kumar Road","road":"Thirumalla Compound","ward":"Nagapura","ladies":"yes"}},{"type":"Feature","geometry":{"type":"Point","coordinates":[77.55182,13.0023]},"properties":{"name":"Udaya Kumar Park","road":"-","ward":"Nagapura","ladies":"yes"}},{"type":"Feature","geometry":{"type":"Point","coordinates":[77.54942,13.00838]},"properties":{"name":"RRI 1st Block","road":"20th Main","ward":"Nagapura","ladies":"yes"}},{"type":"Feature","geometry":{"type":"Point","coordinates":[77.54728,13.00155]},"properties":{"name":"Kamalanagar","road":"-","ward":"Nagapura","ladies":"yes"}},{"type":"Feature","geometry":{"type":"Point","coordinates":[77.54719,13.00297]},"properties":{"name":"12th Cross, Mahalakshmi Layout","road":"-","ward":"Nagapura","ladies":"yes"}},{"type":"Feature","geometry":{"type":"Point","coordinates":[77.54721,13.00184]},"properties":{"name":"Sankupahalli","road":"Park","ward":"Nagapura","ladies":"yes"}},{"type":"Feature","geometry":{"type":"Point","coordinates":[77.54624,13.00005]},"properties":{"name":"5th Main Road","road":"2nd Stage West of Chord Road","ward":"Nagapura","ladies":"yes"}},{"type":"Feature","geometry":{"type":"Point","coordinates":[77.5486,12.99978]},"properties":{"name":"2nd Main Road","road":"West of Chord Road","ward":"Nagapura","ladies":"yes"}},{"type":"Feature","geometry":{"type":"Point","coordinates":[77.54723,13.00298]},"properties":{"name":"2nd Main Road","road":"12th Cross Mahalakshmi Pura Park","ward":"Nagapura","ladies":"yes"}},{"type":"Feature","geometry":{"type":"Point","coordinates":[77.54185,13.00353]},"properties":{"name":"Mahadevi Theator Back","road":"-","ward":"Nagapura","ladies":"yes"}},{"type":"Feature","geometry":{"type":"Point","coordinates":[77.5512,13.00582]},"properties":{"name":"Nagpura Stadium 6th","road":"-","ward":"Nagapura","ladies":"yes"}},{"type":"Feature","geometry":{"type":"Point","coordinates":[77.54516,13.00848]},"properties":{"name":"Sreenivasa Tample","road":"-","ward":"Mahalakshmi Puram","ladies":"yes"}},{"type":"Feature","geometry":{"type":"Point","coordinates":[77.54496,13.01424]},"properties":{"name":"Mahalakshmi Layout","road":"-","ward":"Mahalakshmi Puram","ladies":"yes"}},{"type":"Feature","geometry":{"type":"Point","coordinates":[77.5051,13.00491]},"properties":{"name":"Sunkadakatta Park","road":"Hegganahalli Main Road","ward":"Heggana Halli","ladies":"yes"}},{"type":"Feature","geometry":{"type":"Point","coordinates":[77.53624,13.00107]},"properties":{"name":"Kubarahalli Bus Stop","road":"-","ward":"Shankar Matta","ladies":"yes"}},{"type":"Feature","geometry":{"type":"Point","coordinates":[77.54092,13.00279]},"properties":{"name":"Kempeched park","road":"-","ward":"Shankar Matta","ladies":"yes"}},{"type":"Feature","geometry":{"type":"Point","coordinates":[77.56181,12.99386]},"properties":{"name":"7th Cross, Puttaswamaiah Road","road":"-","ward":"Gayithri Nagara","ladies":"yes"}},{"type":"Feature","geometry":{"type":"Point","coordinates":[77.56061,12.99692]},"properties":{"name":"Harishchandra Ghat","road":"-","ward":"Gayithri Nagara","ladies":"yes"}},{"type":"Feature","geometry":{"type":"Point","coordinates":[77.56348,12.99689]},"properties":{"name":"-","road":"-","ward":"Gayithri Nagara","ladies":"yes"}},{"type":"Feature","geometry":{"type":"Point","coordinates":[77.5635,12.9973]},"properties":{"name":"-","road":"-","ward":"Gayithri Nagara","ladies":"yes"}},{"type":"Feature","geometry":{"type":"Point","coordinates":[77.57307,12.99684]},"properties":{"name":"Dattatreya Temple","road":"9th Cross, 5th Cross","ward":"Dattatreya Temple Ward","ladies":"yes"}},{"type":"Feature","geometry":{"type":"Point","coordinates":[77.56603,12.93345]},"properties":{"name":"Dattatreya Temple","road":"Kurumariyamma Temple","ward":"Dattatreya Temple Ward","ladies":"yes"}},{"type":"Feature","geometry":{"type":"Point","coordinates":[77.57339,12.99894]},"properties":{"name":"Dattatreya Temple","road":"2nd Main Road","ward":"Dattatreya Temple Ward","ladies":"yes"}},{"type":"Feature","geometry":{"type":"Point","coordinates":[77.57682,12.99326]},"properties":{"name":"Dattatreya Temple","road":"Sheshadripuram","ward":"Dattatreya Temple Ward","ladies":"yes"}},{"type":"Feature","geometry":{"type":"Point","coordinates":[77.5747,12.99399]},"properties":{"name":"Dattatreya Temple","road":"Anjanayya Block","ward":"Dattatreya Temple Ward","ladies":"yes"}},{"type":"Feature","geometry":{"type":"Point","coordinates":[77.57307,12.99361]},"properties":{"name":"Dattatreya Temple","road":"Vivekananda Block","ward":"Dattatreya Temple Ward","ladies":"yes"}},{"type":"Feature","geometry":{"type":"Point","coordinates":[77.57577,12.99633]},"properties":{"name":"Dattatreya Temple","road":"Kasturi Ba Nagara","ward":"Dattatreya Temple Ward","ladies":"yes"}},{"type":"Feature","geometry":{"type":"Point","coordinates":[77.64083,12.98447]},"properties":{"name":"Andra Colony","road":"Old madras Road","ward":"Sarvagna Nagara","ladies":"yes"}},{"type":"Feature","geometry":{"type":"Point","coordinates":[77.63451,12.98308]},"properties":{"name":"Kadirayyana Palya","road":"Main Roadd Dead End","ward":"Sarvagna Nagara","ladies":"yes"}},{"type":"Feature","geometry":{"type":"Point","coordinates":[77.62867,12.98297]},"properties":{"name":"Kadirayyana Palya","road":"Main Road Left End","ward":"Sarvagna Nagara","ladies":"yes"}},{"type":"Feature","geometry":{"type":"Point","coordinates":[77.64494,12.98734]},"properties":{"name":"New Biappanahalli Extn","road":"Main Road Dead End Left","ward":"Sarvagna Nagara","ladies":"yes"}},{"type":"Feature","geometry":{"type":"Point","coordinates":[77.6446,12.9884]},"properties":{"name":"New Biappanahalli Extn","road":"Indra Harizana Seva Sangha","ward":"Sarvagna Nagara","ladies":"yes"}},{"type":"Feature","geometry":{"type":"Point","coordinates":[77.62501,12.99347]},"properties":{"name":"PKS Naidu Road","road":"N C Colony","ward":"Sarvagna Nagara","ladies":"yes"}},{"type":"Feature","geometry":{"type":"Point","coordinates":[77.62256,12.98555]},"properties":{"name":"Kalahalli","road":"4th Cross Near BBMP Park","ward":"Sarvagna Nagara","ladies":"yes"}},{"type":"Feature","geometry":{"type":"Point","coordinates":[77.63675,12.97807]},"properties":{"name":"BDA Complex Indra Nagar","road":"Service Road Near Double Road","ward":"Hoysala Nagara","ladies":"yes"}},{"type":"Feature","geometry":{"type":"Point","coordinates":[77.63663,12.97734]},"properties":{"name":"Thamarikanna Road","road":"Swami Vivekananda Road","ward":"Hoysala Nagara","ladies":"yes"}},{"type":"Feature","geometry":{"type":"Point","coordinates":[77.62697,12.98013]},"properties":{"name":"Murphy Town","road":"Ananth Nayar Road","ward":"Hoysala Nagara","ladies":"yes"}},{"type":"Feature","geometry":{"type":"Point","coordinates":[77.64303,12.98266]},"properties":{"name":"New Binnamagala Slum","road":"Hutting Colony Indira Nagara 1 Stage","ward":"Hoysala Nagara","ladies":"yes"}},{"type":"Feature","geometry":{"type":"Point","coordinates":[77.68255,12.96686]},"properties":{"name":"Basavana Nagar Bus Stop","road":"Basavana Nagara Main Road","ward":"Vijnana Nagara","ladies":"yes"}},{"type":"Feature","geometry":{"type":"Point","coordinates":[77.70442,12.99718]},"properties":{"name":"Kaveri Nagara","road":"Kaveri Nagara 1st Main Pillareddy Road","ward":"Garudachar Palya","ladies":"yes"}},{"type":"Feature","geometry":{"type":"Point","coordinates":[77.70355,12.99795]},"properties":{"name":"Kaveri Nagara","road":"Kaveri Nagara Near Old Burial Ground","ward":"Garudachar Palya","ladies":"yes"}},{"type":"Feature","geometry":{"type":"Point","coordinates":[77.70398,12.99633]},"properties":{"name":"Kaveri Nagara","road":"Kaveri Nagara Anjaneya Temple Road","ward":"Garudachar Palya","ladies":"yes"}},{"type":"Feature","geometry":{"type":"Point","coordinates":[77.76547,12.98314]},"properties":{"name":"Kadugodi Main Road","road":"Hope Farm - Kadugudi Main Road","ward":"Kadugodi","ladies":"yes"}},{"type":"Feature","geometry":{"type":"Point","coordinates":[77.76799,12.98356]},"properties":{"name":"Channasandra","road":"Channasandra Circle FCI Godown Road - Kadugudi","ward":"Kadugodi","ladies":"yes"}},{"type":"Feature","geometry":{"type":"Point","coordinates":[77.65738,12.95947]},"properties":{"name":"Doddanekundhi Main Road","road":"HAL-Doddanekundhi Main Road Near ISRO Circle","ward":"Dodda Nekkundi","ladies":"yes"}},{"type":"Feature","geometry":{"type":"Point","coordinates":[77.66462,12.96809]},"properties":{"name":"Nellurpura","road":"Nellurpura Main Road","ward":"HAL Airport","ladies":"yes"}},{"type":"Feature","geometry":{"type":"Point","coordinates":[77.66088,12.95268]},"properties":{"name":"Amdekar nagar","road":"Anganwadi School Behind Road","ward":"HAL Airport","ladies":"yes"}},{"type":"Feature","geometry":{"type":"Point","coordinates":[77.64971,12.96851]},"properties":{"name":"Jeevanbhimanagar Main Road","road":"HAL 2nd Stage","ward":"Jeevanbhima Nagara","ladies":"yes"}},{"type":"Feature","geometry":{"type":"Point","coordinates":[77.60587,12.98532]},"properties":{"name":"Russel Market","road":"Rueesl Market Cross Road","ward":"Bharathi Nagara","ladies":"yes"}},{"type":"Feature","geometry":{"type":"Point","coordinates":[77.60703,12.98505]},"properties":{"name":"Dry Fish Market","road":"Jumma Masjid Road Cross","ward":"Bharathi Nagara","ladies":"yes"}},{"type":"Feature","geometry":{"type":"Point","coordinates":[77.60741,12.99012]},"properties":{"name":"Bharathi Nagar A 1st Street","road":"Thimmaiah Road","ward":"Bharathi Nagara","ladies":"yes"}},{"type":"Feature","geometry":{"type":"Point","coordinates":[77.60403,12.99016]},"properties":{"name":"Bharathi Nagara 'E' 1st Street","road":"Thimmaiah Road","ward":"Bharathi Nagara","ladies":"yes"}},{"type":"Feature","geometry":{"type":"Point","coordinates":[77.61131,12.98875]},"properties":{"name":"Bharathi Nagara P No 3 Road Street","road":"Makan Road","ward":"Bharathi Nagara","ladies":"yes"}},{"type":"Feature","geometry":{"type":"Point","coordinates":[77.61066,12.9829]},"properties":{"name":"Military Compound","road":"Kamaraj Road","ward":"Bharathi Nagara","ladies":"no"}},{"type":"Feature","geometry":{"type":"Point","coordinates":[77.60241,12.9849]},"properties":{"name":"Near Bakery","road":"Chandini Chowk Road","ward":"Bharathi Nagara","ladies":"no"}},{"type":"Feature","geometry":{"type":"Point","coordinates":[77.60514,12.98588]},"properties":{"name":"Behind Beef Market","road":"Nala Road","ward":"Shivaji Nagara","ladies":"yes"}},{"type":"Feature","geometry":{"type":"Point","coordinates":[77.60338,12.98796]},"properties":{"name":"Poultry Market","road":"BRoad way Road","ward":"Shivaji Nagara","ladies":"no"}},{"type":"Feature","geometry":{"type":"Point","coordinates":[77.59443,12.99199]},"properties":{"name":"Opp Jain Hospital","road":"Millers Road","ward":"Vasantha Nagara","ladies":"yes"}},{"type":"Feature","geometry":{"type":"Point","coordinates":[77.57872,12.9872]},"properties":{"name":"Shivananda Circle","road":"Hara krishna Road","ward":"Vasantha Nagara","ladies":"yes"}},{"type":"Feature","geometry":{"type":"Point","coordinates":[77.58131,12.98381]},"properties":{"name":"Triangle Park","road":"Race Course Road","ward":"Vasantha Nagara","ladies":"yes"}},{"type":"Feature","geometry":{"type":"Point","coordinates":[77.55723,12.99242]},"properties":{"name":"10th Main Road, Dr Rajkumar Road","road":"10th Cross","ward":"Prakash Nagara","ladies":"no"}},{"type":"Feature","geometry":{"type":"Point","coordinates":[77.55432,12.99037]},"properties":{"name":"P & T Road 2nd Block Rajajinagar","road":"P & T Road","ward":"Rajaji Nagara","ladies":"yes"}},{"type":"Feature","geometry":{"type":"Point","coordinates":[77.55467,12.99386]},"properties":{"name":"12th Main 2nd Block Rajajinagar RTO Office Front","road":"12th Main","ward":"Rajaji Nagara","ladies":"yes"}},{"type":"Feature","geometry":{"type":"Point","coordinates":[77.5543,12.99503]},"properties":{"name":"12th main 2nd block Rajajinagar","road":"12th Main","ward":"Rajaji Nagara","ladies":"yes"}},{"type":"Feature","geometry":{"type":"Point","coordinates":[77.54621,12.99564]},"properties":{"name":"Thimmaiah Road, Manjunath Nagar","road":"Thimmaiah Road","ward":"Rajaji Nagara","ladies":"yes"}},{"type":"Feature","geometry":{"type":"Point","coordinates":[77.55315,12.99811]},"properties":{"name":"Dr Rajkumar Road Opp Navarang","road":"Dr Rajkumar Road","ward":"Rajaji Nagara","ladies":"yes"}},{"type":"Feature","geometry":{"type":"Point","coordinates":[77.55233,12.99789]},"properties":{"name":"12th Main 2nd Block Rajajinagar Udapi Hotel Front","road":"12th Main","ward":"Rajaji Nagara","ladies":"yes"}},{"type":"Feature","geometry":{"type":"Point","coordinates":[77.55083,12.99408]},"properties":{"name":"West Ward Road Power House Computer Near","road":"West Ward Road","ward":"Rajaji Nagara","ladies":"yes"}},{"type":"Feature","geometry":{"type":"Point","coordinates":[77.55183,12.99529]},"properties":{"name":"Basaveshwara Colony Rajajinagar","road":"28th Cross","ward":"Rajaji Nagara","ladies":"yes"}},{"type":"Feature","geometry":{"type":"Point","coordinates":[77.55249,12.99142]},"properties":{"name":"17th Main Road ESI Bus Stop 2nd Block","road":"17th Main","ward":"Rajaji Nagara","ladies":"yes"}},{"type":"Feature","geometry":{"type":"Point","coordinates":[77.54721,12.99524]},"properties":{"name":"3rd Main Dialysis Center 2nd Block","road":"3rd Main","ward":"Rajaji Nagara","ladies":"yes"}},{"type":"Feature","geometry":{"type":"Point","coordinates":[77.52924,12.98395]},"properties":{"name":"SR","road":"Magadi Main Road","ward":"Govindaraja Nagara","ladies":"yes"}},{"type":"Feature","geometry":{"type":"Point","coordinates":[77.53389,12.97592]},"properties":{"name":"Govindaraja Nagara Slum","road":"25th Cross","ward":"Govindaraja Nagara","ladies":"yes"}},{"type":"Feature","geometry":{"type":"Point","coordinates":[77.53827,12.97326]},"properties":{"name":"Near Vijay Nagar BUS Stop","road":"SR Opp to CPWD Quaters","ward":"Govindaraja Nagara","ladies":"yes"}},{"type":"Feature","geometry":{"type":"Point","coordinates":[77.53264,12.97812]},"properties":{"name":"Near BGS Play Ground","road":"8th Cross MRCR Layout","ward":"Govindaraja Nagara","ladies":"yes"}},{"type":"Feature","geometry":{"type":"Point","coordinates":[77.60462,12.98407]},"properties":{"name":"Shivaji Nagara","road":"Park Road","ward":"Sampangirama Nagara","ladies":"yes"}},{"type":"Feature","geometry":{"type":"Point","coordinates":[77.60861,12.98141]},"properties":{"name":"Commercial Street","road":"Defence Road","ward":"Sampangirama Nagara","ladies":"yes"}},{"type":"Feature","geometry":{"type":"Point","coordinates":[77.59443,12.96595]},"properties":{"name":"Sampangiram Nagar","road":"1st Main 8th Cross","ward":"Sampangirama Nagara","ladies":"no"}},{"type":"Feature","geometry":{"type":"Point","coordinates":[77.61405,12.95256]},"properties":{"name":"Sampangiram Nagar","road":"16th corss","ward":"Sampangirama Nagara","ladies":"no"}},{"type":"Feature","geometry":{"type":"Point","coordinates":[77.59236,12.9631]},"properties":{"name":"Sampangiram Nagar","road":"4th Main Road","ward":"Sampangirama Nagara","ladies":"no"}},{"type":"Feature","geometry":{"type":"Point","coordinates":[77.59067,12.9675]},"properties":{"name":"Sampangiram Nagar","road":"1st Cross pallavi Thertor","ward":"Sampangirama Nagara","ladies":"yes"}},{"type":"Feature","geometry":{"type":"Point","coordinates":[77.59013,12.9675]},"properties":{"name":"Sampangiram Nagar","road":"Vasavi Temple","ward":"Sampangirama Nagara","ladies":"no"}},{"type":"Feature","geometry":{"type":"Point","coordinates":[77.58952,12.96607]},"properties":{"name":"Sampangiram Nagar","road":"Devanaga Hotel Road","ward":"Sampangirama Nagara","ladies":"no"}},{"type":"Feature","geometry":{"type":"Point","coordinates":[77.59206,12.96251]},"properties":{"name":"Sampangiram Nagar","road":"Mission Road","ward":"Sampangirama Nagara","ladies":"yes"}},{"type":"Feature","geometry":{"type":"Point","coordinates":[77.60292,12.98327]},"properties":{"name":"Shivaji Nagara","road":"Bus Stand","ward":"Sampangirama Nagara","ladies":"yes"}},{"type":"Feature","geometry":{"type":"Point","coordinates":[77.61099,12.9743]},"properties":{"name":"Mayo Hall Court Inside","road":"-","ward":"Shantala Nagara","ladies":"no"}},{"type":"Feature","geometry":{"type":"Point","coordinates":[77.61132,12.97425]},"properties":{"name":"Mayo Hall Court Outside","road":"-","ward":"Shantala Nagara","ladies":"no"}},{"type":"Feature","geometry":{"type":"Point","coordinates":[77.60808,12.96793]},"properties":{"name":"P K Quarters","road":"-","ward":"Shantala Nagara","ladies":"no"}},{"type":"Feature","geometry":{"type":"Point","coordinates":[77.60594,12.96631]},"properties":{"name":"Nishan Hotel","road":"-","ward":"Shantala Nagara","ladies":"no"}},{"type":"Feature","geometry":{"type":"Point","coordinates":[77.61165,12.96336]},"properties":{"name":"Cement Lane","road":"-","ward":"Shantala Nagara","ladies":"no"}},{"type":"Feature","geometry":{"type":"Point","coordinates":[77.60598,12.96828]},"properties":{"name":"Museum Road","road":"-","ward":"Shantala Nagara","ladies":"no"}},{"type":"Feature","geometry":{"type":"Point","coordinates":[77.60077,12.97048]},"properties":{"name":"St Marks Road","road":"-","ward":"Shantala Nagara","ladies":"no"}},{"type":"Feature","geometry":{"type":"Point","coordinates":[77.60169,12.97]},"properties":{"name":"Bishop Cotton Girls School","road":"-","ward":"Shantala Nagara","ladies":"no"}},{"type":"Feature","geometry":{"type":"Point","coordinates":[77.60043,12.96101]},"properties":{"name":"Lang Fort Road","road":"-","ward":"Shantala Nagara","ladies":"no"}},{"type":"Feature","geometry":{"type":"Point","coordinates":[77.64164,12.96061]},"properties":{"name":"Domular Service Road","road":"-","ward":"Domlur","ladies":"no"}},{"type":"Feature","geometry":{"type":"Point","coordinates":[77.50201,12.95681]},"properties":{"name":"Opp Rajeshwari Theatre","road":"Old Air Port Road","ward":"Konena Agrahara","ladies":"yes"}},{"type":"Feature","geometry":{"type":"Point","coordinates":[77.6952,12.97904]},"properties":{"name":"Opp Total Mall","road":"BDA Main Road","ward":"Konena Agrahara","ladies":"yes"}},{"type":"Feature","geometry":{"type":"Point","coordinates":[77.61413,12.96155]},"properties":{"name":"Cement Lane Astin Town","road":"-","ward":"Agaram","ladies":"yes"}},{"type":"Feature","geometry":{"type":"Point","coordinates":[77.61407,12.95771]},"properties":{"name":"ORC Cross Astin Town Near Bus Stand","road":"-","ward":"Agaram","ladies":"yes"}},{"type":"Feature","geometry":{"type":"Point","coordinates":[77.61823,12.96225]},"properties":{"name":"Jayaraj Nagar A Street Astin Town","road":"-","ward":"Agaram","ladies":"yes"}},{"type":"Feature","geometry":{"type":"Point","coordinates":[77.61823,12.96225]},"properties":{"name":"Jayaraj Nagar A Street Astin Town","road":"-","ward":"Agaram","ladies":"yes"}},{"type":"Feature","geometry":{"type":"Point","coordinates":[77.61823,12.96225]},"properties":{"name":"Jayaraj Nagar A Street Astin Town","road":"-","ward":"Agaram","ladies":"yes"}},{"type":"Feature","geometry":{"type":"Point","coordinates":[77.61823,12.96225]},"properties":{"name":"Jayaraj Nagar A Street Astin Town","road":"-","ward":"Agaram","ladies":"yes"}},{"type":"Feature","geometry":{"type":"Point","coordinates":[77.61831,12.96062]},"properties":{"name":"John Bull Ukkadapalya","road":"-","ward":"Agaram","ladies":"yes"}},{"type":"Feature","geometry":{"type":"Point","coordinates":[77.61831,12.96062]},"properties":{"name":"John Bull Street Main Road","road":"-","ward":"Agaram","ladies":"yes"}},{"type":"Feature","geometry":{"type":"Point","coordinates":[77.61452,12.95839]},"properties":{"name":"Maya Bazar Nanjappa Garden","road":"-","ward":"Agaram","ladies":"yes"}},{"type":"Feature","geometry":{"type":"Point","coordinates":[77.62093,12.95565]},"properties":{"name":"Vannarpete Main Road Lowar Agram Road","road":"-","ward":"Agaram","ladies":"yes"}},{"type":"Feature","geometry":{"type":"Point","coordinates":[77.62539,12.96774]},"properties":{"name":"Gouthampur Shiva Temple Road","road":"-","ward":"Agaram","ladies":"yes"}},{"type":"Feature","geometry":{"type":"Point","coordinates":[77.6248,12.96817]},"properties":{"name":"Gouthampur 4th Cross Nagamma Block","road":"-","ward":"Agaram","ladies":"yes"}},{"type":"Feature","geometry":{"type":"Point","coordinates":[77.62873,12.96849]},"properties":{"name":"Gouthampur 1st Main 2nd Stage 515 Works","road":"-","ward":"Agaram","ladies":"yes"}},{"type":"Feature","geometry":{"type":"Point","coordinates":[77.61406,12.95772]},"properties":{"name":"North Street","road":"-","ward":"Vannar Pete","ladies":"yes"}},{"type":"Feature","geometry":{"type":"Point","coordinates":[77.61741,12.95636]},"properties":{"name":"Sonneehahalli","road":"-","ward":"Vannar Pete","ladies":"yes"}},{"type":"Feature","geometry":{"type":"Point","coordinates":[77.62189,12.95337]},"properties":{"name":"Andra Colony","road":"-","ward":"Vannar Pete","ladies":"yes"}},{"type":"Feature","geometry":{"type":"Point","coordinates":[77.62098,12.95146]},"properties":{"name":"Ayyappa Temple","road":"-","ward":"Vannar Pete","ladies":"yes"}},{"type":"Feature","geometry":{"type":"Point","coordinates":[77.61971,12.95447]},"properties":{"name":"Vivek Nagar Further Extn","road":"-","ward":"Vannar Pete","ladies":"yes"}},{"type":"Feature","geometry":{"type":"Point","coordinates":[77.61429,12.94995]},"properties":{"name":"L R Nagar 1st Main","road":"-","ward":"Nilasandra","ladies":"yes"}},{"type":"Feature","geometry":{"type":"Point","coordinates":[77.61619,12.95002]},"properties":{"name":"L R Nagar 1st Main","road":"-","ward":"Nilasandra","ladies":"yes"}},{"type":"Feature","geometry":{"type":"Point","coordinates":[77.61441,12.95037]},"properties":{"name":"80 Feet Ambedkar Nagar","road":"-","ward":"Nilasandra","ladies":"yes"}},{"type":"Feature","geometry":{"type":"Point","coordinates":[77.61467,12.95008]},"properties":{"name":"Near Dhoobi Ghat Ambedkar Nagar","road":"-","ward":"Nilasandra","ladies":"yes"}},{"type":"Feature","geometry":{"type":"Point","coordinates":[77.61606,12.95035]},"properties":{"name":"1st Main Ambedkar Nagar","road":"-","ward":"Nilasandra","ladies":"yes"}},{"type":"Feature","geometry":{"type":"Point","coordinates":[77.60068,12.95816]},"properties":{"name":"B Street P K Colony","road":"-","ward":"Shanthi Nagara","ladies":"yes"}},{"type":"Feature","geometry":{"type":"Point","coordinates":[77.60044,12.95753]},"properties":{"name":"G Street","road":"-","ward":"Shanthi Nagara","ladies":"yes"}},{"type":"Feature","geometry":{"type":"Point","coordinates":[77.59995,12.95747]},"properties":{"name":"Food Road","road":"-","ward":"Shanthi Nagara","ladies":"yes"}},{"type":"Feature","geometry":{"type":"Point","coordinates":[77.59985,12.9664]},"properties":{"name":"Near Akkithimanahalli Samudhya bhavan","road":"-","ward":"Shanthi Nagara","ladies":"yes"}},{"type":"Feature","geometry":{"type":"Point","coordinates":[77.60131,12.95879]},"properties":{"name":"J K Pura Masjid Road","road":"-","ward":"Shanthi Nagara","ladies":"yes"}},{"type":"Feature","geometry":{"type":"Point","coordinates":[77.58542,12.96295]},"properties":{"name":"K S Garden","road":"-","ward":"Sudham Nagara","ladies":"yes"}},{"type":"Feature","geometry":{"type":"Point","coordinates":[77.59067,12.96104]},"properties":{"name":"C K C Garden, Phinx Hospital Road 1st Cross","road":"-","ward":"Sudham Nagara","ladies":"yes"}},{"type":"Feature","geometry":{"type":"Point","coordinates":[77.59008,12.96271]},"properties":{"name":"Subbaih Circle","road":"-","ward":"Sudham Nagara","ladies":"yes"}},{"type":"Feature","geometry":{"type":"Point","coordinates":[77.58735,12.96092]},"properties":{"name":"Poornima theater","road":"-","ward":"Sudham Nagara","ladies":"yes"}},{"type":"Feature","geometry":{"type":"Point","coordinates":[77.58616,12.95939]},"properties":{"name":"K H Road, Nala Road","road":"-","ward":"Sudham Nagara","ladies":"yes"}},{"type":"Feature","geometry":{"type":"Point","coordinates":[77.58847,12.96223]},"properties":{"name":"Ramanna Garden","road":"-","ward":"Sudham Nagara","ladies":"yes"}},{"type":"Feature","geometry":{"type":"Point","coordinates":[77.5884,12.96202]},"properties":{"name":"Ramanna Garden","road":"-","ward":"Sudham Nagara","ladies":"yes"}},{"type":"Feature","geometry":{"type":"Point","coordinates":[77.58878,12.96255]},"properties":{"name":"Ramanna Garden","road":"-","ward":"Sudham Nagara","ladies":"yes"}},{"type":"Feature","geometry":{"type":"Point","coordinates":[77.5885,12.96225]},"properties":{"name":"Narayanaswamy Garden","road":"-","ward":"Sudham Nagara","ladies":"yes"}},{"type":"Feature","geometry":{"type":"Point","coordinates":[77.58211,12.95784]},"properties":{"name":"Desusa Garden","road":"-","ward":"Sudham Nagara","ladies":"yes"}},{"type":"Feature","geometry":{"type":"Point","coordinates":[77.58203,12.95772]},"properties":{"name":"Desusa Garden","road":"-","ward":"Sudham Nagara","ladies":"yes"}},{"type":"Feature","geometry":{"type":"Point","coordinates":[77.61677,12.99068]},"properties":{"name":"Sindhi Colony","road":"-","ward":"Sudham Nagara","ladies":"yes"}},{"type":"Feature","geometry":{"type":"Point","coordinates":[77.59192,12.95918]},"properties":{"name":"Y M School","road":"-","ward":"Sudham Nagara","ladies":"yes"}},{"type":"Feature","geometry":{"type":"Point","coordinates":[77.59192,12.95907]},"properties":{"name":"Y M School","road":"-","ward":"Sudham Nagara","ladies":"yes"}},{"type":"Feature","geometry":{"type":"Point","coordinates":[77.59204,12.95943]},"properties":{"name":"Y M School","road":"-","ward":"Sudham Nagara","ladies":"yes"}},{"type":"Feature","geometry":{"type":"Point","coordinates":[77.58731,12.96093]},"properties":{"name":"Cements Huts","road":"-","ward":"Sudham Nagara","ladies":"yes"}},{"type":"Feature","geometry":{"type":"Point","coordinates":[77.58545,12.95956]},"properties":{"name":"Vinobha Nagar","road":"-","ward":"Sudham Nagara","ladies":"yes"}},{"type":"Feature","geometry":{"type":"Point","coordinates":[77.58205,12.95751]},"properties":{"name":"J C Road Opp Archana Complex","road":"-","ward":"Sudham Nagara","ladies":"yes"}},{"type":"Feature","geometry":{"type":"Point","coordinates":[77.58265,12.95823]},"properties":{"name":"J C Road Office","road":"-","ward":"Sudham Nagara","ladies":"yes"}},{"type":"Feature","geometry":{"type":"Point","coordinates":[77.58284,12.95637]},"properties":{"name":"Rafeal Hospital Compound","road":"-","ward":"Sudham Nagara","ladies":"yes"}},{"type":"Feature","geometry":{"type":"Point","coordinates":[77.58208,12.95784]},"properties":{"name":"J C Raod","road":"-","ward":"Sudham Nagara","ladies":"no"}},{"type":"Feature","geometry":{"type":"Point","coordinates":[77.58648,12.96143]},"properties":{"name":"Raj Gopal Garden","road":"-","ward":"Sudham Nagara","ladies":"yes"}},{"type":"Feature","geometry":{"type":"Point","coordinates":[77.59982,12.97126]},"properties":{"name":"Papanna Garden","road":"-","ward":"Sudham Nagara","ladies":"no"}},{"type":"Feature","geometry":{"type":"Point","coordinates":[77.60065,12.97121]},"properties":{"name":"Ramakka Garden","road":"-","ward":"Sudham Nagara","ladies":"yes"}},{"type":"Feature","geometry":{"type":"Point","coordinates":[77.58025,12.95783]},"properties":{"name":"Appaji Garden","road":"-","ward":"Sudham Nagara","ladies":"yes"}},{"type":"Feature","geometry":{"type":"Point","coordinates":[77.58547,12.96286]},"properties":{"name":"Thayappa Garden","road":"-","ward":"Sudham Nagara","ladies":"yes"}},{"type":"Feature","geometry":{"type":"Point","coordinates":[77.59116,12.95863]},"properties":{"name":"Shambulinga Palya","road":"-","ward":"Sudham Nagara","ladies":"yes"}},{"type":"Feature","geometry":{"type":"Point","coordinates":[77.58772,12.9562]},"properties":{"name":"Nageshwara Garden","road":"-","ward":"Sudham Nagara","ladies":"yes"}},{"type":"Feature","geometry":{"type":"Point","coordinates":[77.58358,12.96259]},"properties":{"name":"Kumbara Gundi Extn 1st Cross","road":"-","ward":"Dharmaraya Swamy Temple","ladies":"yes"}},{"type":"Feature","geometry":{"type":"Point","coordinates":[77.58064,12.96248]},"properties":{"name":"Bamboo Bazar 3rd Cross","road":"-","ward":"Dharmaraya Swamy Temple","ladies":"yes"}},{"type":"Feature","geometry":{"type":"Point","coordinates":[77.58372,12.96162]},"properties":{"name":"Moti Nagar Kalasipalaya Extn 1st Cross","road":"-","ward":"Dharmaraya Swamy Temple","ladies":"no"}},{"type":"Feature","geometry":{"type":"Point","coordinates":[77.58003,12.96254]},"properties":{"name":"Bamboo Bazar Main Road","road":"-","ward":"Dharmaraya Swamy Temple","ladies":"no"}},{"type":"Feature","geometry":{"type":"Point","coordinates":[77.5764,12.9591]},"properties":{"name":"Hayathkhan Street","road":"-","ward":"Dharmaraya Swamy Temple","ladies":"no"}},{"type":"Feature","geometry":{"type":"Point","coordinates":[77.5764,12.9591]},"properties":{"name":"Kalasipalaya New extn Padmashale Road 2nd Main","road":"-","ward":"Dharmaraya Swamy Temple","ladies":"yes"}},{"type":"Feature","geometry":{"type":"Point","coordinates":[77.57728,12.95655]},"properties":{"name":"Kalasipalaya APMC Premises","road":"-","ward":"Dharmaraya Swamy Temple","ladies":"no"}},{"type":"Feature","geometry":{"type":"Point","coordinates":[77.57672,12.96017]},"properties":{"name":"Kalasipalaya APMC New Extn Premises","road":"-","ward":"Dharmaraya Swamy Temple","ladies":"yes"}},{"type":"Feature","geometry":{"type":"Point","coordinates":[77.57909,12.9582]},"properties":{"name":"Kalasipalaya Main Road","road":"-","ward":"Dharmaraya Swamy Temple","ladies":"yes"}},{"type":"Feature","geometry":{"type":"Point","coordinates":[77.57635,12.96043]},"properties":{"name":"Kalasipalaya Bus Stand B Street","road":"-","ward":"Dharmaraya Swamy Temple","ladies":"yes"}},{"type":"Feature","geometry":{"type":"Point","coordinates":[77.57697,12.95924]},"properties":{"name":"Kalasipalaya Bus Stand B Street","road":"-","ward":"Dharmaraya Swamy Temple","ladies":"yes"}},{"type":"Feature","geometry":{"type":"Point","coordinates":[77.57518,12.95828]},"properties":{"name":"Kalasipalaya Bus Stand F Street","road":"-","ward":"Dharmaraya Swamy Temple","ladies":"no"}},{"type":"Feature","geometry":{"type":"Point","coordinates":[77.5763,12.95927]},"properties":{"name":"K R Market Fort Road","road":"-","ward":"Dharmaraya Swamy Temple","ladies":"no"}},{"type":"Feature","geometry":{"type":"Point","coordinates":[77.57668,12.96019]},"properties":{"name":"K R Market Bus stop","road":"-","ward":"Dharmaraya Swamy Temple","ladies":"yes"}},{"type":"Feature","geometry":{"type":"Point","coordinates":[77.57638,12.95851]},"properties":{"name":"Old Kalasipalya Road","road":"-","ward":"Dharmaraya Swamy Temple","ladies":"no"}},{"type":"Feature","geometry":{"type":"Point","coordinates":[77.58355,12.96969]},"properties":{"name":"Cubbon Pet 13th Cross","road":"-","ward":"Dharmaraya Swamy Temple","ladies":"yes"}},{"type":"Feature","geometry":{"type":"Point","coordinates":[77.58464,12.96749]},"properties":{"name":"Cubbon Pet Sunkal Pet Market Premises","road":"-","ward":"Dharmaraya Swamy Temple","ladies":"yes"}},{"type":"Feature","geometry":{"type":"Point","coordinates":[77.57313,12.97171]},"properties":{"name":"OTC Road Pai Vihar Hotel","road":"-","ward":"Dharmaraya Swamy Temple","ladies":"yes"}},{"type":"Feature","geometry":{"type":"Point","coordinates":[77.57697,12.96402]},"properties":{"name":"N R Road","road":"-","ward":"Dharmaraya Swamy Temple","ladies":"yes"}},{"type":"Feature","geometry":{"type":"Point","coordinates":[77.57734,12.9639]},"properties":{"name":"SJP Road","road":"-","ward":"Dharmaraya Swamy Temple","ladies":"yes"}},{"type":"Feature","geometry":{"type":"Point","coordinates":[77.57734,12.9639]},"properties":{"name":"SJP Road","road":"-","ward":"Dharmaraya Swamy Temple","ladies":"no"}},{"type":"Feature","geometry":{"type":"Point","coordinates":[77.58408,12.96468]},"properties":{"name":"Pailwan Krishnappa Road","road":"-","ward":"Dharmaraya Swamy Temple","ladies":"yes"}},{"type":"Feature","geometry":{"type":"Point","coordinates":[77.58404,12.96453]},"properties":{"name":"P K Road","road":"-","ward":"Dharmaraya Swamy Temple","ladies":"no"}},{"type":"Feature","geometry":{"type":"Point","coordinates":[77.58517,12.96552]},"properties":{"name":"A M Road","road":"-","ward":"Dharmaraya Swamy Temple","ladies":"yes"}},{"type":"Feature","geometry":{"type":"Point","coordinates":[77.56269,12.97268]},"properties":{"name":"Keshava Nagar","road":"1st Cross Magadi Road","ward":"Cotton Pete","ladies":"yes"}},{"type":"Feature","geometry":{"type":"Point","coordinates":[77.56277,12.97542]},"properties":{"name":"Ashwalin Nagar","road":"1st Cross Magadi Road","ward":"Cotton Pete","ladies":"no"}},{"type":"Feature","geometry":{"type":"Point","coordinates":[77.56127,12.97571]},"properties":{"name":"Ashwalin Nagar","road":"Nurmal Toilet","ward":"Cotton Pete","ladies":"yes"}},{"type":"Feature","geometry":{"type":"Point","coordinates":[77.56227,12.96914]},"properties":{"name":"Nagamma Nagara","road":"-","ward":"Cotton Pete","ladies":"yes"}},{"type":"Feature","geometry":{"type":"Point","coordinates":[77.5631,12.97011]},"properties":{"name":"Nagamma Nagara","road":"1st Cross","ward":"Cotton Pete","ladies":"yes"}},{"type":"Feature","geometry":{"type":"Point","coordinates":[77.56154,12.97247]},"properties":{"name":"K P Agrahara","road":"-","ward":"Cotton Pete","ladies":"no"}},{"type":"Feature","geometry":{"type":"Point","coordinates":[77.56927,12.96804]},"properties":{"name":"Belimutt Road","road":"-","ward":"Cotton Pete","ladies":"yes"}},{"type":"Feature","geometry":{"type":"Point","coordinates":[77.57352,12.96792]},"properties":{"name":"Sulthan Pet Near Balagi","road":"-","ward":"Cotton Pete","ladies":"yes"}},{"type":"Feature","geometry":{"type":"Point","coordinates":[77.57148,12.9682]},"properties":{"name":"sulthan Pet","road":"-","ward":"Cotton Pete","ladies":"yes"}},{"type":"Feature","geometry":{"type":"Point","coordinates":[77.53928,12.97287]},"properties":{"name":"Servicd Road Near, 6th Main","road":"Service Road","ward":"Vijaya Nagara","ladies":"yes"}},{"type":"Feature","geometry":{"type":"Point","coordinates":[77.55199,12.97426]},"properties":{"name":"Prassanna Theater","road":"Magadi Road","ward":"Vijaya Nagara","ladies":"yes"}},{"type":"Feature","geometry":{"type":"Point","coordinates":[77.54696,12.97207]},"properties":{"name":"Pipiline Road","road":"1st A Cross Manuvana","ward":"Vijaya Nagara","ladies":"yes"}},{"type":"Feature","geometry":{"type":"Point","coordinates":[77.53122,12.97188]},"properties":{"name":"Kanakanagar","road":"Kanakanagar","ward":"Marenahalli","ladies":"yes"}},{"type":"Feature","geometry":{"type":"Point","coordinates":[77.52553,12.95777]},"properties":{"name":"Arundhathi Nagar Slum","road":"9th Cross","ward":"Nagarabhavi","ladies":"yes"}},{"type":"Feature","geometry":{"type":"Point","coordinates":[77.50462,12.96037]},"properties":{"name":"Kengri Signal","road":"Nagarabhavi Road","ward":"Jnana Bharathi Ward","ladies":"yes"}},{"type":"Feature","geometry":{"type":"Point","coordinates":[77.49297,12.9311]},"properties":{"name":"Govt Hospital Near","road":"Auto Stand Road","ward":"Ullalu","ladies":"yes"}},{"type":"Feature","geometry":{"type":"Point","coordinates":[77.52447,12.9411]},"properties":{"name":"Nirmal Souchalaya Mysore Road Nayyandanahalli","road":"-","ward":"Nayandahalli","ladies":"yes"}},{"type":"Feature","geometry":{"type":"Point","coordinates":[77.52537,12.94809]},"properties":{"name":"Sulabh International Gangodanahalli 4th Cross","road":"-","ward":"Nayandahalli","ladies":"yes"}},{"type":"Feature","geometry":{"type":"Point","coordinates":[77.5273,12.95268]},"properties":{"name":"Sulabh International Gangodanahalli 6th Cross Near IPP Hospital","road":"-","ward":"Nayandahalli","ladies":"yes"}},{"type":"Feature","geometry":{"type":"Point","coordinates":[77.52943,12.95143]},"properties":{"name":"BCC Layout Bus Stand","road":"Railway Parcel Road","ward":"Attiguppe","ladies":"yes"}},{"type":"Feature","geometry":{"type":"Point","coordinates":[77.52757,12.95352]},"properties":{"name":"Gangodhalli School","road":"Gangodhalli Main Road","ward":"Attiguppe","ladies":"yes"}},{"type":"Feature","geometry":{"type":"Point","coordinates":[77.52511,12.96043]},"properties":{"name":"Inside Sky Line Apts","road":"Sky Line Apts Park","ward":"Attiguppe","ladies":"yes"}},{"type":"Feature","geometry":{"type":"Point","coordinates":[77.53812,12.96437]},"properties":{"name":"RPC Layout Chord Road","road":"4th Cross","ward":"Hampi Nagara","ladies":"yes"}},{"type":"Feature","geometry":{"type":"Point","coordinates":[77.53467,12.96332]},"properties":{"name":"Near Maruthi Medicals","road":"SR","ward":"Hampi Nagara","ladies":"yes"}},{"type":"Feature","geometry":{"type":"Point","coordinates":[77.5414,12.96363]},"properties":{"name":"5th Main 10th Cross Near Burial Ground","road":"Ramesh Babu Circle Road","ward":"Hampi Nagara","ladies":"yes"}},{"type":"Feature","geometry":{"type":"Point","coordinates":[77.53768,12.9632]},"properties":{"name":"4th Cross Near Green House","road":"RPC Layout Bus Stand Road","ward":"Hampi Nagara","ladies":"yes"}},{"type":"Feature","geometry":{"type":"Point","coordinates":[77.53456,12.96363]},"properties":{"name":"RPC Layout Bus Stand","road":"BTS Bus Stand","ward":"Hampi Nagara","ladies":"yes"}},{"type":"Feature","geometry":{"type":"Point","coordinates":[77.55109,12.96404]},"properties":{"name":"Hasahalli Main Road","road":"-","ward":"Padarayanapura","ladies":"yes"}},{"type":"Feature","geometry":{"type":"Point","coordinates":[77.55079,12.96082]},"properties":{"name":"Vinayaka Nagar Bus Stand HBE Main Road","road":"-","ward":"Jagajivanaram Nagara","ladies":"yes"}},{"type":"Feature","geometry":{"type":"Point","coordinates":[77.55226,12.96004]},"properties":{"name":"Opp Ele Burnial, 2nd Main Road Mysore Road","road":"-","ward":"Jagajivanaram Nagara","ladies":"yes"}},{"type":"Feature","geometry":{"type":"Point","coordinates":[77.55422,12.96396]},"properties":{"name":"Hasahalli Main Road Abhiman Thetor","road":"-","ward":"Jagajivanaram Nagara","ladies":"yes"}},{"type":"Feature","geometry":{"type":"Point","coordinates":[77.55352,12.96279]},"properties":{"name":"Samudaya Toilet Muvinapura HBE Main Road","road":"-","ward":"Jagajivanaram Nagara","ladies":"yes"}},{"type":"Feature","geometry":{"type":"Point","coordinates":[77.57539,12.96209]},"properties":{"name":"SKR Market","road":"Podium Block","ward":"K R Market","ladies":"yes"}},{"type":"Feature","geometry":{"type":"Point","coordinates":[77.57455,12.96499]},"properties":{"name":"Infront of Mutton Market","road":"Mutton Market","ward":"K R Market","ladies":"yes"}},{"type":"Feature","geometry":{"type":"Point","coordinates":[77.57955,12.96036]},"properties":{"name":"Grain Bazar Road","road":"Grain Bazar Road","ward":"K R Market","ladies":"yes"}},{"type":"Feature","geometry":{"type":"Point","coordinates":[77.5788,12.96344]},"properties":{"name":"Nirmala Shouchalaya","road":"Bandimot","ward":"K R Market","ladies":"yes"}},{"type":"Feature","geometry":{"type":"Point","coordinates":[77.57231,12.96425]},"properties":{"name":"Sulabh Shouchalaya","road":"Mysore Road","ward":"K R Market","ladies":"yes"}},{"type":"Feature","geometry":{"type":"Point","coordinates":[77.56944,12.96423]},"properties":{"name":"Nirmala Shouchalaya","road":"Mysore Road","ward":"K R Market","ladies":"yes"}},{"type":"Feature","geometry":{"type":"Point","coordinates":[77.57414,12.95888]},"properties":{"name":"Nirmala Shouchalaya","road":"K R Road","ward":"K R Market","ladies":"yes"}},{"type":"Feature","geometry":{"type":"Point","coordinates":[77.57371,12.96604]},"properties":{"name":"Sulabh Shouchalaya","road":"Srinivas Achar Road","ward":"K R Market","ladies":"yes"}},{"type":"Feature","geometry":{"type":"Point","coordinates":[77.57152,12.9643]},"properties":{"name":"Nirmala Shouchalaya","road":"Mysore Road","ward":"K R Market","ladies":"yes"}},{"type":"Feature","geometry":{"type":"Point","coordinates":[77.57054,12.96518]},"properties":{"name":"Sulabh Shouchalaya","road":"Cartstand Road","ward":"K R Market","ladies":"yes"}},{"type":"Feature","geometry":{"type":"Point","coordinates":[77.56872,12.96557]},"properties":{"name":"Sulabh Shouchalaya","road":"Bakshi Garden","ward":"K R Market","ladies":"yes"}},{"type":"Feature","geometry":{"type":"Point","coordinates":[77.56743,12.95835]},"properties":{"name":"3rd Cross","road":"Conservency","ward":"Chamraja Pete","ladies":"yes"}},{"type":"Feature","geometry":{"type":"Point","coordinates":[77.56098,12.95684]},"properties":{"name":"7th Cross","road":"5th Main","ward":"Chamraja Pete","ladies":"yes"}},{"type":"Feature","geometry":{"type":"Point","coordinates":[77.56198,12.95952]},"properties":{"name":"7th Cross","road":"2nd Main","ward":"Chamraja Pete","ladies":"yes"}},{"type":"Feature","geometry":{"type":"Point","coordinates":[77.55973,12.96117]},"properties":{"name":"Sirsi Road","road":"Sirsi Road","ward":"Chamraja Pete","ladies":"yes"}},{"type":"Feature","geometry":{"type":"Point","coordinates":[77.56607,12.96032]},"properties":{"name":"Venkatarama Nagar","road":"Slum","ward":"Chamraja Pete","ladies":"yes"}},{"type":"Feature","geometry":{"type":"Point","coordinates":[77.55784,12.96058]},"properties":{"name":"2nd Main Road","road":"Koti Park","ward":"Chamraja Pete","ladies":"yes"}},{"type":"Feature","geometry":{"type":"Point","coordinates":[77.57212,12.9575]},"properties":{"name":"Pampa Maha Kavi Road","road":"Makkala Kuta","ward":"Chamraja Pete","ladies":"yes"}},{"type":"Feature","geometry":{"type":"Point","coordinates":[77.55051,12.95687]},"properties":{"name":"Bande Slum Kasturibanagar","road":"Kasturibanagar","ward":"Azad Nagara","ladies":"yes"}},{"type":"Feature","geometry":{"type":"Point","coordinates":[77.5514,12.95523]},"properties":{"name":"1st Cross Ashwathkatte Main Road","road":"Ashwathkatte Main Road","ward":"Azad Nagara","ladies":"yes"}},{"type":"Feature","geometry":{"type":"Point","coordinates":[77.57121,12.93985]},"properties":{"name":"Behind ICE Thundar Hotel","road":"DVG Road","ward":"Sunkenahalli","ladies":"yes"}},{"type":"Feature","geometry":{"type":"Point","coordinates":[77.56635,12.94774]},"properties":{"name":"Inside Kohinoor Ground","road":"Hyvadanna Road","ward":"Sunkenahalli","ladies":"yes"}},{"type":"Feature","geometry":{"type":"Point","coordinates":[77.57237,12.95316]},"properties":{"name":"Inside National Ground","road":"PMK Road","ward":"Sunkenahalli","ladies":"yes"}},{"type":"Feature","geometry":{"type":"Point","coordinates":[77.56675,12.94843]},"properties":{"name":"Ramakrishna Mutt","road":"Ramakrishna Mutt Road","ward":"Sunkenahalli","ladies":"yes"}},{"type":"Feature","geometry":{"type":"Point","coordinates":[77.56315,12.94981]},"properties":{"name":"Near Ashwat Katte","road":"K G Nagar","ward":"Sunkenahalli","ladies":"yes"}},{"type":"Feature","geometry":{"type":"Point","coordinates":[77.56586,12.9435]},"properties":{"name":"Beside Post Office","road":"Mont Joy Road","ward":"Sunkenahalli","ladies":"yes"}},{"type":"Feature","geometry":{"type":"Point","coordinates":[77.57673,12.95013]},"properties":{"name":"Vasavi Temple","road":"Vasavi Temple Road","ward":"Vishveshwara Puram","ladies":"yes"}},{"type":"Feature","geometry":{"type":"Point","coordinates":[77.56738,12.95553]},"properties":{"name":"Near UMA Talkies","road":"Bull Temple Road","ward":"Vishveshwara Puram","ladies":"yes"}},{"type":"Feature","geometry":{"type":"Point","coordinates":[77.58488,12.94402]},"properties":{"name":"Near Ashoka Pillar","road":"K K Palyas M Road","ward":"Vishveshwara Puram","ladies":"yes"}},{"type":"Feature","geometry":{"type":"Point","coordinates":[77.57996,12.95139]},"properties":{"name":"Lalbhagh Gate","road":"RV Road","ward":"Vishveshwara Puram","ladies":"yes"}},{"type":"Feature","geometry":{"type":"Point","coordinates":[77.57411,12.95634]},"properties":{"name":"KIMS Hospital","road":"LBF Road","ward":"Vishveshwara Puram","ladies":"yes"}},{"type":"Feature","geometry":{"type":"Point","coordinates":[77.57884,12.94853]},"properties":{"name":"Vani Vilas School","road":"Minerva Circle","ward":"Vishveshwara Puram","ladies":"yes"}},{"type":"Feature","geometry":{"type":"Point","coordinates":[77.5953,12.94549]},"properties":{"name":"Hombegowda Nagar Mariappan Road","road":"-","ward":"Siddapura","ladies":"no"}},{"type":"Feature","geometry":{"type":"Point","coordinates":[77.59467,12.94664]},"properties":{"name":"Hombegowda Nagar Hosur Road","road":"-","ward":"Siddapura","ladies":"yes"}},{"type":"Feature","geometry":{"type":"Point","coordinates":[77.59142,12.94754]},"properties":{"name":"Hombegowda Nagar Malige Road","road":"-","ward":"Siddapura"}},{"type":"Feature","geometry":{"type":"Point","coordinates":[77.59348,12.94206]},"properties":{"name":"Venkatesh Reddy Nagar 5th Cross Road","road":"-","ward":"Siddapura","ladies":"yes"}},{"type":"Feature","geometry":{"type":"Point","coordinates":[77.59072,12.93337]},"properties":{"name":"Dayananda Sons","road":"-","ward":"Siddapura","ladies":"yes"}},{"type":"Feature","geometry":{"type":"Point","coordinates":[77.59071,12.93315]},"properties":{"name":"Dayananda Sons","road":"-","ward":"Siddapura","ladies":"yes"}},{"type":"Feature","geometry":{"type":"Point","coordinates":[77.58912,12.94383]},"properties":{"name":"Dr Ambedakar Nagar","road":"-","ward":"Siddapura","ladies":"yes"}},{"type":"Feature","geometry":{"type":"Point","coordinates":[77.59232,12.9396]},"properties":{"name":"Shankappa Garden","road":"-","ward":"Siddapura","ladies":"yes"}},{"type":"Feature","geometry":{"type":"Point","coordinates":[77.59236,12.94035]},"properties":{"name":"Shankappa Garden","road":"-","ward":"Siddapura","ladies":"yes"}},{"type":"Feature","geometry":{"type":"Point","coordinates":[77.59101,12.93538]},"properties":{"name":"Murali Sons","road":"-","ward":"Siddapura","ladies":"yes"}},{"type":"Feature","geometry":{"type":"Point","coordinates":[77.59534,12.95137]},"properties":{"name":"4th Cross Wilson Garden H Siddaiah Road","road":"-","ward":"Hombegowda Nagara","ladies":"yes"}},{"type":"Feature","geometry":{"type":"Point","coordinates":[77.59328,12.95306]},"properties":{"name":"H Siddaiah Road Opp Bus Stand Burial Ground Corner Double Road Corner","road":"-","ward":"Hombegowda Nagara","ladies":"yes"}},{"type":"Feature","geometry":{"type":"Point","coordinates":[77.58545,12.9561]},"properties":{"name":"H Siddaiah Road 1st Cross Urvashi Theater Circle","road":"-","ward":"Hombegowda Nagara","ladies":"yes"}},{"type":"Feature","geometry":{"type":"Point","coordinates":[77.59695,12.94966]},"properties":{"name":"Bande Slum","road":"-","ward":"Hombegowda Nagara","ladies":"yes"}},{"type":"Feature","geometry":{"type":"Point","coordinates":[77.59048,12.95178]},"properties":{"name":"Housar Road Double Road Corner","road":"-","ward":"Hombegowda Nagara","ladies":"yes"}},{"type":"Feature","geometry":{"type":"Point","coordinates":[77.59725,12.9443]},"properties":{"name":"Housar Road 14th Cross Corner Near Vijaya Sagar Hotel","road":"-","ward":"Hombegowda Nagara","ladies":"yes"}},{"type":"Feature","geometry":{"type":"Point","coordinates":[77.59961,12.94755]},"properties":{"name":"Bande Slum Toilet 7th Main Chinayana Palya","road":"-","ward":"Hombegowda Nagara","ladies":"yes"}},{"type":"Feature","geometry":{"type":"Point","coordinates":[77.60234,12.94973]},"properties":{"name":"Narayana Pura Slum","road":"-","ward":"Hombegowda Nagara","ladies":"yes"}},{"type":"Feature","geometry":{"type":"Point","coordinates":[77.59558,12.95017]},"properties":{"name":"Sri Ram Toilers","road":"-","ward":"Hombegowda Nagara","ladies":"yes"}},{"type":"Feature","geometry":{"type":"Point","coordinates":[77.60056,12.94949]},"properties":{"name":"Narayanapura Slum","road":"-","ward":"Hombegowda Nagara","ladies":"no"}},{"type":"Feature","geometry":{"type":"Point","coordinates":[77.60104,12.94799]},"properties":{"name":"Anjenaya Slam","road":"-","ward":"Hombegowda Nagara","ladies":"yes"}},{"type":"Feature","geometry":{"type":"Point","coordinates":[77.60245,12.94005]},"properties":{"name":"Chandu Nagar","road":"BG Road","ward":"Lakkasandra","ladies":"yes"}},{"type":"Feature","geometry":{"type":"Point","coordinates":[77.60322,12.94444]},"properties":{"name":"Near Main Chinlya School","road":"New Micro Archygo SlumMain Road","ward":"Lakkasandra","ladies":"yes"}},{"type":"Feature","geometry":{"type":"Point","coordinates":[77.60349,12.95018]},"properties":{"name":"Nalur Gygahma Slum","road":"Nalur Slum Main Road","ward":"Lakkasandra","ladies":"yes"}},{"type":"Feature","geometry":{"type":"Point","coordinates":[77.60973,12.93895]},"properties":{"name":"Opp Police Qts","road":"Hosur Main Road","ward":"Lakkasandra","ladies":"yes"}},{"type":"Feature","geometry":{"type":"Point","coordinates":[77.61866,12.94641]},"properties":{"name":"-","road":"Opp to Passport Office 80 Feet Road","ward":"Adugodi","ladies":"yes"}},{"type":"Feature","geometry":{"type":"Point","coordinates":[77.61672,12.94493]},"properties":{"name":"-","road":"7th Main Road Near Anjaneya Swamy Temple Rajendranagar Slum","ward":"Adugodi","ladies":"yes"}},{"type":"Feature","geometry":{"type":"Point","coordinates":[77.74648,12.94285]},"properties":{"name":"Varthuru","road":"Varthur - Infront of Varthur Govt Jr College","ward":"Varthur","ladies":"yes"}},{"type":"Feature","geometry":{"type":"Point","coordinates":[77.6856,12.93062]},"properties":{"name":"Devarabisanahalli","road":"Devarabisanahalli Main Road","ward":"Bellanduru","ladies":"yes"}},{"type":"Feature","geometry":{"type":"Point","coordinates":[77.6785,12.92648]},"properties":{"name":"Bellamduru","road":"Bellandur Main Road","ward":"Bellanduru"}},{"type":"Feature","geometry":{"type":"Point","coordinates":[77.64198,12.95049]},"properties":{"name":"Challaghatta","road":"Challaghatta Colony","ward":"Bellanduru","ladies":"yes"}},{"type":"Feature","geometry":{"type":"Point","coordinates":[77.68,12.91287]},"properties":{"name":"1st Block","road":"80 Feet Road & Sarjapura Road","ward":"Koramangala","ladies":"yes"}},{"type":"Feature","geometry":{"type":"Point","coordinates":[77.61953,12.93932]},"properties":{"name":"6th Block, Laxmidevi Park","road":"20th Main Road","ward":"Koramangala","ladies":"yes"}},{"type":"Feature","geometry":{"type":"Point","coordinates":[77.6173,12.93673]},"properties":{"name":"5th Block Opp Mangala Kalyana Mantap","road":"20th Main Road","ward":"Koramangala","ladies":"yes"}},{"type":"Feature","geometry":{"type":"Point","coordinates":[77.60736,12.93534]},"properties":{"name":"Venkateshewara Layout Main Road","road":"Ghousia College","ward":"Suddagunte Palya","ladies":"yes"}},{"type":"Feature","geometry":{"type":"Point","coordinates":[77.61808,12.9242]},"properties":{"name":"Ayappa Swamy Temple","road":"Hosur Main Road","ward":"Suddagunte Palya","ladies":"yes"}},{"type":"Feature","geometry":{"type":"Point","coordinates":[77.57685,12.94118]},"properties":{"name":"MNK Park","road":"K R Road","ward":"Jaya Nagara","ladies":"yes"}},{"type":"Feature","geometry":{"type":"Point","coordinates":[77.57688,12.94318]},"properties":{"name":"MNK Park","road":"K R Road","ward":"Jaya Nagara","ladies":"yes"}},{"type":"Feature","geometry":{"type":"Point","coordinates":[77.57042,12.93767]},"properties":{"name":"NR Colony","road":"Shop Street","ward":"Basavanagudi","ladies":"yes"}},{"type":"Feature","geometry":{"type":"Point","coordinates":[77.57041,12.94138]},"properties":{"name":"Bugal Rock Park","road":"Eat Street","ward":"Basavanagudi","ladies":"yes"}},{"type":"Feature","geometry":{"type":"Point","coordinates":[77.5594,12.94899]},"properties":{"name":"Kempe Gowda Swimming Phool","road":"Hindu Maha Sagar Road","ward":"Hanumanth Nagara","ladies":"yes"}},{"type":"Feature","geometry":{"type":"Point","coordinates":[77.55576,12.95161]},"properties":{"name":"Deer Park Opposite Toilet","road":"Chamarajpet Main Road","ward":"Hanumanth Nagara","ladies":"yes"}},{"type":"Feature","geometry":{"type":"Point","coordinates":[77.56223,12.94657]},"properties":{"name":"Near AK Colony Park","road":"Gavipuram Main Road","ward":"Hanumanth Nagara","ladies":"yes"}},{"type":"Feature","geometry":{"type":"Point","coordinates":[77.56391,12.94715]},"properties":{"name":"Near Hari Hara Gudda Park","road":"Subramanya Bharathi Road","ward":"Hanumanth Nagara","ladies":"yes"}},{"type":"Feature","geometry":{"type":"Point","coordinates":[77.55908,12.94454]},"properties":{"name":"Near Ramanjneya Gudda","road":"Ramanjaneya Road","ward":"Hanumanth Nagara","ladies":"yes"}},{"type":"Feature","geometry":{"type":"Point","coordinates":[77.55395,12.93858]},"properties":{"name":"Footpath 80 Feet Road Bank Bus Stop","road":"80 Feet Road","ward":"Sri Nagara","ladies":"yes"}},{"type":"Feature","geometry":{"type":"Point","coordinates":[77.55416,12.94185]},"properties":{"name":"PES College","road":"50 Feet Road","ward":"Sri Nagara","ladies":"yes"}},{"type":"Feature","geometry":{"type":"Point","coordinates":[77.55476,12.94417]},"properties":{"name":"Srinagar Bus stand","road":"Srinagar Bus Stand","ward":"Sri Nagara","ladies":"yes"}},{"type":"Feature","geometry":{"type":"Point","coordinates":[77.55295,12.94842]},"properties":{"name":"Kasidada Bus stand","road":"Kasidada Bus Stand","ward":"Sri Nagara","ladies":"yes"}},{"type":"Feature","geometry":{"type":"Point","coordinates":[77.53701,12.95223]},"properties":{"name":"Inside Kanthimma Park","road":"Inside Kanthimma Park","ward":"Sri Nagara","ladies":"yes"}},{"type":"Feature","geometry":{"type":"Point","coordinates":[77.54949,12.94618]},"properties":{"name":"Behind IPP Hospital Opp Patel Gundappa","road":"10th Cross Muneshwara Block","ward":"Gali Anjenaya Temple Ward","ladies":"yes"}},{"type":"Feature","geometry":{"type":"Point","coordinates":[77.54311,12.94827]},"properties":{"name":"Near 58 Bus Stop Timber Yard Main Road","road":"Timber Yard Main Road","ward":"Gali Anjenaya Temple Ward","ladies":"yes"}},{"type":"Feature","geometry":{"type":"Point","coordinates":[77.52975,12.94648]},"properties":{"name":"1st Main Road,Deepanjali Nagar Near Metro Starion","road":"1st Main Road","ward":"Deepanjali Nagara","ladies":"yes"}},{"type":"Feature","geometry":{"type":"Point","coordinates":[77.53862,12.94521]},"properties":{"name":"Eranna Gudde Circle","road":"Hosakerehalli Main Road","ward":"Deepanjali Nagara","ladies":"yes"}},{"type":"Feature","geometry":{"type":"Point","coordinates":[77.48404,12.91022]},"properties":{"name":"Near Market","road":"Kuvempu Road Kengeri","ward":"Kengeri","ladies":"yes"}},{"type":"Feature","geometry":{"type":"Point","coordinates":[77.52478,12.91738]},"properties":{"name":"BEML 3rd Stage Model Road Near Bimal Complex","road":"-","ward":"Raja Rajeshawari Nagara","ladies":"yes"}},{"type":"Feature","geometry":{"type":"Point","coordinates":[77.52023,12.91895]},"properties":{"name":"Near BBMP Office ARO RR Nagar","road":"-","ward":"Raja Rajeshawari Nagara","ladies":"yes"}},{"type":"Feature","geometry":{"type":"Point","coordinates":[77.52733,12.92944]},"properties":{"name":"Athma Jyothi Nagar","road":"Behind John Distilleries Road","ward":"Raja Rajeshawari Nagara","ladies":"yes"}},{"type":"Feature","geometry":{"type":"Point","coordinates":[77.53969,12.93026]},"properties":{"name":"Hosakerehalli","road":"Hosakerehalli Bus Stand","ward":"Hosakerehalli","ladies":"yes"}},{"type":"Feature","geometry":{"type":"Point","coordinates":[77.54373,12.93418]},"properties":{"name":"1st Cross, BSK, 3rd Stage, 7th Block","road":"-","ward":"Giri Nagara","ladies":"yes"}},{"type":"Feature","geometry":{"type":"Point","coordinates":[77.54307,12.94261]},"properties":{"name":"50 Feet Road BDA Avahalli Park","road":"-","ward":"Giri Nagara","ladies":"yes"}},{"type":"Feature","geometry":{"type":"Point","coordinates":[77.55529,12.93173]},"properties":{"name":"No 43 Bus Stop Khatriguppa Main Road","road":"-","ward":"Katriguppe","ladies":"yes"}},{"type":"Feature","geometry":{"type":"Point","coordinates":[77.55966,12.93651]},"properties":{"name":"Shankar Nag Circle, Kempagowda Play Ground, 80 Feet Road, BSK 1st Stage","road":"-","ward":"Vidya Peeta Ward","ladies":"yes"}},{"type":"Feature","geometry":{"type":"Point","coordinates":[77.56142,12.928]},"properties":{"name":"C T Bade Park, BBMP Office","road":"-","ward":"Vidya Peeta Ward","ladies":"yes"}},{"type":"Feature","geometry":{"type":"Point","coordinates":[77.55432,12.92668]},"properties":{"name":"Shri Kantavaswar Park, Channama Layout","road":"-","ward":"Vidya Peeta Ward","ladies":"yes"}},{"type":"Feature","geometry":{"type":"Point","coordinates":[77.56026,12.92341]},"properties":{"name":"Ganesh Mandir Ward","road":"-","ward":"Ganesh Mandir Ward","ladies":"yes"}},{"type":"Feature","geometry":{"type":"Point","coordinates":[77.56094,12.92512]},"properties":{"name":"Ganesh Mandir Ward","road":"-","ward":"Ganesh Mandir Ward","ladies":"yes"}},{"type":"Feature","geometry":{"type":"Point","coordinates":[77.57431,12.92344]},"properties":{"name":"Karisandra","road":"-","ward":"Karisandra","ladies":"yes"}},{"type":"Feature","geometry":{"type":"Point","coordinates":[77.57542,12.92736]},"properties":{"name":"Karisandra","road":"-","ward":"Karisandra","ladies":"yes"}},{"type":"Feature","geometry":{"type":"Point","coordinates":[77.57843,12.92651]},"properties":{"name":"Karisandra","road":"-","ward":"Karisandra"}},{"type":"Feature","geometry":{"type":"Point","coordinates":[77.57239,12.93109]},"properties":{"name":"Yediyur","road":"-","ward":"Yediyuru","ladies":"yes"}},{"type":"Feature","geometry":{"type":"Point","coordinates":[77.5724,12.93153]},"properties":{"name":"Yediyur","road":"-","ward":"Yediyuru","ladies":"no"}},{"type":"Feature","geometry":{"type":"Point","coordinates":[77.57139,12.93158]},"properties":{"name":"Yediyur","road":"-","ward":"Yediyuru","ladies":"yes"}},{"type":"Feature","geometry":{"type":"Point","coordinates":[77.57233,12.93151]},"properties":{"name":"Yediyur","road":"-","ward":"Yediyuru"}},{"type":"Feature","geometry":{"type":"Point","coordinates":[77.5936,12.9265]},"properties":{"name":"26th Main Road, 32nd Cross Road","road":"26th Main","ward":"Pattabhi Ram Nagara","ladies":"yes"}},{"type":"Feature","geometry":{"type":"Point","coordinates":[77.58967,12.92653]},"properties":{"name":"Juction of 18th Main, 46th Cross, 4th T Block","road":"18th Main Road","ward":"Pattabhi Ram Nagara","ladies":"yes"}},{"type":"Feature","geometry":{"type":"Point","coordinates":[77.5812,12.93078]},"properties":{"name":"Juction of 27th Cross, 9th Main, 3rd Block","road":"27th Cross Road","ward":"Pattabhi Ram Nagara","ladies":"yes"}},{"type":"Feature","geometry":{"type":"Point","coordinates":[77.58062,12.93032]},"properties":{"name":"5th Main, 4th Block Jayanagara","road":"5th Main Road","ward":"Pattabhi Ram Nagara","ladies":"yes"}},{"type":"Feature","geometry":{"type":"Point","coordinates":[77.59065,12.92547]},"properties":{"name":"28th Main, 4th T Block (Park)","road":"34th Cross","ward":"Pattabhi Ram Nagara","ladies":"yes"}},{"type":"Feature","geometry":{"type":"Point","coordinates":[77.58364,12.92802]},"properties":{"name":"9th Main Road, 4th Block Jayanagara","road":"9th Main 4th Block Jayanagara","ward":"Pattabhi Ram Nagara","ladies":"yes"}},{"type":"Feature","geometry":{"type":"Point","coordinates":[77.58956,12.93263]},"properties":{"name":"22nd Cross, Near Byrasandra Bus Stop","road":"22nd Cross","ward":"Byra Sandra","ladies":"yes"}},{"type":"Feature","geometry":{"type":"Point","coordinates":[77.59172,12.92718]},"properties":{"name":"30th Cross, 22nd Main Thilakanagara","road":"30th Cross","ward":"Byra Sandra","ladies":"yes"}},{"type":"Feature","geometry":{"type":"Point","coordinates":[77.58755,12.93143]},"properties":{"name":"Nakkalubande Slum","road":"25th Main","ward":"Byra Sandra","ladies":"yes"}},{"type":"Feature","geometry":{"type":"Point","coordinates":[77.58724,12.92991]},"properties":{"name":"Jayanagara 4th Block Vegetable Market","road":"27th A Cross","ward":"Byra Sandra","ladies":"no"}},{"type":"Feature","geometry":{"type":"Point","coordinates":[77.59506,12.91752]},"properties":{"name":"46th Cross Near East end Bus Stop","road":"46th Cross","ward":"Jaya Nagara East","ladies":"yes"}},{"type":"Feature","geometry":{"type":"Point","coordinates":[77.60032,12.92576]},"properties":{"name":"Bannerughatta Road Near Bus Stop","road":"Bannerughatta Road","ward":"Jaya Nagara East","ladies":"yes"}},{"type":"Feature","geometry":{"type":"Point","coordinates":[77.5973,12.92718]},"properties":{"name":"East End Main Road Near Carmel school","road":"East End Main Road","ward":"Jaya Nagara East","ladies":"yes"}},{"type":"Feature","geometry":{"type":"Point","coordinates":[77.61046,12.92214]},"properties":{"name":"Tavarekere Bus Stop","road":"-","ward":"Madivala","ladies":"yes"}},{"type":"Feature","geometry":{"type":"Point","coordinates":[77.60989,12.90979]},"properties":{"name":"Murdaeshwara Bus stop","road":"16th Main Road","ward":"BTM Layout","ladies":"yes"}},{"type":"Feature","geometry":{"type":"Point","coordinates":[77.60703,12.9155]},"properties":{"name":"Masu Ground","road":"4th Cross, 9th Main","ward":"BTM Layout","ladies":"yes"}},{"type":"Feature","geometry":{"type":"Point","coordinates":[77.61506,12.91324]},"properties":{"name":"Near Someshwara Slum","road":"29th Main","ward":"BTM Layout","ladies":"yes"}},{"type":"Feature","geometry":{"type":"Point","coordinates":[77.61385,12.90839]},"properties":{"name":"Foresh Office Compound","road":"29th Main","ward":"BTM Layout","ladies":"yes"}},{"type":"Feature","geometry":{"type":"Point","coordinates":[77.5994,12.90708]},"properties":{"name":"Mini Forest","road":"15th Cross 1st Main","ward":"JP Nagara","ladies":"yes"}},{"type":"Feature","geometry":{"type":"Point","coordinates":[77.59908,12.91044]},"properties":{"name":"Mini Forest","road":"9th Cross 1st Main","ward":"JP Nagara","ladies":"yes"}},{"type":"Feature","geometry":{"type":"Point","coordinates":[77.58199,12.91038]},"properties":{"name":"9th Cross 1st Phase","road":"39th Main, JP Nagar","ward":"Sarakki","ladies":"yes"}},{"type":"Feature","geometry":{"type":"Point","coordinates":[77.57828,12.90722]},"properties":{"name":"Near Bangalore 1","road":"35th Main, 14th Cross","ward":"Sarakki","ladies":"yes"}},{"type":"Feature","geometry":{"type":"Point","coordinates":[77.5925,12.90877]},"properties":{"name":"VET College","road":"11th Main, 2nd Phase, JP Nagar","ward":"Sarakki","ladies":"yes"}},{"type":"Feature","geometry":{"type":"Point","coordinates":[77.58638,12.91002]},"properties":{"name":"J P Nagar","road":"10th Cross 2nd Main 2nd Phase","ward":"Sarakki","ladies":"yes"}},{"type":"Feature","geometry":{"type":"Point","coordinates":[77.58474,12.91754]},"properties":{"name":"5th Block Jayanagar","road":"10th Main Road","ward":"Shakambari Narara","ladies":"yes"}},{"type":"Feature","geometry":{"type":"Point","coordinates":[77.5782,12.92]},"properties":{"name":"8th Block Jayanagar","road":"40th Cross","ward":"Shakambari Narara","ladies":"yes"}},{"type":"Feature","geometry":{"type":"Point","coordinates":[77.57828,12.91768]},"properties":{"name":"8th Block Jayanagar","road":"45th Cross","ward":"Shakambari Narara","ladies":"yes"}},{"type":"Feature","geometry":{"type":"Point","coordinates":[77.58264,12.91599]},"properties":{"name":"5th Block Jayanagar","road":"46th Cross","ward":"Shakambari Narara","ladies":"yes"}},{"type":"Feature","geometry":{"type":"Point","coordinates":[77.57324,12.91563]},"properties":{"name":"Banashankari Temple","road":"-","ward":"Banashankari Temple Ward","ladies":"yes"}},{"type":"Feature","geometry":{"type":"Point","coordinates":[77.57338,12.91578]},"properties":{"name":"Banashankari Temple","road":"-","ward":"Banashankari Temple Ward","ladies":"yes"}},{"type":"Feature","geometry":{"type":"Point","coordinates":[77.56286,12.90519]},"properties":{"name":"Near Police Station","road":"71st Cross","ward":"Kumara Swamy Layout","ladies":"yes"}},{"type":"Feature","geometry":{"type":"Point","coordinates":[77.55815,12.9058]},"properties":{"name":"15th F Bus Stand Kumarswamy Layot","road":"50 Feet Cross Road","ward":"Padmanabha Nagara","ladies":"yes"}},{"type":"Feature","geometry":{"type":"Point","coordinates":[77.55958,12.91826]},"properties":{"name":"12th B Bus Stand Padmanabha Nagar","road":"M K Putlingaya Road","ward":"Padmanabha Nagara","ladies":"yes"}},{"type":"Feature","geometry":{"type":"Point","coordinates":[77.55955,12.91825]},"properties":{"name":"12th B Bus Stand Padmanabha Nagar","road":"C J V Road","ward":"Padmanabha Nagara","ladies":"yes"}},{"type":"Feature","geometry":{"type":"Point","coordinates":[77.54517,12.9287]},"properties":{"name":"Basaveshwara Park, 80 Feet Road, Basaveshwara Nagara","road":"Basaveshwara Nagara 80 Feet Road","ward":"Chikkalasandra","ladies":"yes"}},{"type":"Feature","geometry":{"type":"Point","coordinates":[77.54285,12.90581]},"properties":{"name":"Uttarahalli Main Road","road":"Uttarahalli Main Road","ward":"Uttarahalli","ladies":"yes"}},{"type":"Feature","geometry":{"type":"Point","coordinates":[77.57326,12.90129]},"properties":{"name":"Near HDFC BANK, Pickles Factory, Kanakapura Main Road, Yelchnahalli","road":"HDFC Bank Rd","ward":"Yelchenahalli","ladies":"yes"}},{"type":"Feature","geometry":{"type":"Point","coordinates":[77.59899,12.89409]},"properties":{"name":"Opp to Mahindra Show Room, Near IIMB, Banneraghatta Road, Bilekahalli, Bangalore","road":"Near IIMB","ward":"Bilekhalli","ladies":"yes"}},{"type":"Feature","geometry":{"type":"Point","coordinates":[77.64197,12.89587]},"properties":{"name":"Bandepalya Near Govt School","road":"Near Govt School","ward":"Mangammana Palya","ladies":"yes"}},{"type":"Feature","geometry":{"type":"Point","coordinates":[77.63614,12.89849]},"properties":{"name":"Timber Road, Bandepalya","road":"Timber Road","ward":"Mangammana Palya","ladies":"yes"}},{"type":"Feature","geometry":{"type":"Point","coordinates":[77.61571,12.87989]},"properties":{"name":"Nayappa Halli Near Anganawadi","road":"Nayappahalli","ward":"Arakere","ladies":"yes"}},{"type":"Feature","geometry":{"type":"Point","coordinates":[77.59701,12.88673]},"properties":{"name":"Venugoapal Nagar","road":"-","ward":"Arakere","ladies":"yes"}},{"type":"Feature","geometry":{"type":"Point","coordinates":[77.57335,12.89183]},"properties":{"name":"RBI Layout Play ground","road":"8th Cross RBI Layout","ward":"Konankunte","ladies":"yes"}},{"type":"Feature","geometry":{"type":"Point","coordinates":[77.48404,12.91022]},"properties":{"name":"Bhuvaneshwari Nagar","road":"8th Cross","ward":"Hemmigepura","ladies":"yes"}}]}
