{"type":"FeatureCollection","features":[{"type":"Feature","geometry":{"type":"Point","coordinates":[77.61154,12.94143]},"properties":{"id":"ps-adugodi","name":"Adugodi Police Station","locationSource":"station","phone":"080-22942573","email":"adugodibcp@ksp.gov.in","division":"South East","subdivision":"Madivala"}},{"type":"Feature","geometry":{"type":"Point","coordinates":[77.59856,13.05686]},"properties":{"id":"ps-amruthahally","name":"Amruthahally Police Station","locationSource":"station","phone":"080-22943644","email":"amruthahallipsbcp@ksp.gov.in","division":"North East","subdivision":"Sampigehalli"}},{"type":"Feature","geometry":{"type":"Point","coordinates":[77.69289,12.71012]},"properties":{"id":"ps-anekal","name":"Anekal Police Station","locationSource":"station"}},{"type":"Feature","geometry":{"type":"Point","coordinates":[77.51274,12.97649]},"properties":{"id":"ps-annapoorneshwarinagar","name":"Annapoorneshwari Nagar Police Station","locationSource":"station","phone":"080-23482644","division":"West","subdivision":"Kengeri Gate"}},{"type":"Feature","geometry":{"type":"Point","coordinates":[77.61019,12.97163]},"properties":{"id":"ps-ashokanagara","name":"Ashoknagar Police Station","locationSource":"station","phone":"080-22942076","email":"anagarbcp@ksp.gov.in","division":"Central","subdivision":"Cubbonpark"}},{"type":"Feature","geometry":{"type":"Point","coordinates":[77.77167,12.77894]},"properties":{"id":"ps-attibele","name":"Attibele Police Station","locationSource":"station"}},{"type":"Feature","geometry":{"type":"Point","coordinates":[77.74572,13.04233]},"properties":{"id":"ps-avalahally","name":"Avalahally Police Station","locationSource":"station"}},{"type":"Feature","geometry":{"type":"Point","coordinates":[77.50366,13.05955]},"properties":{"id":"ps-bagalgunte","name":"Bagalgunte Police Station","locationSource":"station","phone":"080-22942258","division":"North","subdivision":"Yeshwanthapura"}},{"type":"Feature","geometry":{"type":"Point","coordinates":[77.67044,13.14004]},"properties":{"id":"ps-bagalur","name":"Bagalur Police Station","locationSource":"station","phone":"080-28463100","email":"bhagalurpsbcp@ksp.gov.in","division":"North East","subdivision":"Sampigehalli"}},{"type":"Feature","geometry":{"type":"Point","coordinates":[77.56797,12.92927]},"properties":{"id":"ps-banashankari","name":"Banashankari Police Station","locationSource":"station","phone":"080-22942564","email":"bskbcp@ksp.gov.in","division":"South","subdivision":"Jayanagar"}},{"type":"Feature","geometry":{"type":"Point","coordinates":[77.64031,13.01963]},"properties":{"id":"ps-banaswadi","name":"Banaswadi Police Station","locationSource":"station","phone":"080-22942552","email":"bwadibcp@ksp.gov.in","division":"East","subdivision":"Banasawadi"}},{"type":"Feature","geometry":{"type":"Point","coordinates":[77.6456,12.89823]},"properties":{"id":"ps-bandepalya","name":"Bandepalya Police Station","locationSource":"area","phone":"080-22942236","division":"South East","subdivision":"Electronic City"}},{"type":"Feature","geometry":{"type":"Point","coordinates":[77.57424,12.942]},"properties":{"id":"ps-basavanagudi","name":"Basavanagudi Police Station","locationSource":"station","phone":"080-22942561","email":"bgudibcp@ksp.gov.in","division":"South","subdivision":"Jayanagar"}},{"type":"Feature","geometry":{"type":"Point","coordinates":[77.54257,12.98531]},"properties":{"id":"ps-basaveshwaranagar","name":"Basaveshwara Nagar Police Station","locationSource":"station","phone":"080-22942516","email":"bwnagarbcp@ksp.gov.in","division":"West","subdivision":"Vijayanagar"}},{"type":"Feature","geometry":{"type":"Point","coordinates":[77.62434,12.87826]},"properties":{"id":"ps-begur","name":"Begur Police Station","locationSource":"station","phone":"080-22942551","division":"South East","subdivision":"Electronic City"}},{"type":"Feature","geometry":{"type":"Point","coordinates":[77.66787,12.91916]},"properties":{"id":"ps-bellanduru","name":"Bellanduru Police Station","locationSource":"station","phone":"080-25747771","division":"Whitefield","subdivision":"Marathahalli"}},{"type":"Feature","geometry":{"type":"Point","coordinates":[77.61209,12.9912]},"properties":{"id":"ps-bharathinagar","name":"Bharathi Nagar Police Station","locationSource":"station","phone":"080-22942547","email":"bnagarbcp@ksp.gov.in","division":"East","subdivision":"Pulakeshinagar"}},{"type":"Feature","geometry":{"type":"Point","coordinates":[77.62498,12.91062]},"properties":{"id":"ps-bommanahalli","name":"Bommanahalli Police Station","locationSource":"station","phone":"080-22942269","division":"South East","subdivision":"Mico Layout"}},{"type":"Feature","geometry":{"type":"Point","coordinates":[77.49132,12.98696]},"properties":{"id":"ps-byadarahalli","name":"Byadarahalli Police Station","locationSource":"station"}},{"type":"Feature","geometry":{"type":"Point","coordinates":[77.65687,12.99147]},"properties":{"id":"ps-byappanahalli","name":"Byappanahalli Police Station","locationSource":"station","phone":"080-22942545","email":"bpnhallibcp@ksp.gov.in","division":"East","subdivision":"Halasoor"}},{"type":"Feature","geometry":{"type":"Point","coordinates":[77.54012,12.9514]},"properties":{"id":"ps-byatarayanapura","name":"Byatarayanapura Police Station","locationSource":"station","phone":"080-22942507","email":"bypurabcp@ksp.gov.in","division":"West","subdivision":"Kengeri Gate"}},{"type":"Feature","geometry":{"type":"Point","coordinates":[77.5606,12.93012]},"properties":{"id":"ps-ckacchukattu","name":"C.K.Acchukattu Police Station","locationSource":"station","phone":"080-22942380","email":"ckachukattubcp@ksp.gov.in","division":"South","subdivision":"V.V.Puram"}},{"type":"Feature","geometry":{"type":"Point","coordinates":[77.56703,12.96054]},"properties":{"id":"ps-chamarajpet","name":"Chamarajpet Police Station","locationSource":"station","phone":"080-22942575","email":"cmpetbcp@ksp.gov.in","division":"West","subdivision":"Chickpet"}},{"type":"Feature","geometry":{"type":"Point","coordinates":[77.5284,12.9589]},"properties":{"id":"ps-chandralayout","name":"Chandra Layout Police Station","locationSource":"station","phone":"080-22942512","email":"clayoutbcp@ksp.gov.in","division":"West","subdivision":"Kengeri Gate"}},{"type":"Feature","geometry":{"type":"Point","coordinates":[77.63321,13.17328]},"properties":{"id":"ps-chikkajala","name":"Chikkajala Police Station","locationSource":"station","phone":"080-28467200","email":"chikkajalabng@ksp.gov.in","division":"North East","subdivision":"Devanahalli"}},{"type":"Feature","geometry":{"type":"Point","coordinates":[77.57613,12.96496]},"properties":{"id":"ps-citymarket","name":"City Market Police Station","locationSource":"station","phone":"080-22942502","email":"marketbcp@ksp.gov.in","division":"West","subdivision":"Chickpet"}},{"type":"Feature","geometry":{"type":"Point","coordinates":[77.60643,12.98208]},"properties":{"id":"ps-commercialstreet","name":"Commercial Street Police Station","locationSource":"station","phone":"080-22942549","email":"commercialbcp@ksp.gov.in","division":"East","subdivision":"Pulakeshinagar"}},{"type":"Feature","geometry":{"type":"Point","coordinates":[77.5701,12.96802]},"properties":{"id":"ps-cottonpet","name":"Cottonpet Police Station","locationSource":"station","phone":"080-22942508","email":"cotpetbcp@ksp.gov.in","division":"West","subdivision":"Chickpet"}},{"type":"Feature","geometry":{"type":"Point","coordinates":[77.59796,12.98003]},"properties":{"id":"ps-cubbonpark","name":"Cubbon Park Police Station","locationSource":"station","phone":"080-22942087","email":"cparkbcp@ksp.gov.in","division":"Central","subdivision":"Cubbonpark"}},{"type":"Feature","geometry":{"type":"Point","coordinates":[77.61034,13.00933]},"properties":{"id":"ps-devarajeevanahalli","name":"Devarajeevanahalli Police Station","locationSource":"station","phone":"080-22942550","email":"djhallibcp@ksp.gov.in","division":"East","subdivision":"Banasawadi"}},{"type":"Feature","geometry":{"type":"Point","coordinates":[77.66306,12.84001]},"properties":{"id":"ps-electroniccity","name":"Electronic City Police Station","locationSource":"station","phone":"080-22943469","email":"electroniccitybcp@ksp.gov.in","division":"South East","subdivision":"Electronic City"}},{"type":"Feature","geometry":{"type":"Point","coordinates":[77.52998,13.07216]},"properties":{"id":"ps-gangammagudi","name":"Gangammagudi Police Station","locationSource":"station","phone":"080-22942530","email":"gggudibcp@ksp.gov.in","division":"North","subdivision":"Yeshwanthapura"}},{"type":"Feature","geometry":{"type":"Point","coordinates":[77.5439,12.936]},"properties":{"id":"ps-girinagar","name":"Girinagar Police Station","locationSource":"station","phone":"080-22942577","email":"gnagarbcp@ksp.gov.in","division":"South","subdivision":"V.V.Puram"}},{"type":"Feature","geometry":{"type":"Point","coordinates":[77.61946,13.03446]},"properties":{"id":"ps-govindapura","name":"Govindapura Police Station","locationSource":"station"}},{"type":"Feature","geometry":{"type":"Point","coordinates":[77.52922,12.97234]},"properties":{"id":"ps-govindarajanagar","name":"Govindaraja Nagar Police Station","locationSource":"station"}},{"type":"Feature","geometry":{"type":"Point","coordinates":[77.68286,12.95501]},"properties":{"id":"ps-hal","name":"H.A.L. Police Station","locationSource":"station","phone":"080-22942542","email":"halbcp@ksp.gov.in","division":"Whitefield","subdivision":"Marathahalli"}},{"type":"Feature","geometry":{"type":"Point","coordinates":[77.65139,12.92015]},"properties":{"id":"ps-hsrlayout","name":"H.S.R.Layout Police Station","locationSource":"station","phone":"080-22943474","email":"hsrlayoutbcp@ksp.gov.in","division":"South East","subdivision":"Madivala"}},{"type":"Feature","geometry":{"type":"Point","coordinates":[77.62533,12.97481]},"properties":{"id":"ps-halasur","name":"Halasur Police Station","locationSource":"station","phone":"080-22942540","email":"halasoorbcp@ksp.gov.in","division":"East","subdivision":"Halasoor"}},{"type":"Feature","geometry":{"type":"Point","coordinates":[77.58678,12.96791]},"properties":{"id":"ps-halasurgate","name":"Halasurgate Police Station","locationSource":"station","phone":"080-22942075","email":"hgatebcp@ksp.gov.in","division":"Central","subdivision":"Halasoor Gate"}},{"type":"Feature","geometry":{"type":"Point","coordinates":[77.56145,12.93624]},"properties":{"id":"ps-hanumathanagar","name":"Hanumathanagar Police Station","locationSource":"station","phone":"080-22942576","email":"hnagarbcp@ksp.gov.in","division":"South","subdivision":"V.V.Puram"}},{"type":"Feature","geometry":{"type":"Point","coordinates":[77.58966,13.03839]},"properties":{"id":"ps-hebbal","name":"Hebbal Police Station","locationSource":"station","phone":"080-22942535","email":"hebbalbcp@ksp.gov.in","division":"North","subdivision":"J.C. Nagar"}},{"type":"Feature","geometry":{"type":"Point","coordinates":[77.64575,13.02414]},"properties":{"id":"ps-hennur","name":"Hennur Police Station","locationSource":"station","phone":"080-22942557","email":"hennurbcp@ksp.gov.in","division":"East","subdivision":"Banasawadi"}},{"type":"Feature","geometry":{"type":"Point","coordinates":[77.59277,12.98996]},"properties":{"id":"ps-highgrounds","name":"High Grounds Police Station","locationSource":"station","phone":"080-22942083","email":"hgroundbcp@ksp.gov.in","division":"Central","subdivision":"Sheshadripuram"}},{"type":"Feature","geometry":{"type":"Point","coordinates":[77.60007,12.87665]},"properties":{"id":"ps-hulimavu","name":"Hulimavu Police Station","locationSource":"station","phone":"080-22943470","division":"South East","subdivision":"Electronic City"}},{"type":"Feature","geometry":{"type":"Point","coordinates":[77.63828,12.98299]},"properties":{"id":"ps-indiranagar","name":"Indiranagar Police Station","locationSource":"station","phone":"080-22942541","email":"inagarbcp@ksp.gov.in","division":"East","subdivision":"Halasoor"}},{"type":"Feature","geometry":{"type":"Point","coordinates":[77.59357,13.00558]},"properties":{"id":"ps-jcnagarps","name":"J.C. Nagar Police Station","locationSource":"station","phone":"080-22942534","email":"jcnagarbcp@ksp.gov.in","division":"North","subdivision":"J.C. Nagar"}},{"type":"Feature","geometry":{"type":"Point","coordinates":[77.55508,12.96408]},"properties":{"id":"ps-jagajeevanramnagar","name":"Jagajeevanram Nagar Police Station","locationSource":"station","phone":"080-22942509","email":"jjnagarbcp@ksp.gov.in","division":"West","subdivision":"Kengeri Gate"}},{"type":"Feature","geometry":{"type":"Point","coordinates":[77.54954,13.04867]},"properties":{"id":"ps-jalahalli","name":"Jalahalli Police Station","locationSource":"station","phone":"080-22942527","email":"jhallibcp@ksp.gov.in","division":"North","subdivision":"Yeshwanthapura"}},{"type":"Feature","geometry":{"type":"Point","coordinates":[77.58139,12.92857]},"properties":{"id":"ps-jayanagar","name":"Jayanagar Police Station","locationSource":"station","phone":"080-22942562","email":"jnagarbcp@ksp.gov.in","division":"South","subdivision":"Jayanagar"}},{"type":"Feature","geometry":{"type":"Point","coordinates":[77.5876,12.9118]},"properties":{"id":"ps-jayaprakashnagar","name":"Jayaprakash Nagar Police Station","locationSource":"station","phone":"080-22942563","email":"jpnagarbcp@ksp.gov.in","division":"South","subdivision":"Jayanagar"}},{"type":"Feature","geometry":{"type":"Point","coordinates":[77.65539,12.9677]},"properties":{"id":"ps-jeevanbheemanagar","name":"Jeevan Bheemanagar Police Station","locationSource":"station","phone":"080-22942543","email":"jbnagarbcp@ksp.gov.in","division":"East","subdivision":"Halasoor"}},{"type":"Feature","geometry":{"type":"Point","coordinates":[77.63922,12.78246]},"properties":{"id":"ps-jigani","name":"Jigani Police Station","locationSource":"station"}},{"type":"Feature","geometry":{"type":"Point","coordinates":[77.50027,12.95055]},"properties":{"id":"ps-jnanabharathi","name":"Jnanabharathi Police Station","locationSource":"station","phone":"080-22942513","email":"jbharathibcp@ksp.gov.in","division":"West","subdivision":"Kengeri Gate"}},{"type":"Feature","geometry":{"type":"Point","coordinates":[77.56318,12.94916]},"properties":{"id":"ps-kgnagar","name":"K.G.Nagar Police Station","locationSource":"station","phone":"080-22942578","email":"kgnagarbcp@ksp.gov.in","division":"South","subdivision":"V.V.Puram"}},{"type":"Feature","geometry":{"type":"Point","coordinates":[77.69329,13.00902]},"properties":{"id":"ps-krpuram","name":"K.R. Puram Police Station","locationSource":"station","phone":"080-22942553","email":"krpurambcp@ksp.gov.in","division":"Whitefield","subdivision":"Whitefield"}},{"type":"Feature","geometry":{"type":"Point","coordinates":[77.75782,12.99541]},"properties":{"id":"ps-kadugodi","name":"Kadugodi Police Station","locationSource":"station","phone":"080-22943471","email":"kadugodibcp@ksp.gov.in","division":"Whitefield","subdivision":"Whitefield"}},{"type":"Feature","geometry":{"type":"Point","coordinates":[77.62746,13.02505]},"properties":{"id":"ps-kadugondanahalli","name":"Kadugondana Halli Police Station","locationSource":"station","phone":"080-22942556","email":"kghallibcp@ksp.gov.in","division":"East","subdivision":"Banasawadi"}},{"type":"Feature","geometry":{"type":"Point","coordinates":[77.51008,12.79955]},"properties":{"id":"ps-kaggalipura","name":"Kaggalipura Police Station","locationSource":"station"}},{"type":"Feature","geometry":{"type":"Point","coordinates":[77.57736,12.95737]},"properties":{"id":"ps-kalasipalya","name":"Kalasipalya Police Station","locationSource":"station","phone":"080-22942504","email":"klpalyabcp@ksp.gov.in","division":"West","subdivision":"Chickpet"}},{"type":"Feature","geometry":{"type":"Point","coordinates":[77.53202,12.98222]},"properties":{"id":"ps-kamakshipalya","name":"Kamakshipalya Police Station","locationSource":"station","phone":"080-22942517","email":"kmpalyabcp@ksp.gov.in","division":"West","subdivision":"Vijayanagar"}},{"type":"Feature","geometry":{"type":"Point","coordinates":[77.56158,12.97251]},"properties":{"id":"ps-kempapuraagrahara","name":"Kempapura Agrahara Police Station","locationSource":"station","phone":"080-22942518","email":"kpagaraharabcp@ksp.gov.in","division":"West","subdivision":"Vijayanagar"}},{"type":"Feature","geometry":{"type":"Point","coordinates":[77.48157,12.91048]},"properties":{"id":"ps-kengeri","name":"Kengeri Police Station","locationSource":"station","phone":"080-22942510","email":"kengeribcp@ksp.gov.in","division":"West","subdivision":"Kengeri Gate"}},{"type":"Feature","geometry":{"type":"Point","coordinates":[77.57407,13.0621]},"properties":{"id":"ps-kodigehalli","name":"Kodigehalli Police Station","locationSource":"station","phone":"080-22943703","email":"kodigehallibcp@ksp.gov.in","division":"North East","subdivision":"Yalahanka"}},{"type":"Feature","geometry":{"type":"Point","coordinates":[77.56641,12.88393]},"properties":{"id":"ps-konanakunte","name":"Konanakunte Police Station","locationSource":"station","phone":"080-22942560","division":"South","subdivision":"Subramanyapura"}},{"type":"Feature","geometry":{"type":"Point","coordinates":[77.62134,12.94121]},"properties":{"id":"ps-koramangala","name":"Koramangala Police Station","locationSource":"station","phone":"080-22943470","email":"kmangalabcp@ksp.gov.in","division":"South East","subdivision":"Madivala"}},{"type":"Feature","geometry":{"type":"Point","coordinates":[77.64641,13.05551]},"properties":{"id":"ps-kothanur","name":"Kothanur Police Station","locationSource":"station","phone":"080-22943694","email":"kottanurbcp@ksp.gov.in","division":"North East","subdivision":"Sampigehalli"}},{"type":"Feature","geometry":{"type":"Point","coordinates":[77.5633,12.90533]},"properties":{"id":"ps-kumaraswamylayout","name":"Kumaraswamy Layout Police Station","locationSource":"station","phone":"080-22942567","email":"kslayoutbcp@ksp.gov.in","division":"South","subdivision":"Subramanyapura"}},{"type":"Feature","geometry":{"type":"Point","coordinates":[77.44415,12.87516]},"properties":{"id":"ps-kumbalagudu","name":"Kumbalagudu Police Station","locationSource":"station"}},{"type":"Feature","geometry":{"type":"Point","coordinates":[77.46231,13.06225]},"properties":{"id":"ps-madhanayakanahally","name":"Madhanayakanahally Police Station","locationSource":"station"}},{"type":"Feature","geometry":{"type":"Point","coordinates":[77.62067,12.921]},"properties":{"id":"ps-madiwala","name":"Madiwala Police Station","locationSource":"station","phone":"080-22942568","email":"madivalabcp@ksp.gov.in","division":"South East","subdivision":"Madivala"}},{"type":"Feature","geometry":{"type":"Point","coordinates":[77.55017,12.97557]},"properties":{"id":"ps-magadiroad","name":"Magadi Road Police Station","locationSource":"station","phone":"080-22942515","email":"mroadbcp@ksp.gov.in","division":"West","subdivision":"Vijayanagar"}},{"type":"Feature","geometry":{"type":"Point","coordinates":[77.69283,12.99669]},"properties":{"id":"ps-mahadevapura","name":"Mahadevapura Police Station","locationSource":"station","phone":"080-22942546","email":"mdpurabcp@ksp.gov.in","division":"Whitefield","subdivision":"Whitefield"}},{"type":"Feature","geometry":{"type":"Point","coordinates":[77.54731,13.00274]},"properties":{"id":"ps-mahalakshmilayout","name":"Mahalakshmipuram Police Station","locationSource":"station","phone":"080-22942523","email":"mlayoutbcp@ksp.gov.in","division":"North","subdivision":"Malleshwarm"}},{"type":"Feature","geometry":{"type":"Point","coordinates":[77.56959,12.99664]},"properties":{"id":"ps-malleshwarm","name":"Malleshwarm Police Station","locationSource":"station","phone":"080-22942519","email":"mvmbcp@ksp.gov.in","division":"North","subdivision":"Malleshwarm"}},{"type":"Feature","geometry":{"type":"Point","coordinates":[77.69804,12.94562]},"properties":{"id":"ps-marathahalli","name":"Marathahalli Police Station","locationSource":"station","phone":"080-25639999","division":"Whitefield","subdivision":"Marathahalli"}},{"type":"Feature","geometry":{"type":"Point","coordinates":[77.61066,12.90861]},"properties":{"id":"ps-micolayout","name":"Mico Layout Police Station","locationSource":"station","phone":"080-22942569","email":"micobcp@ksp.gov.in","division":"South East","subdivision":"Mico Layout"}},{"type":"Feature","geometry":{"type":"Point","coordinates":[77.53671,13.01237]},"properties":{"id":"ps-nandinilayout","name":"Nandini Layout Police Station","locationSource":"station","phone":"080-22942539","email":"nlayoutbcp@ksp.gov.in","division":"North","subdivision":"Malleshwarm"}},{"type":"Feature","geometry":{"type":"Point","coordinates":[77.66736,12.87731]},"properties":{"id":"ps-parappanaagrahara","name":"Parappana Agrahara Police Station","locationSource":"station","phone":"080-22943468","email":"pagraharabcp@ksp.gov.in","division":"South East","subdivision":"Electronic City"}},{"type":"Feature","geometry":{"type":"Point","coordinates":[77.52116,13.03604]},"properties":{"id":"ps-peenya","name":"Peenya Police Station","locationSource":"station","phone":"080-22942532","email":"peenyabcp@ksp.gov.in","division":"North","subdivision":"Yeshwanthapura"}},{"type":"Feature","geometry":{"type":"Point","coordinates":[77.61965,12.99927]},"properties":{"id":"ps-pulakeshinagar","name":"Pulakeshinagar Police Station","locationSource":"station","phone":"080-22942548","email":"ftownbcp@ksp.gov.in","division":"East","subdivision":"Pulakeshinagar"}},{"type":"Feature","geometry":{"type":"Point","coordinates":[77.58198,12.9024]},"properties":{"id":"ps-puttenahalli","name":"Puttenahalli Police Station","locationSource":"station","phone":"080-22942566","division":"South","subdivision":"Subramanyapura"}},{"type":"Feature","geometry":{"type":"Point","coordinates":[77.5932,13.02473]},"properties":{"id":"ps-rtnagar","name":"R.T. Nagar Police Station","locationSource":"station","phone":"080-22942538","email":"rtnagarbcp@ksp.gov.in","division":"North","subdivision":"J.C. Nagar"}},{"type":"Feature","geometry":{"type":"Point","coordinates":[77.55422,12.99463]},"properties":{"id":"ps-rajajinagar","name":"Rajajinagar Police Station","locationSource":"station","phone":"080-22942522","email":"rnagarbcp@ksp.gov.in","division":"North","subdivision":"Malleshwarm"}},{"type":"Feature","geometry":{"type":"Point","coordinates":[77.56242,13.17397]},"properties":{"id":"ps-rajanukunte","name":"Rajanukunte Police Station","locationSource":"station"}},{"type":"Feature","geometry":{"type":"Point","coordinates":[77.52063,12.91284]},"properties":{"id":"ps-rajarajeshwarinagar","name":"Rajarajeshwari Nagar Police Station","locationSource":"station","phone":"080-22942559","email":"rrnagar@ksp.gov.in","division":"West","subdivision":"Kengeri Gate"}},{"type":"Feature","geometry":{"type":"Point","coordinates":[77.51357,13.01735]},"properties":{"id":"ps-rajgopalnagar","name":"Rajgopal Nagar Police Station","locationSource":"station","phone":"080-22942525","email":"rgnagarbcp@ksp.gov.in","division":"North","subdivision":"Malleshwarm"}},{"type":"Feature","geometry":{"type":"Point","coordinates":[77.66761,13.0122]},"properties":{"id":"ps-ramamurthynagar","name":"Ramamurthy Nagar Police Station","locationSource":"station","phone":"080-22942554","email":"rmnagarbcp@ksp.gov.in","division":"East","subdivision":"Banasawadi"}},{"type":"Feature","geometry":{"type":"Point","coordinates":[77.54992,13.02352]},"properties":{"id":"ps-yeshwanthpurarmcyard","name":"RMC Yard Police Station","locationSource":"station","phone":"080-22942531","email":"rmcyardbcp@ksp.gov.in","division":"North","subdivision":"Yeshwanthapura"}},{"type":"Feature","geometry":{"type":"Point","coordinates":[77.58314,12.96093]},"properties":{"id":"ps-sjpark","name":"S.J. Park Police Station","locationSource":"station","phone":"080-22942079","email":"sjparkbcp@ksp.gov.in","division":"Central","subdivision":"Halasoor Gate"}},{"type":"Feature","geometry":{"type":"Point","coordinates":[77.57254,13.01491]},"properties":{"id":"ps-sadashivanagar","name":"Sadashivanagar Police Station","locationSource":"station","phone":"080-22942085","email":"ssnagarbcp@ksp.gov.in","division":"Central","subdivision":"Sheshadripuram"}},{"type":"Feature","geometry":{"type":"Point","coordinates":[77.59216,12.96306]},"properties":{"id":"ps-sampangiramanagar","name":"Sampangiramanagar Police Station","locationSource":"station","phone":"080-22942078","email":"srnagarbcp@ksp.gov.in","division":"Central","subdivision":"Halasoor Gate"}},{"type":"Feature","geometry":{"type":"Point","coordinates":[77.63334,13.07533]},"properties":{"id":"ps-sampigehalli","name":"Sampigehalli Police Station","locationSource":"station","phone":"080-22943692","email":"sampigehallipsbcp@ksp.gov.in","division":"North East","subdivision":"Sampigehalli"}},{"type":"Feature","geometry":{"type":"Point","coordinates":[77.5758,13.03335]},"properties":{"id":"ps-sanjaynagara","name":"Sanjay Nagara Police Station","locationSource":"station","phone":"080-22942533","email":"sanjaynagarbcp@ksp.gov.in","division":"North","subdivision":"J.C. Nagar"}},{"type":"Feature","geometry":{"type":"Point","coordinates":[77.78128,12.86073]},"properties":{"id":"ps-sarjapura","name":"Sarjapura Police Station","locationSource":"station"}},{"type":"Feature","geometry":{"type":"Point","coordinates":[77.57359,12.98793]},"properties":{"id":"ps-seshadripuram","name":"Seshadripuram Police Station","locationSource":"station","phone":"080-22942586","email":"sspurambcp@ksp.gov.in","division":"Central","subdivision":"Sheshadripuram"}},{"type":"Feature","geometry":{"type":"Point","coordinates":[77.56999,12.95361]},"properties":{"id":"ps-shankarapuram","name":"Shankarpura Police Station","locationSource":"station","phone":"080-22942528","email":"skpurabcp@ksp.gov.in","division":"South","subdivision":"V.V.Puram"}},{"type":"Feature","geometry":{"type":"Point","coordinates":[77.60525,12.98551]},"properties":{"id":"ps-shivajinagar","name":"Shivajinagar Police Station","locationSource":"station","phone":"080-22942597","email":"snagarbcp@ksp.gov.in","division":"East","subdivision":"Pulakeshinagar"}},{"type":"Feature","geometry":{"type":"Point","coordinates":[77.59418,12.93963]},"properties":{"id":"ps-siddapura","name":"Siddapura Police Station","locationSource":"station","phone":"080-22942572","email":"spurabcp@ksp.gov.in","division":"South","subdivision":"Jayanagar"}},{"type":"Feature","geometry":{"type":"Point","coordinates":[77.48904,13.09343]},"properties":{"id":"ps-soladevanahalli","name":"Soladevanahalli Police Station","locationSource":"station","phone":"080-22942529","email":"sdhallibcp@ksp.gov.in","division":"North","subdivision":"Yeshwanthapura"}},{"type":"Feature","geometry":{"type":"Point","coordinates":[77.565,12.98999]},"properties":{"id":"ps-srirampura","name":"Srirampura Police Station","locationSource":"station","phone":"080-22942520","email":"srpurambcp@ksp.gov.in","division":"North","subdivision":"Malleshwarm"}},{"type":"Feature","geometry":{"type":"Point","coordinates":[77.55368,13.00334]},"properties":{"id":"ps-subramanyanagar","name":"Subramanya Nagar Police Station","locationSource":"station","phone":"080-22942524","email":"sbnagarbcp@ksp.gov.in","division":"North","subdivision":"Malleshwarm"}},{"type":"Feature","geometry":{"type":"Point","coordinates":[77.54432,12.9012]},"properties":{"id":"ps-subramanyapura","name":"Subramanyapura Police Station","locationSource":"station","phone":"080-22942565","email":"sbpurabcp@ksp.gov.in","division":"South","subdivision":"Subramanyapura"}},{"type":"Feature","geometry":{"type":"Point","coordinates":[77.60775,12.92578]},"properties":{"id":"ps-suddaguntepalya","name":"Suddaguntepalya Police Station","locationSource":"station","phone":"080-22942762","division":"South East","subdivision":"Mico Layout"}},{"type":"Feature","geometry":{"type":"Point","coordinates":[77.40077,12.96624]},"properties":{"id":"ps-tavarekere","name":"Tavarekere Police Station","locationSource":"station"}},{"type":"Feature","geometry":{"type":"Point","coordinates":[77.53629,12.86902]},"properties":{"id":"ps-thalaghattapura","name":"Thalaghattapura Police Station","locationSource":"station","phone":"080-22942359","division":"South","subdivision":"Subramanyapura"}},{"type":"Feature","geometry":{"type":"Point","coordinates":[77.59057,12.92836]},"properties":{"id":"ps-tilaknagar","name":"Tilak Nagar Police Station","locationSource":"station","phone":"080-22942571","email":"tlknagarbcp@ksp.gov.in","division":"South East","subdivision":"Mico Layout"}},{"type":"Feature","geometry":{"type":"Point","coordinates":[77.57482,12.97448]},"properties":{"id":"ps-upparpet","name":"Upparpet Police Station","locationSource":"station","phone":"080-22942503","email":"upetbcp@ksp.gov.in","division":"West","subdivision":"Chickpet"}},{"type":"Feature","geometry":{"type":"Point","coordinates":[77.57227,12.95962]},"properties":{"id":"ps-vvpuram","name":"V.V. Puram Police Station","locationSource":"station","phone":"080-22942574","division":"South","subdivision":"V.V.Puram"}},{"type":"Feature","geometry":{"type":"Point","coordinates":[77.74692,12.93803]},"properties":{"id":"ps-varthur","name":"Varthur Police Station","locationSource":"station","phone":"080-28539196","email":"varthurbcp@ksp.gov.in","division":"Whitefield","subdivision":"Marathahalli"}},{"type":"Feature","geometry":{"type":"Point","coordinates":[77.58861,12.97732]},"properties":{"id":"ps-vidhanasoudha","name":"Vidhana Soudha Police Station","locationSource":"station","phone":"080-22942086","email":"vsoudhabcp@ksp.gov.in","division":"Central","subdivision":"Cubbonpark"}},{"type":"Feature","geometry":{"type":"Point","coordinates":[77.56439,13.08399]},"properties":{"id":"ps-vidhyaranyapura","name":"Vidyaranyapura Police Station","locationSource":"station","phone":"080-22942528","email":"vrpurabcp@ksp.gov.in","division":"North East","subdivision":"Yalahanka"}},{"type":"Feature","geometry":{"type":"Point","coordinates":[77.53847,12.97235]},"properties":{"id":"ps-vijayanagar","name":"Vijayanagar Police Station","locationSource":"station","phone":"080-22942514","email":"vjnagarbcp@ksp.gov.in","division":"West","subdivision":"Vijayanagar"}},{"type":"Feature","geometry":{"type":"Point","coordinates":[77.6223,12.95155]},"properties":{"id":"ps-viveknagar","name":"Viveknagar Police Station","locationSource":"station","phone":"080-22942080","email":"vknagarbcp@ksp.gov.in","division":"Central","subdivision":"Cubbonpark"}},{"type":"Feature","geometry":{"type":"Point","coordinates":[77.57864,13.00149]},"properties":{"id":"ps-vyalikaval","name":"Vyalikaval Police Station","locationSource":"station","phone":"080-22942084","email":"vkavalbcp@ksp.gov.in","division":"Central","subdivision":"Sheshadripuram"}},{"type":"Feature","geometry":{"type":"Point","coordinates":[77.75108,12.97536]},"properties":{"id":"ps-whitefield","name":"Whitefield Police Station","locationSource":"station","phone":"080-22943472","email":"whitefieldbcp@ksp.gov.in","division":"Whitefield","subdivision":"Whitefield"}},{"type":"Feature","geometry":{"type":"Point","coordinates":[77.5962,12.95004]},"properties":{"id":"ps-wilsongarden","name":"Wilsongarden Police Station","locationSource":"station","phone":"080-22942581","email":"piwgarden@ksp.gov.in","division":"Central","subdivision":"Halasoor Gate"}},{"type":"Feature","geometry":{"type":"Point","coordinates":[77.58382,13.1]},"properties":{"id":"ps-yelahankanewtown","name":"Yelahanka New Town Police Station","locationSource":"station","phone":"080-22942537","email":"ylkntbcp@ksp.gov.in","division":"North East","subdivision":"Yalahanka"}},{"type":"Feature","geometry":{"type":"Point","coordinates":[77.59409,13.0949]},"properties":{"id":"ps-yelahanka","name":"Yelahanka Police Station","locationSource":"station","phone":"080-22942536","email":"ylankabcp@ksp.gov.in","division":"North East","subdivision":"Yalahanka"}},{"type":"Feature","geometry":{"type":"Point","coordinates":[77.5581,13.0182]},"properties":{"id":"ps-yeshwanthapura","name":"Yeshwanthapura Police Station","locationSource":"station","phone":"080-22942526","email":"yspurabcp@ksp.gov.in","division":"North","subdivision":"Yeshwanthapura"}}]}
